[{"name": "Abbey Wood", "postcode": "SE2 9QG", "code": "ABW"}, {"name": "Aber", "postcode": "CF83 1BR", "code": "ABE"}, {"name": "Abercynon", "postcode": "CF45 4EW", "code": "ACY"}, {"name": "Aberdare", "postcode": "CF44 7EA", "code": "ABA"}, {"name": "Aberdeen", "postcode": "AB11 6RT", "code": "ABD"}, {"name": "Aberdour", "postcode": "KY3 0TQ", "code": "AUR"}, {"name": "Aberdovey", "postcode": "LL35 0RT", "code": "AVY"}, {"name": "Abererch", "postcode": "LL53 6PJ", "code": "ABH"}, {"name": "Abergavenny", "postcode": "NP7 5HY", "code": "AGV"}, {"name": "Abergele & Pensarn", "postcode": "LL22 7SD", "code": "AGL"}, {"name": "Aberystwyth", "postcode": "SY23 1LH", "code": "AYW"}, {"name": "Accrington", "postcode": "BB5 0AA", "code": "ACR"}, {"name": "Achanalt", "postcode": "IV23 2QD", "code": "AAT"}, {"name": "Achnasheen", "postcode": "IV22 2EE", "code": "ACN"}, {"name": "Achnashellach", "postcode": "IV54 8YU", "code": "ACH"}, {"name": "Acklington", "postcode": "NE65 9BT", "code": "ACK"}, {"name": "Acle", "postcode": "NR13 3BZ", "code": "ACL"}, {"name": "Acocks Green", "postcode": "B27 6EB", "code": "ACG"}, {"name": "Acton Bridge", "postcode": "CW8 2RE", "code": "ACB"}, {"name": "Acton Central", "postcode": "W3 6BH", "code": "ACC"}, {"name": "Acton Main Line", "postcode": "W3 9EH", "code": "AML"}, {"name": "Adderley Park", "postcode": "B8 1BY", "code": "ADD"}, {"name": "Addiewell", "postcode": "EH55 8NQ", "code": "ADW"}, {"name": "Addlestone", "postcode": "KT15 2PB", "code": "ASN"}, {"name": "Adisham", "postcode": "CT3 3JE", "code": "ADM"}, {"name": "Adlington (Cheshire)", "postcode": "SK10 4NE", "code": "ADC"}, {"name": "Adlington (Lancashire)", "postcode": "PR7 4HB", "code": "ADL"}, {"name": "Adwick", "postcode": "DN6 7AQ", "code": "AWK"}, {"name": "Aigburth", "postcode": "L17 6AQ", "code": "AIG"}, {"name": "Ainsdale", "postcode": "PR8 3JP", "code": "ANS"}, {"name": "Aintree", "postcode": "L9 5BE", "code": "AIN"}, {"name": "Airbles", "postcode": "ML1 2SX", "code": "AIR"}, {"name": "Airdrie", "postcode": "ML6 0AN", "code": "ADR"}, {"name": "Albany Park", "postcode": "DA5 3HJ", "code": "AYP"}, {"name": "Albrighton", "postcode": "WV7 3EA", "code": "ALB"}, {"name": "Alderley Edge", "postcode": "SK9 7QZ", "code": "ALD"}, {"name": "Aldermaston", "postcode": "RG7 4JJ", "code": "AMT"}, {"name": "Aldershot", "postcode": "GU11 1HN", "code": "AHT"}, {"name": "Aldrington", "postcode": "BN3 5EZ", "code": "AGT"}, {"name": "Alexandra Palace", "postcode": "N22 7SS", "code": "AAP"}, {"name": "Alexandra Parade", "postcode": "G31 3JN", "code": "AXP"}, {"name": "Alexandria", "postcode": "G82 4ND", "code": "ALX"}, {"name": "Alfreton", "postcode": "DE55 7JR", "code": "ALF"}, {"name": "Alloa", "postcode": "FK10 1BA", "code": "ALO"}, {"name": "Allens West", "postcode": "TS16 0PF", "code": "ALW"}, {"name": "Alness", "postcode": "IV17 0SE", "code": "ASS"}, {"name": "Alnmouth for Alnwick", "postcode": "NE66 3QF", "code": "ALM"}, {"name": "Alresford (Essex)", "postcode": "CO7 8AN", "code": "ALR"}, {"name": "Alsager", "postcode": "ST7 2PN", "code": "ASG"}, {"name": "Althorne", "postcode": "CM3 6DG", "code": "ALN"}, {"name": "Althorpe", "postcode": "DN17 3HL", "code": "ALP"}, {"name": "Altnabreac", "postcode": "KW12 6UR", "code": "ABC"}, {"name": "Alton", "postcode": "GU34 2PY", "code": "AON"}, {"name": "Altrincham", "postcode": "WA14 1EN", "code": "ALT"}, {"name": "Alvechurch", "postcode": "B48 7SE", "code": "ALV"}, {"name": "Ambergate", "postcode": "DE56 2EN", "code": "AMB"}, {"name": "Amberley", "postcode": "BN18 9LR", "code": "AMY"}, {"name": "Amersham", "postcode": "HP6 5DW", "code": "AMR"}, {"name": "Ammanford", "postcode": "SA18 2DD", "code": "AMF"}, {"name": "Ancaster", "postcode": "NG32 3QU", "code": "ANC"}, {"name": "Anderston", "postcode": "G3 8RR", "code": "AND"}, {"name": "Andover", "postcode": "SP10 3HW", "code": "ADV"}, {"name": "Anerley", "postcode": "SE20 8PY", "code": "ANZ"}, {"name": "Angel Road", "postcode": "N18 2EA", "code": "AGR"}, {"name": "Angmering", "postcode": "BN16 3RE", "code": "ANG"}, {"name": "Annan", "postcode": "DG12 6AX", "code": "ANN"}, {"name": "Anniesland", "postcode": "G13 1HX", "code": "ANL"}, {"name": "Ansdell & Fairhaven", "postcode": "FY8 1AE", "code": "AFV"}, {"name": "Apperley Bridge", "postcode": "BD10 0FD", "code": "APY"}, {"name": "Appleby", "postcode": "CA16 6TT", "code": "APP"}, {"name": "Appledore (Kent)", "postcode": "TN26 2DG", "code": "APD"}, {"name": "Appleford", "postcode": "OX14 4NT", "code": "APF"}, {"name": "Appley Bridge", "postcode": "WN6 9AE", "code": "APB"}, {"name": "Apsley", "postcode": "HP3 9SX", "code": "APS"}, {"name": "Arbroath", "postcode": "DD11 3AE", "code": "ARB"}, {"name": "Ardgay", "postcode": "IV24 3DR", "code": "ARD"}, {"name": "Ardlui", "postcode": "G83 7EB", "code": "AUI"}, {"name": "Ardrossan Harbour", "postcode": "KA22 8ED", "code": "ADS"}, {"name": "Ardrossan South Beach", "postcode": "KA22 8AG", "code": "ASB"}, {"name": "Ardrossan Town", "postcode": "KA22 8DD", "code": "ADN"}, {"name": "Ardwick", "postcode": "M12 6JT", "code": "ADK"}, {"name": "Argyle Street", "postcode": "G1 5HB", "code": "AGS"}, {"name": "Arisaig", "postcode": "PH39 4NX", "code": "ARG"}, {"name": "Arlesey", "postcode": "SG15 6XA", "code": "ARL"}, {"name": "Armadale", "postcode": "EH48 3LP", "code": "ARM"}, {"name": "Armathwaite", "postcode": "CA4 9PW", "code": "AWT"}, {"name": "Arnside", "postcode": "LA5 0HG", "code": "ARN"}, {"name": "Arram", "postcode": "HU17 7NS", "code": "ARR"}, {"name": "Arrochar &Tarbet", "postcode": "G83 7DA", "code": "ART"}, {"name": "Arundel", "postcode": "BN18 9PH", "code": "ARU"}, {"name": "Ascot", "postcode": "SL5 9DW", "code": "ACT"}, {"name": "Ascott-under-Wychwood", "postcode": "OX7 6AJ", "code": "AUW"}, {"name": "Ash", "postcode": "GU12 6AZ", "code": "ASH"}, {"name": "Ash Vale", "postcode": "GU12 5NJ", "code": "AHV"}, {"name": "Ashburys", "postcode": "M12 5BX", "code": "ABY"}, {"name": "Ashchurch for Tewkesbury", "postcode": "GL20 8JU", "code": "ASC"}, {"name": "Ashfield", "postcode": "G22 6EZ", "code": "ASF"}, {"name": "Ashford (Middlesex)", "postcode": "TW15 2QN", "code": "AFS"}, {"name": "Ashford International", "postcode": "TN23 1EZ", "code": "AFK"}, {"name": "Ashley", "postcode": "WA14 3QD", "code": "ASY"}, {"name": "Ashtead", "postcode": "KT21 2DR", "code": "AHD"}, {"name": "Ashton-under-Lyne", "postcode": "OL6 6JP", "code": "AHN"}, {"name": "Ashurst", "postcode": "TN3 9TL", "code": "AHS"}, {"name": "Ashurst New Forest", "postcode": "SO40 7AA", "code": "ANF"}, {"name": "Ashwell & Morden", "postcode": "SG7 5RT", "code": "AWM"}, {"name": "Askam", "postcode": "LA16 7AL", "code": "ASK"}, {"name": "Aslockton", "postcode": "NG13 9BE", "code": "ALK"}, {"name": "Aspatria", "postcode": "CA7 2AR", "code": "ASP"}, {"name": "Aspley Guise", "postcode": "MK17 8HY", "code": "APG"}, {"name": "Aston", "postcode": "B6 7LS", "code": "AST"}, {"name": "Atherstone", "postcode": "CV9 1BH", "code": "ATH"}, {"name": "Atherton", "postcode": "M46 9LF", "code": "ATN"}, {"name": "Attadale", "postcode": "IV54 8YX", "code": "ATT"}, {"name": "Attenborough", "postcode": "NG9 5JL", "code": "ATB"}, {"name": "Attleborough", "postcode": "NR17 2AS", "code": "ATL"}, {"name": "Auchinleck", "postcode": "KA18 2AZ", "code": "AUK"}, {"name": "Audley End", "postcode": "CB11 4LB", "code": "AUD"}, {"name": "Aughton Park", "postcode": "L39 5QE", "code": "AUG"}, {"name": "Aviemore", "postcode": "PH22 1PY", "code": "AVM"}, {"name": "Avoncliff", "postcode": "BA15 2HA", "code": "AVF"}, {"name": "Avonmouth", "postcode": "BS11 9JB", "code": "AVN"}, {"name": "Axminster", "postcode": "EX13 5PJ", "code": "AXM"}, {"name": "Aylesbury", "postcode": "HP20 1RU", "code": "AYS"}, {"name": "Aylesbury Vale Parkway", "postcode": "HP18 0PS", "code": "AVP"}, {"name": "Aylesford", "postcode": "ME20 7JL", "code": "AYL"}, {"name": "Aylesham", "postcode": "CT3 3BD", "code": "AYH"}, {"name": "Ayr", "postcode": "KA7 3AU", "code": "AYR"}, {"name": "Bache", "postcode": "CH2 2JF", "code": "BAC"}, {"name": "Baglan", "postcode": "SA12 7PA", "code": "BAJ"}, {"name": "Bagshot", "postcode": "GU19 5LX", "code": "BAG"}, {"name": "Baildon", "postcode": "BD17 6EU", "code": "BLD"}, {"name": "Baillieston", "postcode": "G69 7DH", "code": "BIO"}, {"name": "Balcombe", "postcode": "RH17 6JQ", "code": "BAB"}, {"name": "Baldock", "postcode": "SG7 5DG", "code": "BDK"}, {"name": "Balham", "postcode": "SW12 9SJ", "code": "BAL"}, {"name": "Balloch", "postcode": "G83 0UN", "code": "BHC"}, {"name": "Balmossie", "postcode": "DD5 4QE", "code": "BSI"}, {"name": "Bamber Bridge", "postcode": "PR5 6TY", "code": "BMB"}, {"name": "Bamford", "postcode": "S33 0BN", "code": "BAM"}, {"name": "Banavie", "postcode": "PH33 7PH", "code": "BNV"}, {"name": "Banbury", "postcode": "OX16 5AD", "code": "BAN"}, {"name": "Bangor (Gwynedd)", "postcode": "LL57 1LZ", "code": "BNG"}, {"name": "Bank Hall", "postcode": "L20 2AE", "code": "BAH"}, {"name": "Banstead", "postcode": "SM7 1PZ", "code": "BAD"}, {"name": "Barassie", "postcode": "KA10 6SS", "code": "BSS"}, {"name": "Bardon Mill", "postcode": "NE47 7HY", "code": "BLL"}, {"name": "Bare Lane (Morecambe)", "postcode": "LA4 6RN", "code": "BAR"}, {"name": "Bargeddie", "postcode": "G69 7SB", "code": "BGI"}, {"name": "Bargoed", "postcode": "CF81 9AL", "code": "BGD"}, {"name": "Barking", "postcode": "IG11 8EA", "code": "BKG"}, {"name": "Barlaston", "postcode": "ST12 9DZ", "code": "BRT"}, {"name": "Barming", "postcode": "ME16 9NS", "code": "BMG"}, {"name": "Barmouth", "postcode": "LL42 1LS", "code": "BRM"}, {"name": "Barnehurst", "postcode": "DA7 6HQ", "code": "BNH"}, {"name": "Barnes", "postcode": "SW13 0HT", "code": "BNS"}, {"name": "Barnes Bridge", "postcode": "SW13 0AQ", "code": "BNI"}, {"name": "Barnetby", "postcode": "DN38 6DG", "code": "BTB"}, {"name": "Barnham", "postcode": "PO22 0JD", "code": "BAA"}, {"name": "Barnhill", "postcode": "G21 4NA", "code": "BNL"}, {"name": "Barnsley", "postcode": "S70 1SD", "code": "BNY"}, {"name": "Barnstaple", "postcode": "EX31 2BP", "code": "BNP"}, {"name": "Barnt Green", "postcode": "B45 8JZ", "code": "BTG"}, {"name": "Barrhead", "postcode": "G78 1GG", "code": "BRR"}, {"name": "Barrhill", "postcode": "KA26 0QF", "code": "BRL"}, {"name": "Barrow Haven", "postcode": "DN19 7ET", "code": "BAV"}, {"name": "Barrow-in-Furness", "postcode": "LA14 5AE", "code": "BIF"}, {"name": "Barrow-upon-Soar", "postcode": "LE12 8XE", "code": "BWS"}, {"name": "Barry", "postcode": "CF62 7AE", "code": "BRY"}, {"name": "Barry Docks", "postcode": "CF63 4JP", "code": "BYD"}, {"name": "Barry Island", "postcode": "CF62 5TH", "code": "BYI"}, {"name": "Barry Links", "postcode": "DD7 7RZ", "code": "BYL"}, {"name": "Barton-on-Humber", "postcode": "DN18 5JR", "code": "BAU"}, {"name": "Basildon", "postcode": "SS16 5XX", "code": "BSO"}, {"name": "Basingstoke", "postcode": "RG21 5NE", "code": "BSK"}, {"name": "Bat & Ball", "postcode": "TN13 3ST", "code": "BBL"}, {"name": "Bath Spa", "postcode": "BA1 1SX", "code": "BTH"}, {"name": "Bathgate", "postcode": "EH48 1NU", "code": "BHG"}, {"name": "Batley", "postcode": "WF17 5TA", "code": "BTL"}, {"name": "Battersby", "postcode": "TS9 6LS", "code": "BTT"}, {"name": "Battersea Park", "postcode": "SW8 4ND", "code": "BAK"}, {"name": "Battle", "postcode": "TN33 0DE", "code": "BAT"}, {"name": "Battlesbridge", "postcode": "SS11 7RJ", "code": "BLB"}, {"name": "Bayford", "postcode": "SG13 8PL", "code": "BAY"}, {"name": "Beaconsfield", "postcode": "HP9 2PJ", "code": "BCF"}, {"name": "Bearley", "postcode": "B95 6DR", "code": "BER"}, {"name": "Bearsden", "postcode": "G61 4AN", "code": "BRN"}, {"name": "Bearsted", "postcode": "ME14 4PH", "code": "BSD"}, {"name": "Beasdale", "postcode": "PH39 4NR", "code": "BSL"}, {"name": "Beaulieu Road", "postcode": "SO42 7YQ", "code": "BEU"}, {"name": "Beauly", "postcode": "IV4 7EP", "code": "BEL"}, {"name": "Bebington", "postcode": "CH62 5HR", "code": "BEB"}, {"name": "Beccles", "postcode": "NR34 9QW", "code": "BCC"}, {"name": "Beckenham Hill", "postcode": "SE6 3RE", "code": "BEC"}, {"name": "Beckenham Junction", "postcode": "BR3 1HY", "code": "BKJ"}, {"name": "Bedford (Midland)", "postcode": "MK40 1DS", "code": "BDM"}, {"name": "Bedford St Johns", "postcode": "MK42 9ER", "code": "BSJ"}, {"name": "Bedhampton", "postcode": "PO9 1LL", "code": "BDH"}, {"name": "Bedminster", "postcode": "BS3 4LU", "code": "BMT"}, {"name": "Bedworth", "postcode": "CV12 8JF", "code": "BEH"}, {"name": "Bedwyn", "postcode": "SN8 3NZ", "code": "BDW"}, {"name": "Beeston", "postcode": "NG9 1JH", "code": "BEE"}, {"name": "Bekesbourne", "postcode": "CT4 5EF", "code": "BKS"}, {"name": "Belle Vue", "postcode": "M18 7BR", "code": "BLV"}, {"name": "Bellgrove", "postcode": "G31 1AD", "code": "BLG"}, {"name": "Bellingham", "postcode": "SE6 3BX", "code": "BGM"}, {"name": "Bellshill", "postcode": "ML4 1RH", "code": "BLH"}, {"name": "Belmont", "postcode": "SM2 6BW", "code": "BLM"}, {"name": "Belper", "postcode": "DE56 1FX", "code": "BLP"}, {"name": "Beltring", "postcode": "ME18 6BZ", "code": "BEG"}, {"name": "Belvedere", "postcode": "DA17 6JW", "code": "BVD"}, {"name": "Bempton", "postcode": "YO15 1HN", "code": "BEM"}, {"name": "Ben Rhydding", "postcode": "LS29 8PL", "code": "BEY"}, {"name": "Benfleet", "postcode": "SS7 1NF", "code": "BEF"}, {"name": "Bentham", "postcode": "LA2 7LJ", "code": "BEN"}, {"name": "Bentley (Hampshire)", "postcode": "GU10 5LB", "code": "BTY"}, {"name": "Bentley (South Yorkshire)", "postcode": "DN5 0BE", "code": "BYK"}, {"name": "Bere Alston", "postcode": "PL20 7ER", "code": "BAS"}, {"name": "Bere Ferrers", "postcode": "PL20 7LT", "code": "BFE"}, {"name": "Berkhamsted", "postcode": "HP4 2JU", "code": "BKM"}, {"name": "Berkswell", "postcode": "CV7 7EF", "code": "BKW"}, {"name": "Bermuda Park", "postcode": "CV10 7JS", "code": "BEP"}, {"name": "Berney Arms", "postcode": "NR30 1SB", "code": "BYA"}, {"name": "Berry Brow", "postcode": "HD4 7LX", "code": "BBW"}, {"name": "Berrylands", "postcode": "KT5 8LT", "code": "BRS"}, {"name": "Berwick", "postcode": "BN26 6TA", "code": "BRK"}, {"name": "Berwick-upon-Tweed", "postcode": "TD15 1NF", "code": "BWK"}, {"name": "Bescar Lane", "postcode": "L40 9QP", "code": "BES"}, {"name": "Bescot Stadium", "postcode": "WS1 4NH", "code": "BSC"}, {"name": "Betchworth", "postcode": "RH3 7BZ", "code": "BTO"}, {"name": "Bethnal Green", "postcode": "E1 5RE", "code": "BET"}, {"name": "Betws-y-Coed", "postcode": "LL24 0AE", "code": "BYC"}, {"name": "Beverley", "postcode": "HU17 0AS", "code": "BEV"}, {"name": "Bexhill", "postcode": "TN38 8AB", "code": "BEX"}, {"name": "Bexley", "postcode": "DA5 1AQ", "code": "BXY"}, {"name": "Bexleyheath", "postcode": "DA7 4AA", "code": "BXH"}, {"name": "Bicester North", "postcode": "OX26 6EF", "code": "BCS"}, {"name": "Bicester Village", "postcode": "OX26 6HU", "code": "BIT"}, {"name": "Bickley", "postcode": "BR1 2BX", "code": "BKL"}, {"name": "Bidston", "postcode": "CH43 7RF", "code": "BID"}, {"name": "Biggleswade", "postcode": "SG18 8AN", "code": "BIW"}, {"name": "Bilbrook", "postcode": "WV8 1HT", "code": "BBK"}, {"name": "Billericay", "postcode": "CM12 9ED", "code": "BIC"}, {"name": "Billingham", "postcode": "TS23 4AU", "code": "BIL"}, {"name": "Billingshurst", "postcode": "RH14 9SP", "code": "BIG"}, {"name": "Bingham", "postcode": "NG13 8TF", "code": "BIN"}, {"name": "Bingley", "postcode": "BD16 2NA", "code": "BIY"}, {"name": "Birchgrove", "postcode": "CF14 4SY", "code": "BCG"}, {"name": "Birchington-on-Sea", "postcode": "CT7 9HY", "code": "BCH"}, {"name": "Birchwood", "postcode": "WA3 7PU", "code": "BWD"}, {"name": "Birkbeck", "postcode": "SE20 7YA", "code": "BIK"}, {"name": "Birkdale", "postcode": "PR8 4AF", "code": "BDL"}, {"name": "Birkenhead Central", "postcode": "CH41 9DB", "code": "BKC"}, {"name": "Birkenhead Hamilton Square", "postcode": "CH41 1AL", "code": "BKQ"}, {"name": "Birkenhead North", "postcode": "CH41 7AY", "code": "BKN"}, {"name": "Birkenhead Park", "postcode": "CH41 8AT", "code": "BKP"}, {"name": "Birmingham International", "postcode": "B40 1PA", "code": "BHI"}, {"name": "Birmingham Moor Street", "postcode": "B4 7UL", "code": "BMO"}, {"name": "Birmingham New Street", "postcode": "B2 4QA", "code": "BHM"}, {"name": "Birmingham Snow Hill", "postcode": "B3 2DX", "code": "BSW"}, {"name": "Bishop Auckland", "postcode": "DL14 6AB", "code": "BIA"}, {"name": "Bishopbriggs", "postcode": "G64 2RD", "code": "BBG"}, {"name": "Bishop's Stortford", "postcode": "CM23 5NF", "code": "BIS"}, {"name": "Bishopstone", "postcode": "BN25 2QP", "code": "BIP"}, {"name": "Bishopton", "postcode": "PA7 5AA", "code": "BPT"}, {"name": "Bitterne", "postcode": "SO18 1GG", "code": "BTE"}, {"name": "Blackburn", "postcode": "BB1 1EY", "code": "BBN"}, {"name": "Blackfriars", "postcode": "EC4V 4DY", "code": "BFR"}, {"name": "Blackheath", "postcode": "SE3 9LG", "code": "BKH"}, {"name": "Blackhorse Road", "postcode": "E17 6JJ", "code": "BHO"}, {"name": "Blackpool North", "postcode": "FY1 2AB", "code": "BPN"}, {"name": "Blackpool Pleasure Beach", "postcode": "FY4 1LD", "code": "BPB"}, {"name": "Blackpool South", "postcode": "FY4 1DW", "code": "BPS"}, {"name": "Blackridge", "postcode": "EH48 3BW", "code": "BKR"}, {"name": "Blackrod", "postcode": "BL6 5JE", "code": "BLK"}, {"name": "Blackwater", "postcode": "GU17 9AF", "code": "BAW"}, {"name": "Blaenau Ffestiniog", "postcode": "LL41 3HE", "code": "BFF"}, {"name": "Blair Atholl", "postcode": "PH18 5SG", "code": "BLA"}, {"name": "Blairhill", "postcode": "ML5 2EW", "code": "BAI"}, {"name": "Blake Street", "postcode": "B74 4YD", "code": "BKT"}, {"name": "Blakedown", "postcode": "DY10 3JL", "code": "BKD"}, {"name": "Blantyre", "postcode": "G72 9BG", "code": "BLT"}, {"name": "Blaydon", "postcode": "NE21 5BS", "code": "BLO"}, {"name": "Bleasby", "postcode": "NG14 7GD", "code": "BSB"}, {"name": "Bletchley", "postcode": "MK3 6DS", "code": "BLY"}, {"name": "Bloxwich", "postcode": "WS3 2LF", "code": "BLX"}, {"name": "Bloxwich North", "postcode": "WS3 2UB", "code": "BWN"}, {"name": "Blundellsands & Crosby", "postcode": "L23 8TJ", "code": "BLN"}, {"name": "Blythe Bridge", "postcode": "ST11 9JR", "code": "BYB"}, {"name": "Bodmin Parkway", "postcode": "PL30 4BB", "code": "BOD"}, {"name": "Bodorgan", "postcode": "LL62 5BL", "code": "BOR"}, {"name": "Bognor Regis", "postcode": "PO21 1BS", "code": "BOG"}, {"name": "Bogston", "postcode": "PA15 2TN", "code": "BGS"}, {"name": "Bolton", "postcode": "BL3 6DD", "code": "BON"}, {"name": "Bolton-upon-Dearne", "postcode": "S63 8JB", "code": "BTD"}, {"name": "Bookham", "postcode": "KT23 3JG", "code": "BKA"}, {"name": "Bootle (Cumbria)", "postcode": "LA19 5XB", "code": "BOC"}, {"name": "Bootle New Strand", "postcode": "L20 4BA", "code": "BNW"}, {"name": "Bootle Oriel Road", "postcode": "L20 7AD", "code": "BOT"}, {"name": "Bordesley", "postcode": "B11 1AX", "code": "BBS"}, {"name": "Borough Green & Wrotham", "postcode": "TN15 8AJ", "code": "BRG"}, {"name": "Borth", "postcode": "SY24 5HT", "code": "BRH"}, {"name": "Bosham", "postcode": "PO18 8NH", "code": "BOH"}, {"name": "Boston", "postcode": "PE21 8RN", "code": "BSN"}, {"name": "Boston Lodge", "postcode": "LL48 6HT", "code": "6HT"}, {"name": "Botanic", "postcode": "BT7 17Q", "code": "17Q"}, {"name": "Botley", "postcode": "SO30 2DN", "code": "BOE"}, {"name": "Bottesford", "postcode": "NG13 0DN", "code": "BTF"}, {"name": "Bourne End", "postcode": "SL8 5YP", "code": "BNE"}, {"name": "Bournemouth", "postcode": "BH8 8AP", "code": "BMH"}, {"name": "Bournville", "postcode": "B30 2LT", "code": "BRV"}, {"name": "Bow Brickhill", "postcode": "MK17 9JN", "code": "BWB"}, {"name": "Bowes Park", "postcode": "N11 2QR", "code": "BOP"}, {"name": "Bowling", "postcode": "G60 5BL", "code": "BWG"}, {"name": "Box Hill & Westhumble", "postcode": "RH5 6BT", "code": "BXW"}, {"name": "Bracknell", "postcode": "RG12 1HX", "code": "BCE"}, {"name": "Bradford Forster Square", "postcode": "BD1 4HY", "code": "BDQ"}, {"name": "Bradford Interchange", "postcode": "BD1 1JY", "code": "BDI"}, {"name": "Bradford-on-Avon", "postcode": "BA15 1DQ", "code": "BOA"}, {"name": "Brading", "postcode": "PO36 0EB", "code": "BDN"}, {"name": "Braintree", "postcode": "CM7 3FW", "code": "BTR"}, {"name": "Braintree Freeport", "postcode": "CM7 8YH", "code": "BTP"}, {"name": "Bramhall", "postcode": "SK7 2DY", "code": "BML"}, {"name": "Bramley (Hampshire)", "postcode": "RG26 5DZ", "code": "BMY"}, {"name": "Bramley (West Yorkshire)", "postcode": "LS13 4DS", "code": "BLE"}, {"name": "Brampton (Cumbria)", "postcode": "CA8 1HW", "code": "BMP"}, {"name": "Brampton (Suffolk)", "postcode": "NR34 8EF", "code": "BRP"}, {"name": "Branchton", "postcode": "PA16 0YB", "code": "BCN"}, {"name": "Brandon", "postcode": "IP27 0BA", "code": "BND"}, {"name": "Branksome", "postcode": "BH12 1DF", "code": "BSM"}, {"name": "Braystones", "postcode": "CA21 2YW", "code": "BYS"}, {"name": "Bredbury", "postcode": "SK6 2AG", "code": "BDY"}, {"name": "Breich", "postcode": "EH55 8JH", "code": "BRC"}, {"name": "Brentford", "postcode": "TW8 8DT", "code": "BFD"}, {"name": "Brentwood", "postcode": "CM14 4EW", "code": "BRE"}, {"name": "Bricket Wood", "postcode": "AL2 3PQ", "code": "BWO"}, {"name": "Bridge of Allan", "postcode": "FK9 4NA", "code": "BEA"}, {"name": "Bridge of Orchy", "postcode": "PA36 4AD", "code": "BRO"}, {"name": "Bridgend", "postcode": "CF31 1BB", "code": "BGN"}, {"name": "Bridgeton", "postcode": "AB33 8NT", "code": "BDG"}, {"name": "Bridgwater", "postcode": "TA6 5HB", "code": "BWT"}, {"name": "Bridlington", "postcode": "YO16 4LZ", "code": "BDT"}, {"name": "Brierfield", "postcode": "BB9 5PG", "code": "BRF"}, {"name": "Brigg", "postcode": "DN20 8HX", "code": "BGG"}, {"name": "Brighouse", "postcode": "HD6 1HF", "code": "BGH"}, {"name": "Brighton", "postcode": "BN1 3ZE", "code": "BTN"}, {"name": "Brimsdown", "postcode": "EN3 7JL", "code": "BMD"}, {"name": "Brinnington", "postcode": "SK5 8JG", "code": "BNT"}, {"name": "Bristol Parkway", "postcode": "BS34 8PU", "code": "BPW"}, {"name": "Bristol Temple Meads", "postcode": "BS1 6QG", "code": "BRI"}, {"name": "Brithdir", "postcode": "NP24 6XY", "code": "BHD"}, {"name": "British Steel Redcar", "postcode": "TS10 5QW", "code": "RBS"}, {"name": "Briton Ferry", "postcode": "SA11 2PB", "code": "BNF"}, {"name": "Brixton", "postcode": "SW9 8JW", "code": "BRX"}, {"name": "Broad Green", "postcode": "L14 3NG", "code": "BGE"}, {"name": "Broadbottom", "postcode": "SK14 3LH", "code": "BDB"}, {"name": "Broadstairs", "postcode": "CT10 2AJ", "code": "BSR"}, {"name": "Brockenhurst", "postcode": "SO42 7TW", "code": "BCU"}, {"name": "Brockholes", "postcode": "HD7 7BG", "code": "BHS"}, {"name": "Brockley", "postcode": "SE4 2RW", "code": "BCY"}, {"name": "Bromborough", "postcode": "CH63 0JR", "code": "BOM"}, {"name": "Bromborough Rake", "postcode": "CH62 7AR", "code": "BMR"}, {"name": "Bromley Cross", "postcode": "BL2 3AD", "code": "BMC"}, {"name": "Bromley North", "postcode": "BR1 3JH", "code": "BMN"}, {"name": "Bromley South", "postcode": "BR1 1NX", "code": "BMS"}, {"name": "Bromsgrove", "postcode": "B60 2DZ", "code": "BMV"}, {"name": "Brondesbury", "postcode": "NW6 7QB", "code": "BSY"}, {"name": "Brondesbury Park", "postcode": "NW6 6RP", "code": "BSP"}, {"name": "Brookmans Park", "postcode": "AL9 7SS", "code": "BPK"}, {"name": "Brookwood", "postcode": "GU24 0EU", "code": "BKO"}, {"name": "Broome", "postcode": "SY7 0NT", "code": "BME"}, {"name": "Broomfleet", "postcode": "HU15 1RQ", "code": "BMF"}, {"name": "Brora", "postcode": "KW9 6QU", "code": "BRA"}, {"name": "Brough", "postcode": "HU15 1EB", "code": "BUH"}, {"name": "Broughty Ferry", "postcode": "DD5 2AE", "code": "BYF"}, {"name": "Broxbourne", "postcode": "EN10 7AW", "code": "BXB"}, {"name": "Bruce Grove", "postcode": "N17 6QX", "code": "BCV"}, {"name": "Brundall", "postcode": "NR13 5PJ", "code": "BDA"}, {"name": "Brundall Gardens", "postcode": "NR13 5RG", "code": "BGA"}, {"name": "Brunstane", "postcode": "EH15 2NQ", "code": "BSU"}, {"name": "Brunswick", "postcode": "L8 6XP", "code": "BRW"}, {"name": "Bruton", "postcode": "BA10 0DX", "code": "BRU"}, {"name": "Bryn", "postcode": "WN4 0AS", "code": "BYN"}, {"name": "Buckenham", "postcode": "NR13 4HW", "code": "BUC"}, {"name": "Buckley", "postcode": "CH7 3AY", "code": "BCK"}, {"name": "Bucknell", "postcode": "SY7 0AD", "code": "BUK"}, {"name": "Buckshaw Parkway", "postcode": "PR7 7EY", "code": "BSV"}, {"name": "Bugle", "postcode": "PL26 8QG", "code": "BGL"}, {"name": "Builth Road", "postcode": "LD2 3PY", "code": "BHR"}, {"name": "Bulwell", "postcode": "NG7 7EF", "code": "BLW"}, {"name": "Bures", "postcode": "CO8 5DQ", "code": "BUE"}, {"name": "Burgess Hill", "postcode": "RH15 0AA", "code": "BUG"}, {"name": "Burley Park", "postcode": "LS4 2LX", "code": "BUY"}, {"name": "Burley-in-Wharfedale", "postcode": "LS29 7AA", "code": "BUW"}, {"name": "Burnage", "postcode": "M20 6FH", "code": "BNA"}, {"name": "Burneside", "postcode": "LA9 6QZ", "code": "BUD"}, {"name": "Burnham (Buckinghamshire)", "postcode": "SL1 6JT", "code": "BNM"}, {"name": "Burnham-on-Crouch", "postcode": "CM0 8DG", "code": "BUU"}, {"name": "Burnley Barracks", "postcode": "BB12 0LX", "code": "BUB"}, {"name": "Burnley Central", "postcode": "BB11 1DA", "code": "BNC"}, {"name": "Burnley Manchester Road", "postcode": "BB11 4HY", "code": "BYM"}, {"name": "Burnside", "postcode": "G73 3UE", "code": "BUI"}, {"name": "Burntisland", "postcode": "KY3 9DU", "code": "BTS"}, {"name": "Burscough Bridge", "postcode": "L40 0TQ", "code": "BCB"}, {"name": "Burscough Junction", "postcode": "L40 5XF", "code": "BCJ"}, {"name": "Bursledon", "postcode": "SO31 8AA", "code": "BUO"}, {"name": "Burton Joyce", "postcode": "NG14 5AP", "code": "BUJ"}, {"name": "Burton-on-Trent", "postcode": "DE14 2DJ", "code": "BUT"}, {"name": "Bury St Edmunds", "postcode": "IP32 6AL", "code": "BSE"}, {"name": "Busby", "postcode": "G76 8HY", "code": "BUS"}, {"name": "Bush Hill Park", "postcode": "EN1 1BA", "code": "BHK"}, {"name": "Bushey", "postcode": "WD1 4EA", "code": "BSH"}, {"name": "Butlers Lane", "postcode": "B74 4RT", "code": "BUL"}, {"name": "Buxted", "postcode": "TN22 4LA", "code": "BXD"}, {"name": "Buxton", "postcode": "SK17 6AQ", "code": "BUX"}, {"name": "Byfleet & New Haw", "postcode": "KT15 3LQ", "code": "BFN"}, {"name": "Bynea", "postcode": "SA14 9TL", "code": "BYE"}, {"name": "Cadoxton", "postcode": "CF64 4TX", "code": "CAD"}, {"name": "Caergwrle", "postcode": "LL12 9DU", "code": "CGW"}, {"name": "Caerphilly", "postcode": "CF83 1HE", "code": "CPH"}, {"name": "Caersws", "postcode": "SY17 5HH", "code": "CWS"}, {"name": "Caldercruix", "postcode": "ML6 7RJ", "code": "CAC"}, {"name": "Caldicot", "postcode": "NP26 4FJ", "code": "CDT"}, {"name": "Caledonian Road and Barnsbury", "postcode": "N7 8XH", "code": "CIR"}, {"name": "Calstock", "postcode": "PL18 9SL", "code": "CSK"}, {"name": "Cam and Dursley", "postcode": "GL11 5DW", "code": "CDU"}, {"name": "Camberley", "postcode": "GU15 3RR", "code": "CAM"}, {"name": "Camborne", "postcode": "TR14 7RF", "code": "CBN"}, {"name": "Cambridge Heath", "postcode": "E2 9HA", "code": "CBH"}, {"name": "Cambridge", "postcode": "CB1 2JW", "code": "CBG"}, {"name": "Cambridge North", "postcode": "CB4 0WP", "code": "CMB"}, {"name": "Cambuslang", "postcode": "G72 8AT", "code": "CBL"}, {"name": "Camden Road", "postcode": "NW1 9LY", "code": "CMD"}, {"name": "Camelon", "postcode": "FK2 7YP", "code": "CMO"}, {"name": "Canada Water", "postcode": "SE16 6QE", "code": "ZCW"}, {"name": "Canley", "postcode": "CV5 6RA", "code": "CNL"}, {"name": "Cannock", "postcode": "WS11 8NQ", "code": "CAO"}, {"name": "Canonbury", "postcode": "N1 2PG", "code": "CNN"}, {"name": "Canterbury East", "postcode": "CT1 2RB", "code": "CBE"}, {"name": "Canterbury West", "postcode": "CT2 7ER", "code": "CBW"}, {"name": "Cantley", "postcode": "NR13 3SP", "code": "CNY"}, {"name": "Capenhurst", "postcode": "CH1 6ER", "code": "CPU"}, {"name": "Carbis Bay", "postcode": "TR26 2LN", "code": "CBB"}, {"name": "Cardenden", "postcode": "KY5 0BS", "code": "CDD"}, {"name": "Cardiff Bay", "postcode": "CF10 5LE", "code": "CDB"}, {"name": "Cardiff Central", "postcode": "CF10 1RH", "code": "CDF"}, {"name": "Cardiff Queen Street", "postcode": "CF10 2FY", "code": "CDQ"}, {"name": "Cardonald", "postcode": "G52 2DA", "code": "CDO"}, {"name": "Cardross", "postcode": "G82 5NL", "code": "CDR"}, {"name": "Carfin", "postcode": "ML1 5AX", "code": "CRF"}, {"name": "Cark and Cartmel", "postcode": "LA11 7PT", "code": "CAK"}, {"name": "Carlisle", "postcode": "CA2 5AF", "code": "CAR"}, {"name": "Carlton", "postcode": "NG4 2FD", "code": "CTO"}, {"name": "Carluke", "postcode": "ML8 5DF", "code": "CLU"}, {"name": "Carmarthen", "postcode": "SA31 2BG", "code": "CMN"}, {"name": "Carmyle", "postcode": "G32 8JU", "code": "CML"}, {"name": "Carnforth", "postcode": "LA5 9ET", "code": "CNF"}, {"name": "Carnoustie", "postcode": "DD7 6AR", "code": "CAN"}, {"name": "Carntyne", "postcode": "G32 6AS", "code": "CAY"}, {"name": "Carpenders Park", "postcode": "WD1 6DT", "code": "CPK"}, {"name": "Carrbridge", "postcode": "PH23 3AZ", "code": "CAG"}, {"name": "Carshalton Beeches", "postcode": "SM5 3RF", "code": "CSB"}, {"name": "Carshalton", "postcode": "SM5 2HW", "code": "CSH"}, {"name": "Carstairs", "postcode": "ML11 8PP", "code": "CRS"}, {"name": "Cartsdyke", "postcode": "PA15 2TH", "code": "CDY"}, {"name": "Castle Bar Park", "postcode": "W7 1BA", "code": "CBP"}, {"name": "Castle Cary", "postcode": "BA7 7PE", "code": "CLC"}, {"name": "Castleford", "postcode": "WF10 1DZ", "code": "CFD"}, {"name": "Castleton Moor", "postcode": "YO21 2EZ", "code": "CSM"}, {"name": "Castleton", "postcode": "OL11 3EE", "code": "CAS"}, {"name": "Caterham", "postcode": "CR3 6GR", "code": "CAT"}, {"name": "Catford Bridge", "postcode": "SE6 4PZ", "code": "CFB"}, {"name": "Catford", "postcode": "SE6 4RH", "code": "CTF"}, {"name": "Cathays", "postcode": "CF10 3LU", "code": "CYS"}, {"name": "Cathcart", "postcode": "G44 4ED", "code": "CCT"}, {"name": "Cattal", "postcode": "YO26 8DS", "code": "CTL"}, {"name": "Causeland", "postcode": "PL14 4RW", "code": "CAU"}, {"name": "Cefn-y-Bedd", "postcode": "LL12 9UU", "code": "CYB"}, {"name": "Chadwell Heath", "postcode": "RM8 1TE", "code": "CTH"}, {"name": "Chafford Hundred Lakeside", "postcode": "RM16 6QQ", "code": "CFH"}, {"name": "Chalfont & Latimer", "postcode": "HP7 9PR", "code": "CFO"}, {"name": "Chalkwell", "postcode": "SS0 8PX", "code": "CHW"}, {"name": "Chandler's Ford", "postcode": "SO53 4DE", "code": "CFR"}, {"name": "Chapel-en-le-Frith", "postcode": "SK23 9UJ", "code": "CEF"}, {"name": "Chapelton (Devon)", "postcode": "EX37 9DZ", "code": "CPN"}, {"name": "Chapeltown (Yorkshire)", "postcode": "S35 2UN", "code": "CLN"}, {"name": "Chappel and Wakes Colne", "postcode": "CO6 2DS", "code": "CWC"}, {"name": "Charing Cross (Glasgow)", "postcode": "G2 4PR", "code": "CHC"}, {"name": "Charing (Kent)", "postcode": "TN27 0HZ", "code": "CHG"}, {"name": "Charlbury", "postcode": "OX7 3HH", "code": "CBY"}, {"name": "Charlton", "postcode": "SE7 7QG", "code": "CTN"}, {"name": "Chartham", "postcode": "CT4 7HU", "code": "CRT"}, {"name": "Chassen Road", "postcode": "M41 9DU", "code": "CSR"}, {"name": "Chatelherault", "postcode": "ML3 7UD", "code": "CTE"}, {"name": "Chatham", "postcode": "ME4 6PN", "code": "CTM"}, {"name": "Chathill", "postcode": "NE67 5DF", "code": "CHT"}, {"name": "Cheadle Hulme", "postcode": "SK8 5AQ", "code": "CHU"}, {"name": "Cheam", "postcode": "SM3 8RZ", "code": "CHE"}, {"name": "Cheddington", "postcode": "LU7 0SQ", "code": "CED"}, {"name": "Chelford (Cheshire)", "postcode": "SK11 9BU", "code": "CEL"}, {"name": "Chelmsford (Essex)", "postcode": "CM1 1AS", "code": "CHM"}, {"name": "Chelsfield", "postcode": "BR6 6EU", "code": "CLD"}, {"name": "Cheltenham Spa", "postcode": "GL51 8NP", "code": "CNM"}, {"name": "Chepstow", "postcode": "NP16 5PD", "code": "CPW"}, {"name": "Cherry Tree", "postcode": "BB2 4SH", "code": "CYT"}, {"name": "Chertsey", "postcode": "KT16 9BH", "code": "CHY"}, {"name": "Cheshunt", "postcode": "EN8 9AQ", "code": "CHN"}, {"name": "Chessington North", "postcode": "KT9 1QL", "code": "CSN"}, {"name": "Chessington South", "postcode": "KT9 2JR", "code": "CSS"}, {"name": "Chester", "postcode": "CH1 3AH", "code": "CTR"}, {"name": "Chester Road", "postcode": "B73 5JS", "code": "CRD"}, {"name": "Chester-le-Street", "postcode": "DH2 2DF", "code": "CLS"}, {"name": "Chesterfield", "postcode": "S41 7UB", "code": "CHD"}, {"name": "Chestfield & Swalecliffe", "postcode": "CT5 3JB", "code": "CSW"}, {"name": "Chetnole", "postcode": "DT9 6PJ", "code": "CNO"}, {"name": "Chichester", "postcode": "PO19 2DL", "code": "CCH"}, {"name": "Chilham", "postcode": "CT4 8EG", "code": "CIL"}, {"name": "Chilworth", "postcode": "GU4 8QW", "code": "CHL"}, {"name": "Chingford", "postcode": "E4 6AL", "code": "CHI"}, {"name": "Chinley", "postcode": "SK23 6AZ", "code": "CLY"}, {"name": "Chippenham", "postcode": "SN15 3QE", "code": "CPM"}, {"name": "Chipstead", "postcode": "CR5 3TD", "code": "CHP"}, {"name": "Chirk", "postcode": "LL14 5LU", "code": "CRK"}, {"name": "Chislehurst", "postcode": "BR7 5NR", "code": "CIT"}, {"name": "Chiswick", "postcode": "W4 3HF", "code": "CHK"}, {"name": "Cholsey", "postcode": "OX10 9LN", "code": "CHO"}, {"name": "Chorley", "postcode": "PR6 0RG", "code": "CRL"}, {"name": "Chorleywood", "postcode": "WD3 5ND", "code": "CLW"}, {"name": "Christchurch", "postcode": "BH23 2AB", "code": "CHR"}, {"name": "Christs Hospital", "postcode": "RH13 7NE", "code": "CHH"}, {"name": "Church and Oswaldtwistle", "postcode": "BB5 0EG", "code": "CTW"}, {"name": "Church Fenton", "postcode": "LS24 9QX", "code": "CHF"}, {"name": "Church Stretton", "postcode": "SY6 6PG", "code": "CTT"}, {"name": "Cilmeri", "postcode": "LD2 3NU", "code": "CIM"}, {"name": "City Thameslink", "postcode": "EC4M 7NR", "code": "CTK"}, {"name": "Clacton-on-Sea", "postcode": "CO15 6PZ", "code": "CLT"}, {"name": "Clandon", "postcode": "GU4 7UB", "code": "CLA"}, {"name": "Clapham High Street", "postcode": "SW4 6DF", "code": "CLP"}, {"name": "Clapham Junction", "postcode": "SW11 2HT", "code": "CLJ"}, {"name": "Clapham", "postcode": "LA2 8HN", "code": "CPY"}, {"name": "Clapton", "postcode": "E5 9RD", "code": "CPT"}, {"name": "Clarbeston Road", "postcode": "SA63 4UW", "code": "CLR"}, {"name": "Clarkston", "postcode": "G76 7BN", "code": "CKS"}, {"name": "Claverdon", "postcode": "CV35 8PQ", "code": "CLV"}, {"name": "Claygate", "postcode": "KT10 0PB", "code": "CLG"}, {"name": "Cleethorpes", "postcode": "DN35 8AX", "code": "CLE"}, {"name": "Cleland", "postcode": "ML1 5RR", "code": "CEA"}, {"name": "Clifton (Manchester)", "postcode": "M27 8LN", "code": "CLI"}, {"name": "Clifton Down", "postcode": "BS8 2PN", "code": "CFN"}, {"name": "Clitheroe", "postcode": "BB7 2JG", "code": "CLH"}, {"name": "Clock House", "postcode": "BR3 4PT", "code": "CLK"}, {"name": "Clunderwen", "postcode": "SA66 7NG", "code": "CUW"}, {"name": "Clydebank", "postcode": "G81 1RT", "code": "CYK"}, {"name": "Coatbridge Central", "postcode": "ML5 1QQ", "code": "CBC"}, {"name": "Coatbridge Sunnyside", "postcode": "ML5 3HR", "code": "CBS"}, {"name": "Coatdyke", "postcode": "ML5 3PY", "code": "COA"}, {"name": "Cobham & Stoke d'Abernon", "postcode": "KT11 3BT", "code": "CSD"}, {"name": "Codsall", "postcode": "WV8 2EH", "code": "CSL"}, {"name": "Cogan", "postcode": "CF64 2NS", "code": "CGN"}, {"name": "Colchester", "postcode": "CO1 1XD", "code": "COL"}, {"name": "Colchester Town", "postcode": "CO2 7EF", "code": "CET"}, {"name": "Coleshill Parkway", "postcode": "B46 1DA", "code": "CEH"}, {"name": "Collingham", "postcode": "NG23 7RB", "code": "CLM"}, {"name": "Collington", "postcode": "TN39 3DQ", "code": "CLL"}, {"name": "Colne", "postcode": "BB8 9NP", "code": "CNE"}, {"name": "Colwall", "postcode": "WR13 6QH", "code": "CWL"}, {"name": "Colwyn Bay", "postcode": "LL29 8DF", "code": "CWB"}, {"name": "Combe (Oxfordshire)", "postcode": "OX8 8ET", "code": "CME"}, {"name": "Commondale", "postcode": "YO21 2HN", "code": "COM"}, {"name": "Congleton", "postcode": "CW12 3LF", "code": "CNG"}, {"name": "Conisbrough", "postcode": "NG8 2TT", "code": "CNS"}, {"name": "Connel Ferry", "postcode": "PA37 1PB", "code": "CON"}, {"name": "Conon Bridge", "postcode": "IV7 8AA", "code": "CBD"}, {"name": "Cononley", "postcode": "BD20 8LS", "code": "CEY"}, {"name": "Conway Park", "postcode": "CH41 3RU", "code": "CNP"}, {"name": "Conwy", "postcode": "LL32 8AF", "code": "CNW"}, {"name": "Cooden Beach", "postcode": "TN39 4TT", "code": "COB"}, {"name": "Cookham", "postcode": "SL6 9BP", "code": "COO"}, {"name": "Cooksbridge", "postcode": "BN8 4SW", "code": "CBR"}, {"name": "Coombe Junction Halt", "postcode": "PL14 4YH", "code": "COE"}, {"name": "Copplestone", "postcode": "EX17 5NF", "code": "COP"}, {"name": "Corbridge", "postcode": "NE45 5AZ", "code": "CRB"}, {"name": "Corby", "postcode": "NN17 1UJ", "code": "COR"}, {"name": "Corkerhill", "postcode": "G52 1RB", "code": "CKH"}, {"name": "Corkickle", "postcode": "CA28 7TQ", "code": "CKL"}, {"name": "Corpach", "postcode": "PH33 7JH", "code": "CPA"}, {"name": "Corrour", "postcode": "PH30 4AA", "code": "CRR"}, {"name": "Coryton", "postcode": "CF14 7BW", "code": "COY"}, {"name": "Coseley", "postcode": "WV14 8XR", "code": "CSY"}, {"name": "Cosford", "postcode": "WV7 3EY", "code": "COS"}, {"name": "Cosham", "postcode": "PO6 3BD", "code": "CSA"}, {"name": "Cottingham", "postcode": "HU16 4YA", "code": "CGM"}, {"name": "Cottingley", "postcode": "LS11 0LD", "code": "COT"}, {"name": "Coulsdon South", "postcode": "CR5 2HA", "code": "CDS"}, {"name": "Coulsdon Town", "postcode": "CR3 2NS", "code": "CDN"}, {"name": "Coventry", "postcode": "CV3 6HF", "code": "COV"}, {"name": "Coventry Arena", "postcode": "CV6 6AS", "code": "CAA"}, {"name": "Cowden", "postcode": "TN8 7DS", "code": "CWN"}, {"name": "Cowdenbeath", "postcode": "KY4 9SG", "code": "COW"}, {"name": "Cradley Heath", "postcode": "B64 7AR", "code": "CRA"}, {"name": "Craigendoran", "postcode": "G84 7JE", "code": "CGD"}, {"name": "Cramlington", "postcode": "NE23 1DJ", "code": "CRM"}, {"name": "Cranbrook", "postcode": "EX5 2DY", "code": "CBK"}, {"name": "Craven Arms", "postcode": "SY7 9RL", "code": "CRV"}, {"name": "Crawley", "postcode": "RH10 6AJ", "code": "CRW"}, {"name": "Crayford", "postcode": "DA1 4HW", "code": "CRY"}, {"name": "Crediton", "postcode": "EX17 3BY", "code": "CDI"}, {"name": "Cressing", "postcode": "CM7 8NT", "code": "CES"}, {"name": "Cressington", "postcode": "L19 0PQ", "code": "CSG"}, {"name": "Creswell", "postcode": "S80 4JD", "code": "CWD"}, {"name": "Crewe", "postcode": "CW1 6AR", "code": "CRE"}, {"name": "Crewkerne", "postcode": "TA18 8AU", "code": "CKN"}, {"name": "Crews Hill", "postcode": "EN2 9EA", "code": "CWH"}, {"name": "Crianlarich", "postcode": "FK20 8QQ", "code": "CNR"}, {"name": "Criccieth", "postcode": "LL52 0RW", "code": "CCC"}, {"name": "Cricklewood", "postcode": "NW2 1EU", "code": "CRI"}, {"name": "Croftfoot", "postcode": "G73 2AH", "code": "CFF"}, {"name": "Crofton Park", "postcode": "SE4 2PQ", "code": "CFT"}, {"name": "Cromer", "postcode": "NR27 9SW", "code": "CMR"}, {"name": "Cromford", "postcode": "DE4 5JJ", "code": "CMF"}, {"name": "Crookston", "postcode": "G52 3LQ", "code": "CKT"}, {"name": "Cross Gates", "postcode": "LS15 8BX", "code": "CRG"}, {"name": "Crossflatts", "postcode": "BD16 2RZ", "code": "CFL"}, {"name": "Crosshill", "postcode": "G42 8ER", "code": "COI"}, {"name": "Crosskeys", "postcode": "NP11 7BU", "code": "CKY"}, {"name": "Crossmyloof", "postcode": "G41 3RY", "code": "CMY"}, {"name": "Croston", "postcode": "PR26 9HL", "code": "CSO"}, {"name": "Crouch Hill", "postcode": "N4 4BW", "code": "CRH"}, {"name": "Crowborough", "postcode": "TN6 2JR", "code": "COH"}, {"name": "Crowhurst", "postcode": "TN33 9DE", "code": "CWU"}, {"name": "Crowle", "postcode": "DN17 4JS", "code": "CWE"}, {"name": "Crowthorne", "postcode": "RG45 6NZ", "code": "CRN"}, {"name": "Croy", "postcode": "G68 9AA", "code": "CRO"}, {"name": "Crystal Palace", "postcode": "SE19 2AZ", "code": "CYP"}, {"name": "Cuddington", "postcode": "CW8 2LP", "code": "CUD"}, {"name": "Cuffley", "postcode": "EN6 4HY", "code": "CUF"}, {"name": "Culham", "postcode": "OX14 3BT", "code": "CUM"}, {"name": "Culrain", "postcode": "IV24 3DW", "code": "CUA"}, {"name": "Cumbernauld", "postcode": "G67 2PL", "code": "CUB"}, {"name": "Cupar", "postcode": "KY15 5JD", "code": "CUP"}, {"name": "Curriehill", "postcode": "EH14 5QR", "code": "CUH"}, {"name": "Cuxton", "postcode": "ME2 1AB", "code": "CUX"}, {"name": "Cwmbach", "postcode": "CF44 0AG", "code": "CMH"}, {"name": "Cwmbran", "postcode": "NP44 2JU", "code": "CWM"}, {"name": "Cynghordy", "postcode": "SA20 0LY", "code": "CYN"}, {"name": "Dagenham Dock", "postcode": "RM9 6PX", "code": "DDK"}, {"name": "Daisy Hill", "postcode": "BL5 2LA", "code": "DSY"}, {"name": "Dalgety Bay", "postcode": "KY11 9NJ", "code": "DAG"}, {"name": "Dalmally", "postcode": "PA33 1AA", "code": "DAL"}, {"name": "Dalmarnock", "postcode": "G40 4LR", "code": "DAK"}, {"name": "Dalmeny", "postcode": "EH30 9JU", "code": "DAM"}, {"name": "Dalmuir", "postcode": "G81 4AJ", "code": "DMR"}, {"name": "Dalreoch", "postcode": "G82 4JT", "code": "DLR"}, {"name": "Dalry", "postcode": "KA24 4DD", "code": "DLY"}, {"name": "Dalston (Cumbria)", "postcode": "CA5 7LT", "code": "DLS"}, {"name": "Dalston Kingsland", "postcode": "N16 8JN", "code": "DLK"}, {"name": "Dalton (Cumbria)", "postcode": "LA15 8PL", "code": "DLT"}, {"name": "Dalwhinnie", "postcode": "PH19 1AD", "code": "DLW"}, {"name": "Danby", "postcode": "YO21 2JL", "code": "DNY"}, {"name": "Danescourt", "postcode": "CF5 2RX", "code": "DCT"}, {"name": "Danzey", "postcode": "B94 5BE", "code": "DZY"}, {"name": "Darlington", "postcode": "DL1 5AE", "code": "DAR"}, {"name": "Darnall", "postcode": "S9 4JR", "code": "DAN"}, {"name": "Darsham", "postcode": "IP17 3PN", "code": "DSM"}, {"name": "Dartford", "postcode": "DA1 1BP", "code": "DFD"}, {"name": "Darton", "postcode": "S75 5HX", "code": "DRT"}, {"name": "Darwen", "postcode": "BB3 3EH", "code": "DWN"}, {"name": "Datchet", "postcode": "SL3 9ED", "code": "DAT"}, {"name": "Davenport", "postcode": "SK2 6JP", "code": "DVN"}, {"name": "Dawlish", "postcode": "EX7 9PJ", "code": "DWL"}, {"name": "Dawlish Warren", "postcode": "EX7 0NF", "code": "DWW"}, {"name": "Deal", "postcode": "CT14 9ST", "code": "DEA"}, {"name": "Dean (Hampshire)", "postcode": "SP5 1JF", "code": "DEN"}, {"name": "Dean Lane", "postcode": "M40 3AN", "code": "DNN"}, {"name": "Deansgate", "postcode": "M3 4LG", "code": "DGT"}, {"name": "Deganwy", "postcode": "LL31 9EJ", "code": "DGY"}, {"name": "Deighton", "postcode": "HD2 1LX", "code": "DHN"}, {"name": "Delamere", "postcode": "CW8 2JQ", "code": "DLM"}, {"name": "Denby Dale", "postcode": "HD8 8QE", "code": "DBD"}, {"name": "Denham", "postcode": "UB9 5ES", "code": "DNM"}, {"name": "Denham Golf Club", "postcode": "UB9 5EL", "code": "DGC"}, {"name": "Denmark Hill", "postcode": "SE5 8AQ", "code": "DMK"}, {"name": "Dent", "postcode": "LA10 5RF", "code": "DNT"}, {"name": "Denton", "postcode": "M34 3WE", "code": "DTN"}, {"name": "Deptford", "postcode": "SE8 5QA", "code": "DEP"}, {"name": "Derby Midland", "postcode": "DE1 2RS", "code": "DBY"}, {"name": "Derby Road (Ipswich)", "postcode": "IP3 8HX", "code": "DBR"}, {"name": "Derker", "postcode": "OL1 4AB", "code": "DKR"}, {"name": "Devonport", "postcode": "PL1 4QN", "code": "DPT"}, {"name": "Dewsbury", "postcode": "WF13 2PE", "code": "DEW"}, {"name": "Didcot Parkway", "postcode": "OX11 7FB", "code": "DID"}, {"name": "Digby and Sowton", "postcode": "EX2 7TG", "code": "DIG"}, {"name": "Dilton Marsh", "postcode": "BA13 3RU", "code": "DMH"}, {"name": "Dinas Powys", "postcode": "CF64 4LD", "code": "DNS"}, {"name": "Dinas Rhondda", "postcode": "CF40 2PJ", "code": "DMG"}, {"name": "Dingle Road", "postcode": "CF64 1JL", "code": "DGL"}, {"name": "Dingwall", "postcode": "IV15 9JD", "code": "DIN"}, {"name": "Dinsdale", "postcode": "DL2 1DX", "code": "DND"}, {"name": "Dinting", "postcode": "SK14 6BP", "code": "DTG"}, {"name": "Disley", "postcode": "SK12 2AE", "code": "DSL"}, {"name": "Diss", "postcode": "IP22 4HN", "code": "DIS"}, {"name": "Dockyard", "postcode": "PL2 1RZ", "code": "DOC"}, {"name": "Dodworth", "postcode": "S75 3JJ", "code": "DOD"}, {"name": "Dolau", "postcode": "LD1 5TG", "code": "DOL"}, {"name": "Doleham", "postcode": "TN35 4NA", "code": "DLH"}, {"name": "Dolgarrog", "postcode": "LL26 0YR", "code": "DLG"}, {"name": "Dolwyddelan", "postcode": "LL25 0TJ", "code": "DWD"}, {"name": "Doncaster", "postcode": "DN1 1PE", "code": "DON"}, {"name": "Dorchester South", "postcode": "DT1 2DN", "code": "DCH"}, {"name": "Dorchester West", "postcode": "DT1 1QX", "code": "DCW"}, {"name": "Dore", "postcode": "S17 3LR", "code": "DOR"}, {"name": "Dorking", "postcode": "RH4 1TF", "code": "DKG"}, {"name": "Dorking Deepdene", "postcode": "RH4 1AH", "code": "DPD"}, {"name": "Dorking West", "postcode": "RH4 5EE", "code": "DKT"}, {"name": "Dormans", "postcode": "RH7 6NJ", "code": "DMS"}, {"name": "Dorridge", "postcode": "B93 8QH", "code": "DDG"}, {"name": "Dove Holes", "postcode": "SK17 8BQ", "code": "DVH"}, {"name": "Dover Priory", "postcode": "CT17 9TY", "code": "DVP"}, {"name": "Dovercourt", "postcode": "CO12 3AG", "code": "DVC"}, {"name": "Dovey Junction", "postcode": "SY20 8SU", "code": "DVY"}, {"name": "Downham Market", "postcode": "PE38 9EN", "code": "DOW"}, {"name": "Drayton Green", "postcode": "W7 1LX", "code": "DRG"}, {"name": "Drayton Park", "postcode": "N5 1PG", "code": "DYP"}, {"name": "Drem", "postcode": "EH39 5AS", "code": "DRM"}, {"name": "Driffield", "postcode": "YO25 6NL", "code": "DRF"}, {"name": "Drigg", "postcode": "CA19 1XR", "code": "DRI"}, {"name": "Droitwich Spa", "postcode": "WR9 9BD", "code": "DTW"}, {"name": "Dronfield", "postcode": "S18 2XA", "code": "DRO"}, {"name": "Drumchapel", "postcode": "G15 6QX", "code": "DMC"}, {"name": "Drumfrochar", "postcode": "PA15 4NE", "code": "DFR"}, {"name": "Drumgelloch (2010)", "postcode": "ML6 7BL", "code": "DRU"}, {"name": "Drumry", "postcode": "G81 2TE", "code": "DMY"}, {"name": "Duddeston", "postcode": "B7 4ST", "code": "DUD"}, {"name": "Dudley Port", "postcode": "DY4 8RB", "code": "DDP"}, {"name": "Duffield", "postcode": "DE56 4EQ", "code": "DFI"}, {"name": "Duirinish", "postcode": "IV40 8BD", "code": "DRN"}, {"name": "Duke Street", "postcode": "G31 1NW", "code": "DST"}, {"name": "Dullingham", "postcode": "CB8 9UT", "code": "DUL"}, {"name": "Dumbarton Central", "postcode": "G82 1NL", "code": "DBC"}, {"name": "Dumbarton East", "postcode": "G82 1RH", "code": "DBE"}, {"name": "Dumbreck", "postcode": "G41 5BQ", "code": "DUM"}, {"name": "Dumfries", "postcode": "DG1 1LU", "code": "DMF"}, {"name": "Dumpton Park", "postcode": "CT11 7TB", "code": "DMP"}, {"name": "Dunbar", "postcode": "EH42 1JX", "code": "DUN"}, {"name": "Dunblane", "postcode": "FK15 9ET", "code": "DBL"}, {"name": "Dunbridge", "postcode": "SO51 0RA", "code": "DBG"}, {"name": "Duncraig", "postcode": "IV52 8TZ", "code": "DCG"}, {"name": "Dundee", "postcode": "DD1 4DB", "code": "DEE"}, {"name": "Dunfermline Queen Margaret", "postcode": "KY12 0TY", "code": "DFL"}, {"name": "Dunfermline Town", "postcode": "KY12 7HT", "code": "DFE"}, {"name": "Dunkeld & Birnam", "postcode": "PH8 0BN", "code": "DKD"}, {"name": "Dunlop", "postcode": "KA3 4AS", "code": "DNL"}, {"name": "Dunrobin Castle", "postcode": "KW10 6SH", "code": "DNO"}, {"name": "Dunston", "postcode": "NE11 9TS", "code": "DOT"}, {"name": "Dunton Green", "postcode": "TN13 2UU", "code": "DNG"}, {"name": "Durham", "postcode": "DH1 4RB", "code": "DHM"}, {"name": "Durrington-on-Sea", "postcode": "BN12 6BT", "code": "DUR"}, {"name": "Dyce", "postcode": "AB21 7DQ", "code": "DYC"}, {"name": "Dyffryn Ardudwy", "postcode": "LL44 2BF", "code": "DYF"}, {"name": "Eaglescliffe", "postcode": "TS16 0BT", "code": "EAG"}, {"name": "Ealing Broadway", "postcode": "W5 2PT", "code": "EAL"}, {"name": "Earlestown", "postcode": "WA12 9AU", "code": "ERL"}, {"name": "Earley", "postcode": "RG6 7DY", "code": "EAR"}, {"name": "Earlsfield", "postcode": "SW18 3NY", "code": "EAD"}, {"name": "Earlswood (Surrey)", "postcode": "RH1 6JH", "code": "ELD"}, {"name": "Earlswood (West Midlands)", "postcode": "B94 5JS", "code": "EWD"}, {"name": "East Croydon", "postcode": "CR0 1LF", "code": "ECR"}, {"name": "East Didsbury", "postcode": "M20 5NE", "code": "EDY"}, {"name": "East Dulwich", "postcode": "SE22 8EF", "code": "EDW"}, {"name": "East Farleigh", "postcode": "ME16 9NB", "code": "EFL"}, {"name": "East Garforth", "postcode": "LS25 2NS", "code": "EGF"}, {"name": "East Grinstead", "postcode": "RH19 1EB", "code": "EGR"}, {"name": "East Kilbride", "postcode": "G74 1NF", "code": "EKL"}, {"name": "East Malling", "postcode": "ME19 6AN", "code": "EML"}, {"name": "East Midlands Parkway", "postcode": "NG11 0EE", "code": "EMD"}, {"name": "East Tilbury", "postcode": "SS17 0RQ", "code": "ETL"}, {"name": "East Worthing", "postcode": "BN14 8ED", "code": "EWR"}, {"name": "Eastbourne", "postcode": "BN21 3QJ", "code": "EBN"}, {"name": "Eastbrook", "postcode": "CF64 4LD", "code": "EBK"}, {"name": "Easterhouse", "postcode": "G69 6BL", "code": "EST"}, {"name": "Eastham Rake", "postcode": "CH62 9EX", "code": "ERA"}, {"name": "Eastleigh", "postcode": "SO50 9FN", "code": "ESL"}, {"name": "Eastrington", "postcode": "DN14 7PX", "code": "EGN"}, {"name": "Ebbsfleet International", "postcode": "DA10 1EB", "code": "EBD"}, {"name": "Ebbw Vale Parkway", "postcode": "NP23 8AP", "code": "EBV"}, {"name": "Ebbw Vale Town", "postcode": "NP23 6DN", "code": "EBB"}, {"name": "Eccles", "postcode": "M30 0DN", "code": "ECC"}, {"name": "Eccles Road", "postcode": "NR16 2JQ", "code": "ECS"}, {"name": "Eccleston Park", "postcode": "L35 7LP", "code": "ECL"}, {"name": "Edale", "postcode": "S33 7ZP", "code": "EDL"}, {"name": "Eden Park", "postcode": "BR3 3DE", "code": "EDN"}, {"name": "Edenbridge", "postcode": "TN8 6JQ", "code": "EBR"}, {"name": "Edenbridge Town", "postcode": "TN8 5LS", "code": "EBT"}, {"name": "Edge Hill", "postcode": "L7 6ND", "code": "EDG"}, {"name": "Edinburgh Haymarket", "postcode": "EH11 2BD", "code": "HYM"}, {"name": "Edinburgh Park", "postcode": "EH11 4DF", "code": "EDP"}, {"name": "Edinburgh Waverley", "postcode": "EH1 1BG", "code": "EDB"}, {"name": "Edmonton Green", "postcode": "N9 9DX", "code": "EDR"}, {"name": "Effingham Junction", "postcode": "KT24 5HJ", "code": "EFF"}, {"name": "Eggesford", "postcode": "EX18 7QT", "code": "EGG"}, {"name": "Egham", "postcode": "TW20 9NT", "code": "EGH"}, {"name": "Egton", "postcode": "YO21 1UX", "code": "EGT"}, {"name": "Elephant & Castle", "postcode": "SE17 1LB", "code": "EPH"}, {"name": "Elgin", "postcode": "IV30 1QJ", "code": "ELG"}, {"name": "Ellesmere Port", "postcode": "CH65 4FG", "code": "ELP"}, {"name": "Elmers End", "postcode": "BR3 4DW", "code": "ELE"}, {"name": "Elmstead Woods", "postcode": "BR7 5NN", "code": "ESD"}, {"name": "Elmswell", "postcode": "IP30 9HR", "code": "ESW"}, {"name": "Elsecar", "postcode": "S74 8DB", "code": "ELR"}, {"name": "Elsenham", "postcode": "CM22 6LX", "code": "ESM"}, {"name": "Elstree & Borehamwood", "postcode": "WD6 1EX", "code": "ELS"}, {"name": "Eltham", "postcode": "SE9 1SA", "code": "ELW"}, {"name": "Elton and Orston", "postcode": "NG13 9LH", "code": "ELO"}, {"name": "Ely", "postcode": "CB7 4DJ", "code": "ELY"}, {"name": "Emerson Park", "postcode": "RM11 3HS", "code": "EMP"}, {"name": "Emsworth", "postcode": "PO10 7PN", "code": "EMS"}, {"name": "Energlyn and Churchill Park", "postcode": "CF83 2QR", "code": "ECP"}, {"name": "Enfield Chase", "postcode": "EN2 7AA", "code": "ENC"}, {"name": "Enfield Lock", "postcode": "EN3 6AA", "code": "ENL"}, {"name": "Enfield Town", "postcode": "EN1 2AA", "code": "ENF"}, {"name": "Entwistle", "postcode": "BL7 0NG", "code": "ENT"}, {"name": "Epsom", "postcode": "KT19 8EU", "code": "EPS"}, {"name": "Epsom Downs", "postcode": "KT17 4JP", "code": "EPD"}, {"name": "Erdington", "postcode": "B23 6PU", "code": "ERD"}, {"name": "Eridge", "postcode": "TN3 9LD", "code": "ERI"}, {"name": "Erith", "postcode": "DA8 1TY", "code": "ERH"}, {"name": "Esher", "postcode": "KT10 8DT", "code": "ESH"}, {"name": "Eskbank", "postcode": "EH22 3NX", "code": "EKB"}, {"name": "Essex Road", "postcode": "N1 2SU", "code": "EXR"}, {"name": "Etchingham", "postcode": "TN19 7PA", "code": "ETC"}, {"name": "Euston (London)", "postcode": "NW1 2RZ", "code": "EUS"}, {"name": "Euxton Balshaw Lane", "postcode": "PR7 6PE", "code": "EBA"}, {"name": "Evesham", "postcode": "WR11 4JG", "code": "EVE"}, {"name": "Ewell East", "postcode": "KT17 1QR", "code": "EWE"}, {"name": "Ewell West", "postcode": "KT17 2DH", "code": "EWW"}, {"name": "Exeter Central", "postcode": "EX4 3SB", "code": "EXC"}, {"name": "Exeter St Davids", "postcode": "EX4 4NT", "code": "EXD"}, {"name": "Exeter St Thomas", "postcode": "EX4 1AQ", "code": "EXT"}, {"name": "Exhibition Centre (Glasgow)", "postcode": "G3 8LE", "code": "EXG"}, {"name": "Exmouth", "postcode": "EX8 1BZ", "code": "EXM"}, {"name": "Exton", "postcode": "EX3 0PG", "code": "EXN"}, {"name": "Eynsford", "postcode": "DA4 0HP", "code": "EYN"}, {"name": "Failsworth", "postcode": "M35 0GE", "code": "FLS"}, {"name": "Fairbourne", "postcode": "LL38 2AQ", "code": "FRB"}, {"name": "Fairfield", "postcode": "M34 5QA", "code": "FRF"}, {"name": "Fairlie", "postcode": "KA29 0DY", "code": "FRL"}, {"name": "Fairwater", "postcode": "CF5 2LR", "code": "FRW"}, {"name": "Falconwood", "postcode": "SE9 2RN", "code": "FCN"}, {"name": "Falkirk Grahamston", "postcode": "FK1 1UP", "code": "FKG"}, {"name": "Falkirk High", "postcode": "FK1 5NE", "code": "FKK"}, {"name": "Falls of Cruachan", "postcode": "PA33 1AN", "code": "FOC"}, {"name": "Falmer", "postcode": "BN1 9QX", "code": "FMR"}, {"name": "Falmouth Docks", "postcode": "TR11 4NR", "code": "FAL"}, {"name": "Falmouth Town", "postcode": "TR11 4LT", "code": "FMT"}, {"name": "North Fambridge", "postcode": "CM3 6NE", "code": "NFA"}, {"name": "Fareham", "postcode": "PO14 1NP", "code": "FRM"}, {"name": "Farnborough Main", "postcode": "GU14 7NL", "code": "FNB"}, {"name": "Farnborough North", "postcode": "GU14 8AQ", "code": "FNN"}, {"name": "Farncombe", "postcode": "GU7 3NF", "code": "FNC"}, {"name": "Farnham", "postcode": "GU9 8AD", "code": "FNH"}, {"name": "Farningham Road", "postcode": "DA4 9JB", "code": "FNR"}, {"name": "Farnworth", "postcode": "BL4 7SA", "code": "FNW"}, {"name": "Farringdon", "postcode": "EC1M 6BY", "code": "ZFD"}, {"name": "Fauldhouse", "postcode": "EH47 9DL", "code": "FLD"}, {"name": "Faversham", "postcode": "ME13 8JJ", "code": "FAV"}, {"name": "Faygate", "postcode": "RH12 4DN", "code": "FGT"}, {"name": "Fazakerley", "postcode": "L9 9EW", "code": "FAZ"}, {"name": "Fearn", "postcode": "IV20 1RP", "code": "FRN"}, {"name": "Featherstone", "postcode": "WF7 5BN", "code": "FEA"}, {"name": "Felixstowe", "postcode": "IP11 9UG", "code": "FLX"}, {"name": "Feltham", "postcode": "TW13 4BZ", "code": "FEL"}, {"name": "Fenchurch Street (London)", "postcode": "EC3M 4AJ", "code": "FST"}, {"name": "Feniton", "postcode": "EX14 3EX", "code": "FNT"}, {"name": "Fenny Stratford", "postcode": "MK2 2XT", "code": "FEN"}, {"name": "Fernhill", "postcode": "CF45 3DG", "code": "FER"}, {"name": "Ferriby", "postcode": "HU14 3EH", "code": "FRY"}, {"name": "Ferryside", "postcode": "SA17 5SF", "code": "FYS"}, {"name": "Ffairfach", "postcode": "SA19 6UL", "code": "FFA"}, {"name": "Filey", "postcode": "YO14 9PE", "code": "FIL"}, {"name": "Filton Abbey Wood", "postcode": "BS34 7HZ", "code": "FIT"}, {"name": "Finchley Road & Frognal", "postcode": "NW3 6EL", "code": "FNY"}, {"name": "Finsbury Park", "postcode": "N4 2DQ", "code": "FPK"}, {"name": "Finstock", "postcode": "OX7 3AW", "code": "FIN"}, {"name": "Fishbourne", "postcode": "PO19 3QJ", "code": "FSB"}, {"name": "Fishersgate", "postcode": "BN41 1LG", "code": "FSG"}, {"name": "Fishguard Harbour", "postcode": "SA64 0BY", "code": "FGH"}, {"name": "Fishguard and Goodwick", "postcode": "SA64 0DG", "code": "FGW"}, {"name": "Fiskerton", "postcode": "NG25 0UD", "code": "FSK"}, {"name": "Fitzwilliam", "postcode": "WF9 5BY", "code": "FZW"}, {"name": "Five Ways", "postcode": "B15 1QA", "code": "FWY"}, {"name": "Fleet", "postcode": "GU51 3QY", "code": "FLE"}, {"name": "Flimby", "postcode": "CA15 8QQ", "code": "FLM"}, {"name": "Flint", "postcode": "CH6 5PG", "code": "FLN"}, {"name": "Flitwick", "postcode": "MK45 1DS", "code": "FLT"}, {"name": "Flixton", "postcode": "M41 6JL", "code": "FLI"}, {"name": "Flowery Field", "postcode": "SK14 4TF", "code": "FLF"}, {"name": "Folkestone Central", "postcode": "CT19 5HB", "code": "FKC"}, {"name": "Folkestone West", "postcode": "CT20 3PA", "code": "FKW"}, {"name": "Ford", "postcode": "BN18 0BH", "code": "FOD"}, {"name": "Forest Gate", "postcode": "E7 0NE", "code": "FOG"}, {"name": "Forest Hill", "postcode": "SE23 3HB", "code": "FOH"}, {"name": "Formby", "postcode": "L37 3PD", "code": "FBY"}, {"name": "Forres", "postcode": "IV36 1GZ", "code": "FOR"}, {"name": "Forsinard", "postcode": "KW13 6YT", "code": "FRS"}, {"name": "Fort Matilda", "postcode": "PA16 7TU", "code": "FTM"}, {"name": "Fort William", "postcode": "PH33 6EN", "code": "FTW"}, {"name": "Four Oaks", "postcode": "B74 2UX", "code": "FOK"}, {"name": "Foxfield", "postcode": "LA20 6BX", "code": "FOX"}, {"name": "Foxton", "postcode": "CB22 6SH", "code": "FXN"}, {"name": "Frant", "postcode": "TN3 9BJ", "code": "FRT"}, {"name": "Fratton", "postcode": "PO1 5AW", "code": "FTN"}, {"name": "Freshfield", "postcode": "L37 1YH", "code": "FRE"}, {"name": "Freshford", "postcode": "BA3 6EQ", "code": "FFD"}, {"name": "Frimley", "postcode": "GU16 5QH", "code": "FML"}, {"name": "Frinton-on-Sea", "postcode": "CO13 9JT", "code": "FRI"}, {"name": "Frizinghall", "postcode": "BD9 4JB", "code": "FZH"}, {"name": "Frodsham", "postcode": "WA6 6PT", "code": "FRD"}, {"name": "Frome", "postcode": "BA11 1RE", "code": "FRO"}, {"name": "Fulwell", "postcode": "TW11 0SR", "code": "FLW"}, {"name": "Furness Vale", "postcode": "SK23 7PQ", "code": "FNV"}, {"name": "Furze Platt", "postcode": "SL6 7SQ", "code": "FZP"}, {"name": "Gainsborough Central", "postcode": "DN21 2EX", "code": "GNB"}, {"name": "Gainsborough Lea Road", "postcode": "DN21 1AJ", "code": "GBL"}, {"name": "Galashiels", "postcode": "TD1 1BP", "code": "GAL"}, {"name": "Garelochhead", "postcode": "G84 0DB", "code": "GCH"}, {"name": "Garforth", "postcode": "LS25 2QQ", "code": "GRF"}, {"name": "Gargrave", "postcode": "BD23 3PD", "code": "GGV"}, {"name": "Garrowhill", "postcode": "G69 1AA", "code": "GAR"}, {"name": "Garscadden", "postcode": "G13 3AE", "code": "GRS"}, {"name": "Garsdale", "postcode": "LA10 5PP", "code": "GSD"}, {"name": "Garston (Hertfordshire)", "postcode": "WD25 9QG", "code": "GSN"}, {"name": "Garswood", "postcode": "WN4 0TB", "code": "GSW"}, {"name": "Gartcosh", "postcode": "G69 8DF", "code": "GRH"}, {"name": "Garth (Mid Glamorgan)", "postcode": "CF34 9ES", "code": "GMG"}, {"name": "Garth (Powys)", "postcode": "LD4 4AF", "code": "GTH"}, {"name": "Garve", "postcode": "IV23 2QF", "code": "GVE"}, {"name": "Gathurst", "postcode": "WN6 8JB", "code": "GST"}, {"name": "Gatley", "postcode": "SK8 4AR", "code": "GTY"}, {"name": "Gatwick Airport", "postcode": "RH6 0RD", "code": "GTW"}, {"name": "Georgemas Junction", "postcode": "KW12 6XA", "code": "GGJ"}, {"name": "Gerrards Cross", "postcode": "SL9 8PP", "code": "GER"}, {"name": "Gidea Park", "postcode": "RM2 6DA", "code": "GDP"}, {"name": "Giffnock", "postcode": "G46 6JJ", "code": "GFN"}, {"name": "Giggleswick", "postcode": "BD24 0EB", "code": "GIG"}, {"name": "Gilberdyke", "postcode": "HU15 2YB", "code": "GBD"}, {"name": "Gilfach Fargoed", "postcode": "CF81 8LT", "code": "GFF"}, {"name": "Gillingham (Dorset)", "postcode": "SP8 4PZ", "code": "GIL"}, {"name": "Gillingham (Kent)", "postcode": "ME7 4PA", "code": "GLM"}, {"name": "Gilshochill", "postcode": "G23 5AR", "code": "GSC"}, {"name": "Gipsy Hill", "postcode": "SE19 1QL", "code": "GIP"}, {"name": "Girvan", "postcode": "KA26 9JF", "code": "GIR"}, {"name": "Glaisdale", "postcode": "YO21 2QL", "code": "GLS"}, {"name": "Glan Conwy", "postcode": "LL28 5ED", "code": "GCW"}, {"name": "Glasgow Central", "postcode": "G1 3SA", "code": "GLC"}, {"name": "Glasgow Queen Street", "postcode": "G1 2AF", "code": "GLQ"}, {"name": "Glasshoughton", "postcode": "WF10 4TA", "code": "GLH"}, {"name": "Glazebrook", "postcode": "WA3 5DD", "code": "GLZ"}, {"name": "Gleneagles", "postcode": "PH3 1JN", "code": "GLE"}, {"name": "Glenfinnan", "postcode": "PH37 4LT", "code": "GLF"}, {"name": "Glengarnock", "postcode": "KA14 3AT", "code": "GLG"}, {"name": "Glenrothes with Thornton", "postcode": "KY1 4ED", "code": "GLT"}, {"name": "Glossop", "postcode": "SK13 7DD", "code": "GLO"}, {"name": "Gloucester", "postcode": "GL1 1DE", "code": "GCR"}, {"name": "Glynde", "postcode": "BN8 6SS", "code": "GLY"}, {"name": "Gobowen", "postcode": "SY11 3LX", "code": "GOB"}, {"name": "Godalming", "postcode": "GU7 1EU", "code": "GOD"}, {"name": "Godley", "postcode": "SK14 3SG", "code": "GDL"}, {"name": "Godstone", "postcode": "RH9 8EU", "code": "GDN"}, {"name": "Goldthorpe", "postcode": "S63 9BS", "code": "GOE"}, {"name": "Golf Street", "postcode": "DD7 7JF", "code": "GOF"}, {"name": "Golspie", "postcode": "KW10 6ST", "code": "GOL"}, {"name": "Gomshall", "postcode": "GU5 9NB", "code": "GOM"}, {"name": "Goodmayes", "postcode": "IG3 9TS", "code": "GMY"}, {"name": "Goole", "postcode": "DN14 5DD", "code": "GOO"}, {"name": "Goostrey", "postcode": "CW4 8PL", "code": "GTR"}, {"name": "Gordon Hill", "postcode": "EN2 8RY", "code": "GDH"}, {"name": "Gorebridge", "postcode": "EH23 4JX", "code": "GBG"}, {"name": "Goring & Streatley", "postcode": "RG8 0ES", "code": "GOR"}, {"name": "Goring-by-Sea", "postcode": "BN12 5AB", "code": "GBS"}, {"name": "Gorton", "postcode": "M11 1WW", "code": "GTO"}, {"name": "Gospel Oak", "postcode": "NW5 1LT", "code": "GPO"}, {"name": "Gourock", "postcode": "PA19 1QR", "code": "GRK"}, {"name": "Gowerton", "postcode": "SA4 3AJ", "code": "GWN"}, {"name": "Goxhill", "postcode": "DN19 7HL", "code": "GOX"}, {"name": "Grange Park", "postcode": "N21 1RF", "code": "GPK"}, {"name": "Grange-over-Sands", "postcode": "LA11 6EH", "code": "GOS"}, {"name": "Grangetown", "postcode": "CF11 7JD", "code": "GTN"}, {"name": "Grantham", "postcode": "NG31 6BU", "code": "GRA"}, {"name": "Grateley", "postcode": "SP11 7DX", "code": "GRT"}, {"name": "Gravelly Hill", "postcode": "B23 7NH", "code": "GVH"}, {"name": "Gravesend", "postcode": "DA11 0RR", "code": "GRV"}, {"name": "Grays", "postcode": "RM17 6NQ", "code": "GRY"}, {"name": "Great Ayton", "postcode": "TS9 6HG", "code": "GTA"}, {"name": "Great Bentley", "postcode": "CO7 8LH", "code": "GRB"}, {"name": "Great Chesterford", "postcode": "CB10 1QW", "code": "GRC"}, {"name": "Great Coates", "postcode": "DN37 9NH", "code": "GCT"}, {"name": "Great Malvern", "postcode": "WR14 3BX", "code": "GMV"}, {"name": "Great Missenden", "postcode": "HP16 9AY", "code": "GMN"}, {"name": "Great Yarmouth", "postcode": "NR30 1SD", "code": "GYM"}, {"name": "Green Lane", "postcode": "CH41 9AN", "code": "GNL"}, {"name": "Green Road", "postcode": "LA18 5JD", "code": "GNR"}, {"name": "Greenbank", "postcode": "CW8 1JU", "code": "GBK"}, {"name": "Greenfaulds", "postcode": "G67 2XJ", "code": "GRL"}, {"name": "Greenfield", "postcode": "OL3 7JZ", "code": "GNF"}, {"name": "Greenford", "postcode": "UB6 8PX", "code": "GFD"}, {"name": "Greenhithe", "postcode": "DA9 9RE", "code": "GNH"}, {"name": "Greenock Central", "postcode": "PA15 1DH", "code": "GKC"}, {"name": "Greenock West", "postcode": "PA16 8UH", "code": "GKW"}, {"name": "Greenwich", "postcode": "SE10 8QJ", "code": "GNW"}, {"name": "Gretna Green", "postcode": "DG16 5DU", "code": "GEA"}, {"name": "Grimsby Docks", "postcode": "DN31 3AG", "code": "GMD"}, {"name": "Grimsby Town", "postcode": "DN31 1LY", "code": "GMB"}, {"name": "Grindleford", "postcode": "S32 2HY", "code": "GRN"}, {"name": "Grosmont", "postcode": "YO22 5PX", "code": "GMT"}, {"name": "Grove Park", "postcode": "SE12 9TJ", "code": "GRP"}, {"name": "Guide Bridge", "postcode": "OL7 0LJ", "code": "GUI"}, {"name": "Guildford", "postcode": "GU1 4UT", "code": "GLD"}, {"name": "Guiseley", "postcode": "LS20 9HQ", "code": "GSY"}, {"name": "Gunnersbury", "postcode": "W4 4DD", "code": "GUN"}, {"name": "Gunnislake", "postcode": "PL18 9DX", "code": "GSL"}, {"name": "Gunton", "postcode": "NR11 8UE", "code": "GNT"}, {"name": "Gwersyllt", "postcode": "LL11 4SA", "code": "GWE"}, {"name": "Gypsy Lane", "postcode": "TS7 0DY", "code": "GYP"}, {"name": "Habrough", "postcode": "DN40 3AP", "code": "HAB"}, {"name": "Hackbridge", "postcode": "SM6 7BJ", "code": "HCB"}, {"name": "Hackney Central", "postcode": "E8 1LR", "code": "HKC"}, {"name": "Hackney Downs", "postcode": "E8 1LP", "code": "HAC"}, {"name": "Hackney Wick", "postcode": "E9 5ER", "code": "HKW"}, {"name": "Haddenham and Thame Parkway", "postcode": "HP17 8EQ", "code": "HDM"}, {"name": "Haddiscoe", "postcode": "NR31 9JA", "code": "HAD"}, {"name": "Hadfield", "postcode": "SK13 2AQ", "code": "HDF"}, {"name": "Hadley Wood", "postcode": "EN4 0EL", "code": "HDW"}, {"name": "Hag Fold", "postcode": "M46 9SG", "code": "HGF"}, {"name": "Haggerston", "postcode": "", "code": "HGG"}, {"name": "Hagley", "postcode": "DY9 0NX", "code": "HAG"}, {"name": "Hairmyres", "postcode": "G74 5LW", "code": "HMY"}, {"name": "Hale", "postcode": "WA15 9AD", "code": "HAL"}, {"name": "Halesworth", "postcode": "IP19 8JS", "code": "HAS"}, {"name": "Halewood", "postcode": "L26 0TQ", "code": "HED"}, {"name": "Halifax", "postcode": "HX3 9XU", "code": "HFX"}, {"name": "Hall Green", "postcode": "B28 8JX", "code": "HLG"}, {"name": "Hall i' th' Wood", "postcode": "BL2 3AD", "code": "HID"}, {"name": "Hall Road", "postcode": "L23 6XX", "code": "HLR"}, {"name": "Halling", "postcode": "ME2 1BN", "code": "HAI"}, {"name": "Haltwhistle", "postcode": "NE49 9HN", "code": "HWH"}, {"name": "Ham Street", "postcode": "TN26 2DU", "code": "HMT"}, {"name": "Hamble", "postcode": "SO31 4HT", "code": "HME"}, {"name": "Hamilton Central", "postcode": "ML3 6QL", "code": "HNC"}, {"name": "Hamilton Square", "postcode": "CH41 1AL", "code": "BKQ"}, {"name": "Hamilton West", "postcode": "ML3 9AY", "code": "HNW"}, {"name": "Hammerton", "postcode": "YO26 8DN", "code": "HMM"}, {"name": "Hampden Park", "postcode": "BN22 9ND", "code": "HMD"}, {"name": "Hampstead Heath", "postcode": "NW3 2QF", "code": "HDH"}, {"name": "Hampton", "postcode": "TW12 2HU", "code": "HMP"}, {"name": "Hampton Court", "postcode": "KT8 9AE", "code": "HMC"}, {"name": "Hampton Wick", "postcode": "KT1 4WB", "code": "HMW"}, {"name": "Hampton-in-Arden", "postcode": "B92 0BH", "code": "HIA"}, {"name": "Hamstead", "postcode": "B42 1DE", "code": "HSD"}, {"name": "Hamworthy", "postcode": "BH16 5DB", "code": "HAM"}, {"name": "Hanborough", "postcode": "OX8 8LA", "code": "HND"}, {"name": "Handforth", "postcode": "SK9 3AB", "code": "HTH"}, {"name": "Hanwell", "postcode": "W7 3EB", "code": "HAN"}, {"name": "Hapton", "postcode": "BB12 7LG", "code": "HPN"}, {"name": "Harlech", "postcode": "LL46 2UF", "code": "HRL"}, {"name": "Harlesden", "postcode": "NW10 8NZ", "code": "HDN"}, {"name": "Harling Road", "postcode": "NR16 2QR", "code": "HRD"}, {"name": "Harlington", "postcode": "LU5 6LU", "code": "HLN"}, {"name": "Harlow Mill", "postcode": "CM20 2EL", "code": "HWM"}, {"name": "Harlow Town", "postcode": "CM20 2TD", "code": "HWN"}, {"name": "Harold Wood", "postcode": "RM3 0PE", "code": "HRO"}, {"name": "Harpenden", "postcode": "AL5 4SP", "code": "HPD"}, {"name": "Harrietsham", "postcode": "ME17 1JA", "code": "HRM"}, {"name": "Harringay", "postcode": "N4 1RE", "code": "HGY"}, {"name": "Harringay Green Lanes", "postcode": "N4 1DR", "code": "HRY"}, {"name": "Harrington", "postcode": "CA14 5QD", "code": "HRR"}, {"name": "Harrogate", "postcode": "HG1 1TF", "code": "HGT"}, {"name": "Harrow & Wealdstone", "postcode": "HA3 5AG", "code": "HRW"}, {"name": "Harrow-on-the-Hill", "postcode": "HA1 1BB", "code": "HOH"}, {"name": "Hartford", "postcode": "CW8 2AE", "code": "HTF"}, {"name": "Hartlebury", "postcode": "DY10 4HA", "code": "HBY"}, {"name": "Hartlepool", "postcode": "TS24 7ED", "code": "HPL"}, {"name": "Hartwood", "postcode": "ML7 5DU", "code": "HTW"}, {"name": "Harwich International", "postcode": "CO12 4SP", "code": "HPQ"}, {"name": "Harwich Town", "postcode": "CO12 3NA", "code": "HWC"}, {"name": "Haslemere", "postcode": "GU27 1DB", "code": "HSL"}, {"name": "Hassocks", "postcode": "BN6 8JD", "code": "HSK"}, {"name": "Hastings", "postcode": "TN34 1BA", "code": "HGS"}, {"name": "Hatch End", "postcode": "HA5 4HU", "code": "HTE"}, {"name": "Hatfield (Hertfordshire)", "postcode": "AL9 5AB", "code": "HAT"}, {"name": "Hatfield and Stainforth", "postcode": "DN7 5HL", "code": "HFS"}, {"name": "Hatfield Peverel", "postcode": "CM3 2DX", "code": "HAP"}, {"name": "Hathersage", "postcode": "S32 1DR", "code": "HSG"}, {"name": "Hattersley", "postcode": "SK14 3BJ", "code": "HTY"}, {"name": "Hatton", "postcode": "CV35 7LE", "code": "HTN"}, {"name": "Havant", "postcode": "PO9 2AA", "code": "HAV"}, {"name": "Havenhouse", "postcode": "PE24 4AR", "code": "HVN"}, {"name": "Haverfordwest", "postcode": "SA61 2LY", "code": "HVF"}, {"name": "Hawarden", "postcode": "CH5 3EG", "code": "HWD"}, {"name": "Hawarden Bridge", "postcode": "CH5 1PY", "code": "HWB"}, {"name": "Hawkhead", "postcode": "PA2 7AS", "code": "HKH"}, {"name": "Haydon Bridge", "postcode": "NE47 6LN", "code": "HDB"}, {"name": "Haydons Road", "postcode": "SW19 8RP", "code": "HYR"}, {"name": "Hayes (Kent)", "postcode": "BR2 7DL", "code": "HYS"}, {"name": "Hayes and Harlington", "postcode": "UB3 4BX", "code": "HAY"}, {"name": "Hayle", "postcode": "TR27 4NG", "code": "HYL"}, {"name": "Haymarket", "postcode": "EH11 2BD", "code": "HYM"}, {"name": "Haywards Heath", "postcode": "RH16 1DB", "code": "HHE"}, {"name": "Hazel Grove", "postcode": "SK7 4EX", "code": "HAZ"}, {"name": "Headcorn", "postcode": "TN27 9SD", "code": "HCN"}, {"name": "Headingley", "postcode": "LS5 3LD", "code": "HDY"}, {"name": "Headstone Lane", "postcode": "HA2 6NE", "code": "HDL"}, {"name": "Heald Green", "postcode": "SK8 3PZ", "code": "HDG"}, {"name": "Healing", "postcode": "DN41 7RY", "code": "HLI"}, {"name": "Heath High Level", "postcode": "CF23 5QJ", "code": "HHL"}, {"name": "Heath Low Level", "postcode": "CF14 3RJ", "code": "HLL"}, {"name": "Heathrow Terminals 1, 2 and 3", "postcode": "TW6 1WD", "code": "HXX"}, {"name": "Heathrow Terminal 4", "postcode": "TW6 3AA", "code": "HAF"}, {"name": "Heathrow Terminal 5", "postcode": "TW6 2GA", "code": "HWV"}, {"name": "Heaton Chapel", "postcode": "SK4 4RL", "code": "HTC"}, {"name": "Hebden Bridge", "postcode": "HX7 6JD", "code": "HBD"}, {"name": "Heckington", "postcode": "NG34 9UP", "code": "HEC"}, {"name": "Hedge End", "postcode": "SO30 2XB", "code": "HDE"}, {"name": "Hednesford", "postcode": "WS11 3EG", "code": "HNF"}, {"name": "Heighington", "postcode": "DL5 6QG", "code": "HEI"}, {"name": "Helensburgh Central", "postcode": "G84 7EE", "code": "HLC"}, {"name": "Helensburgh Upper", "postcode": "G84 9AG", "code": "HLU"}, {"name": "Hellifield", "postcode": "BD23 4HN", "code": "HLD"}, {"name": "Helmsdale", "postcode": "KW8 6HT", "code": "HMS"}, {"name": "Helsby", "postcode": "WA6 0AG", "code": "HSB"}, {"name": "Hemel Hempstead", "postcode": "HP3 9BQ", "code": "HML"}, {"name": "Hendon", "postcode": "NW9 6AX", "code": "HEN"}, {"name": "Hengoed", "postcode": "CF82 7LT", "code": "HNG"}, {"name": "Henley-in-Arden", "postcode": "B95 5JF", "code": "HNL"}, {"name": "Henley-on-Thames", "postcode": "RG9 1BE", "code": "HOT"}, {"name": "Hensall", "postcode": "DN14 0QN", "code": "HEL"}, {"name": "Hereford", "postcode": "HR1 1BB", "code": "HFD"}, {"name": "Herne Bay", "postcode": "CT6 8PJ", "code": "HNB"}, {"name": "Herne Hill", "postcode": "SE24 0JW", "code": "HNH"}, {"name": "Hersham", "postcode": "KT12 3RW", "code": "HER"}, {"name": "Hertford East", "postcode": "SG14 1SB", "code": "HFE"}, {"name": "Hertford North", "postcode": "SG14 1NB", "code": "HFN"}, {"name": "Hessle", "postcode": "HU13 0EY", "code": "HES"}, {"name": "Heswall", "postcode": "CH60 1XQ", "code": "HSW"}, {"name": "Hever", "postcode": "TN8 7ER", "code": "HEV"}, {"name": "Heworth", "postcode": "NE10 0LW", "code": "HEW"}, {"name": "Hexham", "postcode": "NE46 1ET", "code": "HEX"}, {"name": "Heyford", "postcode": "OX6 3PD", "code": "HYD"}, {"name": "Heysham Port", "postcode": "LA3 2XE", "code": "HHB"}, {"name": "High Brooms", "postcode": "TN2 3XE", "code": "HIB"}, {"name": "High Street Glasgow", "postcode": "G1 1QF", "code": "HST"}, {"name": "High Wycombe", "postcode": "HP13 6NN", "code": "HWY"}, {"name": "Higham", "postcode": "ME3 7JQ", "code": "HGM"}, {"name": "Highams Park", "postcode": "E4 9LA", "code": "HIP"}, {"name": "Highbridge and Burnham", "postcode": "TA9 3BT", "code": "HIG"}, {"name": "Highbury and Islington", "postcode": "N1 1SB", "code": "HHY"}, {"name": "Hightown", "postcode": "L38 3RX", "code": "HTO"}, {"name": "Hildenborough", "postcode": "TN11 8LX", "code": "HLB"}, {"name": "Hillfoot", "postcode": "G61 2BT", "code": "HLF"}, {"name": "Hillington East", "postcode": "G52 2LJ", "code": "HLE"}, {"name": "Hillington West", "postcode": "G52 4EW", "code": "HLW"}, {"name": "Hillside", "postcode": "PR8 2LN", "code": "HIL"}, {"name": "Hilsea", "postcode": "PO3 5RQ", "code": "HLS"}, {"name": "Hinchley Wood", "postcode": "KT10 0SR", "code": "HYW"}, {"name": "Hinckley", "postcode": "LE10 1UE", "code": "HNK"}, {"name": "Hindley", "postcode": "WN2 2QL", "code": "HIN"}, {"name": "Hinton Admiral", "postcode": "BH23 7DP", "code": "HNA"}, {"name": "Hitchin", "postcode": "SG4 9UL", "code": "HIT"}, {"name": "Hither Green", "postcode": "SE13 6HE", "code": "HGR"}, {"name": "Hockley", "postcode": "SS5 4BG", "code": "HOC"}, {"name": "Hollingbourne", "postcode": "ME17 1TX", "code": "HBN"}, {"name": "Hollinwood", "postcode": "OL9 7LG", "code": "HOD"}, {"name": "Holmes Chapel", "postcode": "CW4 8AA", "code": "HCH"}, {"name": "Holmwood", "postcode": "RH5 4UZ", "code": "HLM"}, {"name": "Holton Heath", "postcode": "BH16 6JX", "code": "HOL"}, {"name": "Holyhead", "postcode": "LL65 1DQ", "code": "HHD"}, {"name": "Holytown", "postcode": "ML1 4LU", "code": "HLY"}, {"name": "Homerton", "postcode": "E9 6AP", "code": "HMN"}, {"name": "Honeybourne", "postcode": "WR11 5XR", "code": "HYB"}, {"name": "Honiton", "postcode": "EX14 2DA", "code": "HON"}, {"name": "Honley", "postcode": "HD7 2LJ", "code": "HOY"}, {"name": "Honor Oak Park", "postcode": "SE23 1NX", "code": "HPA"}, {"name": "Hook", "postcode": "RG27 9HS", "code": "HOK"}, {"name": "Hooton", "postcode": "CH66 7NL", "code": "HOO"}, {"name": "Hope (Flintshire)", "postcode": "LL12 9NJ", "code": "HPE"}, {"name": "Hope (Derbyshire)", "postcode": "S33 6RE", "code": "HOP"}, {"name": "Hopton Heath", "postcode": "SY7 0QD", "code": "HPT"}, {"name": "Horley", "postcode": "RH6 9HB", "code": "HOR"}, {"name": "Hornbeam Park", "postcode": "HG2 8BW", "code": "HBP"}, {"name": "Hornsey", "postcode": "N8 7EA", "code": "HRN"}, {"name": "Horsforth", "postcode": "LS18 5NP", "code": "HRS"}, {"name": "Horsham", "postcode": "RH13 5RB", "code": "HRH"}, {"name": "Horsley", "postcode": "KT24 6QX", "code": "HSY"}, {"name": "Horton-in-Ribblesdale", "postcode": "BD24 0HL", "code": "HIR"}, {"name": "Horwich Parkway", "postcode": "BL6 6LB", "code": "HWI"}, {"name": "Hoscar", "postcode": "L40 4BQ", "code": "HSC"}, {"name": "Hough Green", "postcode": "WA8 7XU", "code": "HGN"}, {"name": "Hounslow", "postcode": "TW3 2EB", "code": "HOU"}, {"name": "Hove", "postcode": "BN3 6HW", "code": "HOV"}, {"name": "Hoveton and Wroxham", "postcode": "NR12 8UT", "code": "HXM"}, {"name": "How Wood (Hertfordshire)", "postcode": "AL2 2JL", "code": "HWW"}, {"name": "Howden", "postcode": "DN14 7LD", "code": "HOW"}, {"name": "Howwood (Renfrewshire)", "postcode": "PA9 1XX", "code": "HOZ"}, {"name": "Hoxton", "postcode": "", "code": "HOX"}, {"name": "Hoylake", "postcode": "CH47 2AB", "code": "HYK"}, {"name": "Hubberts Bridge", "postcode": "PE20 3QR", "code": "HBB"}, {"name": "Hucknall", "postcode": "NG15 8AH", "code": "HKN"}, {"name": "Huddersfield", "postcode": "HD1 1JF", "code": "HUD"}, {"name": "Hull Paragon Interchange", "postcode": "HU3 2LL", "code": "HUL"}, {"name": "Humphrey Park", "postcode": "M32 9QD", "code": "HUP"}, {"name": "Huncoat", "postcode": "BB5 6NQ", "code": "HCT"}, {"name": "Hungerford", "postcode": "RG17 0DX", "code": "HGD"}, {"name": "Hunmanby", "postcode": "YO14 0LR", "code": "HUB"}, {"name": "Huntingdon", "postcode": "PE29 3BP", "code": "HUN"}, {"name": "Huntly", "postcode": "AB54 6HZ", "code": "HNT"}, {"name": "Hunts Cross", "postcode": "L25 0NL", "code": "HNX"}, {"name": "Hurst Green", "postcode": "RH8 0LL", "code": "HUR"}, {"name": "Hutton Cranswick", "postcode": "YO25 9QY", "code": "HUT"}, {"name": "Huyton", "postcode": "L36 5XA", "code": "HUY"}, {"name": "Hyde Central", "postcode": "SK14 1BW", "code": "HYC"}, {"name": "Hyde North", "postcode": "SK16 5LJ", "code": "HYT"}, {"name": "Hykeham", "postcode": "LN6 9AT", "code": "HKM"}, {"name": "Hyndland", "postcode": "G12 9YH", "code": "HYN"}, {"name": "Hythe (Essex)", "postcode": "CO2 8JZ", "code": "HYH"}, {"name": "IBM", "postcode": "PA16 0AJ", "code": "IBM"}, {"name": "Ifield", "postcode": "RH11 0JP", "code": "IFI"}, {"name": "Ilford", "postcode": "IG1 2DG", "code": "IFD"}, {"name": "Ilkley", "postcode": "LS29 8HF", "code": "ILK"}, {"name": "Imperial Wharf", "postcode": "SW10 9xx", "code": "IMW"}, {"name": "Ince (Manchester)", "postcode": "WN3 4RH", "code": "INC"}, {"name": "Ince and Elton", "postcode": "CH2 4NE", "code": "INE"}, {"name": "Ingatestone", "postcode": "CM4 0BH", "code": "INT"}, {"name": "Insch", "postcode": "AB52 6WN", "code": "INS"}, {"name": "Invergordon", "postcode": "IV18 0RQ", "code": "IGD"}, {"name": "Invergowrie", "postcode": "DD2 5AP", "code": "ING"}, {"name": "Inverkeithing", "postcode": "KY11 1NJ", "code": "INK"}, {"name": "Inverkip", "postcode": "PA16 0BE", "code": "INP"}, {"name": "Inverness", "postcode": "IV1 1LF", "code": "INV"}, {"name": "Invershin", "postcode": "IV27 4ET", "code": "INH"}, {"name": "Inverurie", "postcode": "AB51 4TN", "code": "INR"}, {"name": "Ipswich", "postcode": "IP2 8AN", "code": "IPS"}, {"name": "Irlam", "postcode": "M44 5AB", "code": "IRL"}, {"name": "Irvine", "postcode": "KA12 8NU", "code": "IRV"}, {"name": "Isleworth", "postcode": "TW7 4BY", "code": "ISL"}, {"name": "Islip", "postcode": "OX5 2TQ", "code": "ISP"}, {"name": "Iver", "postcode": "SL0 9AT", "code": "IVR"}, {"name": "Ivybridge", "postcode": "TQ9 5JR", "code": "IVY"}, {"name": "James Cook", "postcode": "TS4 3BW", "code": "JCH"}, {"name": "James Street", "postcode": "L2 7PQ", "code": "LVJ"}, {"name": "Jewellery Quarter", "postcode": "B18 6LE", "code": "JEQ"}, {"name": "Johnston", "postcode": "SA62 3PZ", "code": "JOH"}, {"name": "Johnstone", "postcode": "PA5 8HE", "code": "JHN"}, {"name": "Jordanhill", "postcode": "G13 1QL", "code": "JOR"}, {"name": "Kearsley", "postcode": "BL4 8DU", "code": "KSL"}, {"name": "Kearsney", "postcode": "CT17 0RN", "code": "KSN"}, {"name": "Keighley", "postcode": "BD21 4HP", "code": "KEI"}, {"name": "Keith", "postcode": "AB55 5GB", "code": "KEH"}, {"name": "Kelvedon", "postcode": "CO5 9LT", "code": "KEL"}, {"name": "Kelvindale", "postcode": "G20 0TA", "code": "KVD"}, {"name": "Kemble", "postcode": "GL7 6AU", "code": "KEM"}, {"name": "Kempston Hardwick", "postcode": "MK43 9NR", "code": "KMH"}, {"name": "Kempton Park", "postcode": "TW16 5BX", "code": "KMP"}, {"name": "Kemsing", "postcode": "TN15 6YP", "code": "KMS"}, {"name": "Kemsley", "postcode": "ME10 2PL", "code": "KML"}, {"name": "Kendal", "postcode": "LA9 6SA", "code": "KEN"}, {"name": "Kenley", "postcode": "CR8 5DF", "code": "KLY"}, {"name": "Kennett", "postcode": "CB8 7QF", "code": "KNE"}, {"name": "Kennishead", "postcode": "G46 8HN", "code": "KNS"}, {"name": "Kensal Green", "postcode": "NW10 5JT", "code": "KNL"}, {"name": "Kensal Rise", "postcode": "NW10 5RT", "code": "KNR"}, {"name": "Kensington (Olympia)", "postcode": "W14 8HW", "code": "KPA"}, {"name": "Kent House", "postcode": "BR3 1JD", "code": "KTH"}, {"name": "Kentish Town", "postcode": "NW5 2TU", "code": "KTN"}, {"name": "Kentish Town West", "postcode": "NW5 3ED", "code": "KTW"}, {"name": "Kenton", "postcode": "HA3 0JA", "code": "KNT"}, {"name": "Kents Bank", "postcode": "LA11 7BG", "code": "KBK"}, {"name": "Kettering", "postcode": "NN15 7JT", "code": "KET"}, {"name": "Kew Bridge", "postcode": "TW8 0JA", "code": "KWB"}, {"name": "Kew Gardens", "postcode": "TW9 3QA", "code": "KWG"}, {"name": "Keyham", "postcode": "PL2 2BD", "code": "KEY"}, {"name": "Keynsham", "postcode": "BS31 2BT", "code": "KYN"}, {"name": "Kidbrooke", "postcode": "SE3 9PL", "code": "KDB"}, {"name": "Kidderminster", "postcode": "DY10 1UG", "code": "KID"}, {"name": "Kidsgrove", "postcode": "ST7 1BX", "code": "KDG"}, {"name": "Kidwelly", "postcode": "SA17 4UW", "code": "KWL"}, {"name": "Kilburn High Road", "postcode": "NW6 5UD", "code": "KBN"}, {"name": "Kildale", "postcode": "YO21 2RJ", "code": "KLD"}, {"name": "Kildonan", "postcode": "KW8 6HY", "code": "KIL"}, {"name": "Kilgetty", "postcode": "SA68 0XR", "code": "KGT"}, {"name": "Kilmarnock", "postcode": "KA1 2AF", "code": "KMK"}, {"name": "Kilmaurs", "postcode": "KA3 2TU", "code": "KLM"}, {"name": "Kilpatrick", "postcode": "G60 5LX", "code": "KPT"}, {"name": "Kilwinning", "postcode": "KA13 6NT", "code": "KWN"}, {"name": "Kinbrace", "postcode": "KW11 6UB", "code": "KBC"}, {"name": "Kingham", "postcode": "OX7 6UP", "code": "KGM"}, {"name": "Kinghorn", "postcode": "KY3 9RA", "code": "KGH"}, {"name": "King's Cross", "postcode": "N1 9AX", "code": "KGX"}, {"name": "King's Cross Thameslink", "postcode": "N1 9NL", "code": "KCM"}, {"name": "Kings Langley", "postcode": "WD4 8LL", "code": "KGL"}, {"name": "King's Lynn", "postcode": "PE30 1NX", "code": "KLN"}, {"name": "Kings Norton", "postcode": "B30 1AB", "code": "KNN"}, {"name": "King's Nympton", "postcode": "EX37 9EU", "code": "KGN"}, {"name": "King's Park", "postcode": "G44 4HS", "code": "KGP"}, {"name": "Kings Sutton", "postcode": "OX17 3NZ", "code": "KGS"}, {"name": "Kingsknowe", "postcode": "EH14 2EF", "code": "KGE"}, {"name": "Kingston", "postcode": "KT1 1UJ", "code": "KNG"}, {"name": "Kingswood", "postcode": "KT20 6HS", "code": "KND"}, {"name": "Kingussie", "postcode": "PH21 1JA", "code": "KIN"}, {"name": "Kintbury", "postcode": "RG17 9UN", "code": "KIT"}, {"name": "Kirby Cross", "postcode": "CO13 0LU", "code": "KBX"}, {"name": "Kirk Sandall", "postcode": "DN3 1SE", "code": "KKS"}, {"name": "Kirkby (Merseyside)", "postcode": "L32 2AE", "code": "KIR"}, {"name": "Kirkby-in-Ashfield", "postcode": "NG17 8DB", "code": "KKB"}, {"name": "Kirkby-in-Furness", "postcode": "LA17 7TA", "code": "KBF"}, {"name": "Kirkby Stephen", "postcode": "CA17 4LF", "code": "KSW"}, {"name": "Kirkcaldy", "postcode": "KY1 1YL", "code": "KDY"}, {"name": "Kirkconnel", "postcode": "DG4 6LU", "code": "KRK"}, {"name": "Kirkdale", "postcode": "L20 2BX", "code": "KKD"}, {"name": "Kirkham and Wesham", "postcode": "PR4 3AH", "code": "KKM"}, {"name": "Kirkhill", "postcode": "G72 8NB", "code": "KKH"}, {"name": "Kirknewton", "postcode": "EH27 8DD", "code": "KKN"}, {"name": "Kirkstall Forge", "postcode": "LS5 3NF", "code": "KLF"}, {"name": "Kirkwood", "postcode": "ML5 5NQ", "code": "KWD"}, {"name": "Kirton Lindsey", "postcode": "DN21 4BE", "code": "KTL"}, {"name": "Kiveton Bridge", "postcode": "S26 6QX", "code": "KIV"}, {"name": "Kiveton Park", "postcode": "S26 6NP", "code": "KVP"}, {"name": "Knaresborough", "postcode": "HG5 8BX", "code": "KNA"}, {"name": "Knebworth", "postcode": "SG3 6HL", "code": "KBW"}, {"name": "Knighton", "postcode": "LD7 1DY", "code": "KNI"}, {"name": "Knockholt", "postcode": "TN14 7HR", "code": "KCK"}, {"name": "Knottingley", "postcode": "WF11 8RN", "code": "KNO"}, {"name": "Knucklas", "postcode": "LD7 1RR", "code": "KNU"}, {"name": "Knutsford", "postcode": "WA16 6DN", "code": "KNF"}, {"name": "Kyle of Lochalsh", "postcode": "IV40 8AQ", "code": "KYL"}, {"name": "Ladybank", "postcode": "KY15 7JY", "code": "LDY"}, {"name": "Ladywell", "postcode": "SE13 7XB", "code": "LAD"}, {"name": "Laindon", "postcode": "SS15 6AB", "code": "LAI"}, {"name": "Lairg", "postcode": "IV27 4DH", "code": "LRG"}, {"name": "Lake", "postcode": "PO36 8PJ", "code": "LKE"}, {"name": "Lakenheath", "postcode": "IP27 9AD", "code": "LAK"}, {"name": "Lamphey", "postcode": "SA71 5NR", "code": "LAM"}, {"name": "Lanark", "postcode": "ML11 7NR", "code": "LNK"}, {"name": "Lancaster", "postcode": "LA1 5NW", "code": "LAN"}, {"name": "Lancing", "postcode": "BN15 9HH", "code": "LAC"}, {"name": "Landywood", "postcode": "WS6 6JE", "code": "LAW"}, {"name": "Langbank", "postcode": "PA14 6YA", "code": "LGB"}, {"name": "Langho", "postcode": "BB6 8ED", "code": "LHO"}, {"name": "Langley (Berkshire)", "postcode": "SL3 6DB", "code": "LNY"}, {"name": "Langley Green", "postcode": "B69 4LZ", "code": "LGG"}, {"name": "Langley Mill", "postcode": "NG16 4AP", "code": "LGM"}, {"name": "Langside", "postcode": "G43 2EP", "code": "LGS"}, {"name": "Langwathby", "postcode": "CA10 1NA", "code": "LGW"}, {"name": "Langwith-Whaley Thorns", "postcode": "NG20 9BW", "code": "LAG"}, {"name": "Lapford", "postcode": "EX17 6AE", "code": "LAP"}, {"name": "Lapworth", "postcode": "B94 6LP", "code": "LPW"}, {"name": "Larbert", "postcode": "FK5 4AW", "code": "LBT"}, {"name": "Largs", "postcode": "KA30 8AN", "code": "LAR"}, {"name": "Larkhall", "postcode": "ML9 1DP", "code": "LRH"}, {"name": "Laurencekirk", "postcode": "AB30 1NN", "code": "LAU"}, {"name": "Lawrence Hill", "postcode": "BS5 9JD", "code": "LWH"}, {"name": "Layton", "postcode": "FY3 7JY", "code": "LAY"}, {"name": "Lazonby and Kirkoswald", "postcode": "CA10 1BQ", "code": "LZB"}, {"name": "Lea Green", "postcode": "WA9 4QF", "code": "LEG"}, {"name": "Lea Hall", "postcode": "B33 8JU", "code": "LEH"}, {"name": "Leagrave", "postcode": "LU4 9BA", "code": "LEA"}, {"name": "Lealholm", "postcode": "YO21 2AG", "code": "LHM"}, {"name": "Leamington Spa", "postcode": "CV31 3NS", "code": "LMS"}, {"name": "Leasowe", "postcode": "CH46 1QN", "code": "LSW"}, {"name": "Leatherhead", "postcode": "KT22 7SQ", "code": "LHD"}, {"name": "Ledbury", "postcode": "HR8 1AR", "code": "LED"}, {"name": "Lee", "postcode": "SE12 0AD", "code": "LEE"}, {"name": "Leeds", "postcode": "LS1 4JB", "code": "LDS"}, {"name": "Leicester", "postcode": "LE2 0HH", "code": "LEI"}, {"name": "Leigh (Kent)", "postcode": "TN11 8RU", "code": "LIH"}, {"name": "Leigh On Sea", "postcode": "SS9 2ET", "code": "LES"}, {"name": "Leighton Buzzard", "postcode": "LU7 7LY", "code": "LBZ"}, {"name": "Lelant", "postcode": "TR26 3DW", "code": "LEL"}, {"name": "Lelant Saltings", "postcode": "TR27 6HB", "code": "LTS"}, {"name": "Lenham", "postcode": "ME17 2HR", "code": "LEN"}, {"name": "Lenzie", "postcode": "G66 4LP", "code": "LNZ"}, {"name": "Leominster", "postcode": "HR6 8AR", "code": "LEO"}, {"name": "Letchworth Garden City", "postcode": "SG6 3AN", "code": "LET"}, {"name": "Leuchars", "postcode": "KY16 0AA", "code": "LEU"}, {"name": "Levenshulme", "postcode": "M19 3PJ", "code": "LVM"}, {"name": "Lewes", "postcode": "BN7 2XP", "code": "LWS"}, {"name": "Lewisham", "postcode": "SE13 7SA", "code": "LEW"}, {"name": "Leyland", "postcode": "PR5 2XB", "code": "LEY"}, {"name": "Leyton Midland Road", "postcode": "E10 6RN", "code": "LEM"}, {"name": "Leytonstone High Road", "postcode": "E11 4RP", "code": "LER"}, {"name": "Lichfield City", "postcode": "WS14 9DZ", "code": "LIC"}, {"name": "Lichfield Trent Valley", "postcode": "WS14 9HY", "code": "LTV"}, {"name": "Lidlington", "postcode": "MK43 0RE", "code": "LID"}, {"name": "Limehouse", "postcode": "E14 7JD", "code": "LHS"}, {"name": "Lincoln Central", "postcode": "LN5 7EW", "code": "LCN"}, {"name": "Lingfield", "postcode": "RH7 6EH", "code": "LFD"}, {"name": "Lingwood", "postcode": "NR13 4BB", "code": "LGD"}, {"name": "Linlithgow", "postcode": "EH49 6AF", "code": "LIN"}, {"name": "Liphook", "postcode": "GU30 7DN", "code": "LIP"}, {"name": "Liskeard", "postcode": "PL14 4DZ", "code": "LSK"}, {"name": "Liss", "postcode": "GU33 7AB", "code": "LIS"}, {"name": "Lisvane and Thornhill", "postcode": "CF14 0UE", "code": "LVT"}, {"name": "Little Kimble", "postcode": "HP17 0XN", "code": "LTK"}, {"name": "Little Sutton", "postcode": "CH66 1NU", "code": "LTT"}, {"name": "Littleborough", "postcode": "OL15 8DE", "code": "LTL"}, {"name": "Littlehampton", "postcode": "BN17 7BX", "code": "LIT"}, {"name": "Littlehaven", "postcode": "RH12 4BW", "code": "LVN"}, {"name": "Littleport", "postcode": "CB6 1JL", "code": "LTP"}, {"name": "Liverpool Central", "postcode": "L1 1JT", "code": "LVC"}, {"name": "Liverpool Lime Street", "postcode": "L1 1RJ", "code": "LIV"}, {"name": "Liverpool South Parkway", "postcode": "L19 5NE", "code": "LPY"}, {"name": "Livingston North", "postcode": "EH54 8PL", "code": "LSN"}, {"name": "Livingston South", "postcode": "EH54 9DA", "code": "LVG"}, {"name": "Llanaber", "postcode": "LL42 1AZ", "code": "LLA"}, {"name": "Llanbedr", "postcode": "LL45 2LR", "code": "LBR"}, {"name": "Llanbister Road", "postcode": "LD1 5UW", "code": "LLT"}, {"name": "Llanbradach", "postcode": "CF83 3NE", "code": "LNB"}, {"name": "Llandaf", "postcode": "CF14 2EZ", "code": "LLN"}, {"name": "Llandanwg", "postcode": "LL46 2SD", "code": "LDN"}, {"name": "Llandecwyn", "postcode": "LL47 6YN", "code": "LLC"}, {"name": "Llandeilo", "postcode": "SA19 6LE", "code": "LLL"}, {"name": "Llandovery", "postcode": "SA20 0BE", "code": "LLV"}, {"name": "Llandrindod", "postcode": "LD1 5BB", "code": "LLO"}, {"name": "Llandudno", "postcode": "LL30 2AF", "code": "LLD"}, {"name": "Llandudno Junction", "postcode": "LL31 9NB", "code": "LLJ"}, {"name": "Llandybie", "postcode": "SA18 3UN", "code": "LLI"}, {"name": "Llanelli", "postcode": "SA15 2RN", "code": "LLE"}, {"name": "Llanfairfechan", "postcode": "LL33 0BP", "code": "LLF"}, {"name": "Llanfairpwll", "postcode": "LL61 5UJ", "code": "LPG"}, {"name": "Llangadog", "postcode": "SA19 9LU", "code": "LLG"}, {"name": "Llangammarch", "postcode": "LD4 4EE", "code": "LLM"}, {"name": "Llangennech", "postcode": "SA14 8UY", "code": "LLH"}, {"name": "Llangynllo", "postcode": "LD7 1TA", "code": "LGO"}, {"name": "Llanharan", "postcode": "CF72 9QA", "code": "LLR"}, {"name": "Llanhilleth", "postcode": "NP13 2HT", "code": "LTH"}, {"name": "Llanishen", "postcode": "CF14 0SA", "code": "LLS"}, {"name": "Llanrwst", "postcode": "LL26 0EG", "code": "LWR"}, {"name": "Llansamlet", "postcode": "SA7 9BP", "code": "LAS"}, {"name": "Llantwit Major", "postcode": "CF61 2XD", "code": "LWM"}, {"name": "Llanwrda", "postcode": "SA19 8EH", "code": "LNR"}, {"name": "Llanwrtyd", "postcode": "LD5 4RP", "code": "LNW"}, {"name": "Llwyngwril", "postcode": "LL37 2JS", "code": "LLW"}, {"name": "Llwynypia", "postcode": "CF40 2JH", "code": "LLY"}, {"name": "Lochailort", "postcode": "PH38 4LZ", "code": "LCL"}, {"name": "Loch Awe", "postcode": "PA33 1AQ", "code": "LHA"}, {"name": "Loch Eil Outward Bound", "postcode": "PH33 7NW", "code": "LHE"}, {"name": "Locheilside", "postcode": "PH33 7NP", "code": "LCS"}, {"name": "Lochgelly", "postcode": "KY5 9EL", "code": "LCG"}, {"name": "Lochluichart", "postcode": "IV23 2PZ", "code": "LCC"}, {"name": "Lochwinnoch", "postcode": "PA12 4JF", "code": "LHW"}, {"name": "Lockerbie", "postcode": "DG11 2HE", "code": "LOC"}, {"name": "Lockwood", "postcode": "HD1 3SW", "code": "LCK"}, {"name": "London Blackfriars", "postcode": "EC4V 4DY", "code": "BFR"}, {"name": "London Bridge", "postcode": "SE1 2SZ", "code": "LBG"}, {"name": "London Cannon Street", "postcode": "EC4R 2AT", "code": "CST"}, {"name": "London Charing Cross", "postcode": "WC2N 6NN", "code": "CHX"}, {"name": "London Euston", "postcode": "NW1 2RZ", "code": "EUS"}, {"name": "London Fenchurch Street", "postcode": "EC3M 4AJ", "code": "FST"}, {"name": "London Fields", "postcode": "E8 3PH", "code": "LOF"}, {"name": "London King's Cross", "postcode": "N1 9AX", "code": "KGX"}, {"name": "London Liverpool Street", "postcode": "EC2A 2HL", "code": "LST"}, {"name": "London Marylebone", "postcode": "NW1 6JR", "code": "MYB"}, {"name": "London Paddington", "postcode": "W2 6HT", "code": "PAD"}, {"name": "London Road (Brighton)", "postcode": "BN1 4QS", "code": "LRB"}, {"name": "London Road (Guildford)", "postcode": "GU1 4DQ", "code": "LRD"}, {"name": "London St Pancras", "postcode": "NW1 2QL", "code": "STP"}, {"name": "London Victoria", "postcode": "SW1E 5ND", "code": "VIC"}, {"name": "London Waterloo", "postcode": "SE1 7NS", "code": "WAT"}, {"name": "London Waterloo East", "postcode": "SE1 8TD", "code": "WAE"}, {"name": "London Waterloo International", "postcode": "SE1 7NS", "code": "WIT"}, {"name": "Long Buckby", "postcode": "NN6 7PF", "code": "LBK"}, {"name": "Long Eaton", "postcode": "NG10 3GL", "code": "LGE"}, {"name": "Long Preston", "postcode": "BD23 4RY", "code": "LPR"}, {"name": "Longbeck", "postcode": "TS11 6HD", "code": "LGK"}, {"name": "Longbridge", "postcode": "B31 4HG", "code": "LOB"}, {"name": "Longcross", "postcode": "GU25 4JR", "code": "LNG"}, {"name": "Longfield", "postcode": "DA3 7QA", "code": "LGF"}, {"name": "Longniddry", "postcode": "EH32 0LS", "code": "LND"}, {"name": "Longport", "postcode": "ST6 4NF", "code": "LPT"}, {"name": "Longton", "postcode": "ST3 2JG", "code": "LGN"}, {"name": "Looe", "postcode": "PL13 1LS", "code": "LOO"}, {"name": "Lostock", "postcode": "BL6 4JP", "code": "LOT"}, {"name": "Lostock Gralam", "postcode": "CW9 7PR", "code": "LTG"}, {"name": "Lostock Hall", "postcode": "PR5 5BU", "code": "LOH"}, {"name": "Lostwithiel", "postcode": "PL22 0DY", "code": "LOS"}, {"name": "Loughborough", "postcode": "LE11 1ET", "code": "LBO"}, {"name": "Loughborough Junction", "postcode": "SW9 8SA", "code": "LGJ"}, {"name": "Low Moor", "postcode": "BD12 7BD", "code": "LMR"}, {"name": "Lowdham", "postcode": "NG14 7HH", "code": "LOW"}, {"name": "Lower Sydenham", "postcode": "SE26 5BN", "code": "LSY"}, {"name": "Lowestoft", "postcode": "NR32 2EG", "code": "LWT"}, {"name": "Ludlow", "postcode": "SY8 1PY", "code": "LUD"}, {"name": "Luton", "postcode": "LU1 2LT", "code": "LUT"}, {"name": "Luton Airport Parkway", "postcode": "LU2 0ZZ", "code": "LTN"}, {"name": "Luxulyan", "postcode": "PL30 5EF", "code": "LUX"}, {"name": "Lydney", "postcode": "GL15 5ER", "code": "LYD"}, {"name": "Lye", "postcode": "DY9 8ES", "code": "LYE"}, {"name": "Lymington Pier", "postcode": "SO41 5ZE", "code": "LYP"}, {"name": "Lymington Town", "postcode": "SO41 9AY", "code": "LYT"}, {"name": "Lympstone Commando", "postcode": "EX8 5AR", "code": "LYC"}, {"name": "Lympstone Village", "postcode": "EX8 5EU", "code": "LYM"}, {"name": "Lytham", "postcode": "FY8 5PA", "code": "LTM"}, {"name": "Macclesfield", "postcode": "SK10 1JD", "code": "MAC"}, {"name": "Machynlleth", "postcode": "SY20 8TG", "code": "MCN"}, {"name": "Maesteg", "postcode": "CF34 9BN", "code": "MST"}, {"name": "Maesteg (Ewenny Road)", "postcode": "CF34 9TS", "code": "MEW"}, {"name": "Maghull", "postcode": "L31 3DE", "code": "MAG"}, {"name": "Maiden Newton", "postcode": "DT2 0BP", "code": "MDN"}, {"name": "Maidenhead", "postcode": "SL6 1EW", "code": "MAI"}, {"name": "Maidstone Barracks", "postcode": "ME16 0SQ", "code": "MDB"}, {"name": "Maidstone East", "postcode": "ME14 1QL", "code": "MDE"}, {"name": "Maidstone West", "postcode": "ME16 8RJ", "code": "MDW"}, {"name": "Malden Manor", "postcode": "KT3 5PN", "code": "MAL"}, {"name": "Mallaig", "postcode": "PH41 4QA", "code": "MLG"}, {"name": "Malton", "postcode": "YO17 9RD", "code": "MLT"}, {"name": "Malvern Link", "postcode": "WR14 1JE", "code": "MVL"}, {"name": "Manchester Airport", "postcode": "M90 3RR", "code": "MIA"}, {"name": "Manchester Oxford Road", "postcode": "M1 6FU", "code": "MCO"}, {"name": "Manchester Piccadilly", "postcode": "M1 2PZ", "code": "MAN"}, {"name": "Manchester United Football Ground", "postcode": "M16 OQG", "code": "MUF"}, {"name": "Manchester Victoria", "postcode": "M3 1AR", "code": "MCV"}, {"name": "Manea", "postcode": "PE15 0HQ", "code": "MNE"}, {"name": "Manningtree", "postcode": "CO11 2LH", "code": "MNG"}, {"name": "Manor Park", "postcode": "E12 5DA", "code": "MNP"}, {"name": "Manor Road", "postcode": "CH47 3DS", "code": "MNR"}, {"name": "Manorbier", "postcode": "SA70 7SN", "code": "MRB"}, {"name": "Manors", "postcode": "NE1 2HQ", "code": "MAS"}, {"name": "Mansfield", "postcode": "NG18 1LP", "code": "MFT"}, {"name": "Mansfield Woodhouse", "postcode": "NG19 9NW", "code": "MSW"}, {"name": "March", "postcode": "PE15 8SL", "code": "MCH"}, {"name": "Marden (Kent)", "postcode": "TN12 9HS", "code": "MRN"}, {"name": "Margate", "postcode": "CT9 5AD", "code": "MAR"}, {"name": "Market Harborough", "postcode": "LE16 7QE", "code": "MHR"}, {"name": "Market Rasen", "postcode": "LN8 3AW", "code": "MKR"}, {"name": "Markinch", "postcode": "KY7 6AQ", "code": "MNC"}, {"name": "Marks Tey", "postcode": "CO6 1ED", "code": "MKT"}, {"name": "Marlow", "postcode": "SL7 1NT", "code": "MLW"}, {"name": "Marple", "postcode": "SK6 7DA", "code": "MPL"}, {"name": "Marsden (Yorkshire)", "postcode": "HD7 6AX", "code": "MSN"}, {"name": "Marske", "postcode": "TS11 6JH", "code": "MSK"}, {"name": "Marston Green", "postcode": "B37 7AF", "code": "MGN"}, {"name": "Martin Mill", "postcode": "CT15 5LD", "code": "MTM"}, {"name": "Martins Heron", "postcode": "RG12 9YY", "code": "MAO"}, {"name": "Marton", "postcode": "TS3 0SR", "code": "MTO"}, {"name": "Maryhill", "postcode": "G20 0BT", "code": "MYH"}, {"name": "Maryland", "postcode": "E15 1EY", "code": "MYL"}, {"name": "Marylebone (London)", "postcode": "NW1 6JR", "code": "MYB"}, {"name": "Maryport", "postcode": "CA15 6NQ", "code": "MRY"}, {"name": "Matlock", "postcode": "DE4 3NA", "code": "MAT"}, {"name": "Matlock Bath", "postcode": "DE4 3NT", "code": "MTB"}, {"name": "Mauldeth Road", "postcode": "M14 6SE", "code": "MAU"}, {"name": "Maxwell Park", "postcode": "G41 4LG", "code": "MAX"}, {"name": "Maybole", "postcode": "KA19 8AF", "code": "MAY"}, {"name": "Maze Hill", "postcode": "SE10 9XR", "code": "MZH"}, {"name": "Meadowhall", "postcode": "S4 7YU", "code": "MHS"}, {"name": "Meldreth", "postcode": "SG8 6JU", "code": "MEL"}, {"name": "Melksham", "postcode": "SN12 8DB", "code": "MKM"}, {"name": "Melton (Suffolk)", "postcode": "IP12 1LT", "code": "MES"}, {"name": "Melton Mowbray", "postcode": "LE13 1AW", "code": "MMO"}, {"name": "Menheniot", "postcode": "PL14 3UF", "code": "MEN"}, {"name": "Menston", "postcode": "LS29 6QG", "code": "MNN"}, {"name": "Meols", "postcode": "CH47 8XZ", "code": "MEO"}, {"name": "Meols Cop", "postcode": "PR9 7DD", "code": "MEC"}, {"name": "Meopham", "postcode": "DA13 0LX", "code": "MEP"}, {"name": "Merryton", "postcode": "", "code": "MEY"}, {"name": "Merstham", "postcode": "RH1 3AP", "code": "MHM"}, {"name": "Merthyr Tydfil", "postcode": "CF47 8DH", "code": "MER"}, {"name": "Merthyr Vale", "postcode": "CF48 4TE", "code": "MEV"}, {"name": "Metheringham", "postcode": "LN4 3HD", "code": "MGM"}, {"name": "Metro Centre (Gateshead)", "postcode": "NE11 9XG", "code": "MCE"}, {"name": "Mexborough", "postcode": "S64 9AQ", "code": "MEX"}, {"name": "Micheldever", "postcode": "SO21 3AW", "code": "MIC"}, {"name": "Micklefield", "postcode": "LS25 4DQ", "code": "MIK"}, {"name": "Middlesbrough", "postcode": "TS1 1DR", "code": "MBR"}, {"name": "Middlewood", "postcode": "SK12 1UA", "code": "MDL"}, {"name": "Midgham", "postcode": "RG7 5SJ", "code": "MDG"}, {"name": "Milford (Surrey)", "postcode": "GU8 5AD", "code": "MLF"}, {"name": "Milford Haven", "postcode": "SA73 3AU", "code": "MFH"}, {"name": "Mill Hill (Lancashire)", "postcode": "BB2 4BY", "code": "MLH"}, {"name": "Mill Hill Broadway", "postcode": "NW7 2JU", "code": "MIL"}, {"name": "Millbrook (Bedfordshire)", "postcode": "MK45 2JH", "code": "MLB"}, {"name": "Millbrook (Hampshire)", "postcode": "SO15 3SE", "code": "MBK"}, {"name": "Milliken Park", "postcode": "PA10 2DA", "code": "MIN"}, {"name": "Millom", "postcode": "LA18 5AA", "code": "MLM"}, {"name": "Mills Hill (Manchester)", "postcode": "M24 2EH", "code": "MIH"}, {"name": "Milngavie", "postcode": "G62 6NB", "code": "MLN"}, {"name": "Milnrow", "postcode": "OL16 4HD", "code": "MLR"}, {"name": "Milton Keynes Central", "postcode": "MK9 1DB", "code": "MKC"}, {"name": "Minffordd", "postcode": "LL48 6HF", "code": "MFF"}, {"name": "Minster", "postcode": "CT12 4BW", "code": "MSR"}, {"name": "Mirfield", "postcode": "WF14 8PT", "code": "MIR"}, {"name": "Mistley", "postcode": "CO11 1HG", "code": "MIS"}, {"name": "Mitcham Junction", "postcode": "CR4 4HN", "code": "MIJ"}, {"name": "Mobberley", "postcode": "WA16 7QJ", "code": "MOB"}, {"name": "Monifieth", "postcode": "DD5 4NG", "code": "MON"}, {"name": "Monks Risborough", "postcode": "HP27 9JQ", "code": "MRS"}, {"name": "Montpelier", "postcode": "BS6 5HA", "code": "MTP"}, {"name": "Montrose", "postcode": "DD10 8DE", "code": "MTS"}, {"name": "Moorfields", "postcode": "L2 2BL", "code": "MRF"}, {"name": "Moorgate", "postcode": "Map", "code": "MOG"}, {"name": "Moorside", "postcode": "M27 9RJ", "code": "MSD"}, {"name": "Moorthorpe", "postcode": "WF9 3AT", "code": "MRP"}, {"name": "Morar", "postcode": "PH40 4PB", "code": "MRR"}, {"name": "Morchard Road", "postcode": "EX17 5LR", "code": "MRD"}, {"name": "Morden South", "postcode": "SM4 5HA", "code": "MDS"}, {"name": "Morecambe", "postcode": "LA4 4DW", "code": "MCM"}, {"name": "Moreton (Dorset)", "postcode": "DT2 8BD", "code": "MTN"}, {"name": "Moreton (Merseyside)", "postcode": "CH46 6AA", "code": "MRT"}, {"name": "Moreton-in-Marsh", "postcode": "GL56 0JR", "code": "MIM"}, {"name": "Morfa Mawddach", "postcode": "LL39 1BQ", "code": "MFA"}, {"name": "Morley", "postcode": "LS27 8LJ", "code": "MLY"}, {"name": "Morpeth", "postcode": "NE61 2SW", "code": "MPT"}, {"name": "Mortimer", "postcode": "RG7 3NY", "code": "MOR"}, {"name": "Mortlake", "postcode": "SW14 8LL", "code": "MTL"}, {"name": "Moses Gate", "postcode": "BL3 2QH", "code": "MSS"}, {"name": "Moss Side", "postcode": "FY8 4NB", "code": "MOS"}, {"name": "Mossley (Manchester)", "postcode": "OL5 0AB", "code": "MSL"}, {"name": "Mossley Hill", "postcode": "L18 8EE", "code": "MSH"}, {"name": "Mosspark", "postcode": "G52 3EX", "code": "MPK"}, {"name": "Moston", "postcode": "M40 5AA", "code": "MSO"}, {"name": "Motherwell", "postcode": "ML1 3JA", "code": "MTH"}, {"name": "Motspur Park", "postcode": "KT3 6QS", "code": "MOT"}, {"name": "Mottingham", "postcode": "SE9 4EN", "code": "MTG"}, {"name": "Mouldsworth", "postcode": "CH3 8AJ", "code": "MLD"}, {"name": "Moulsecoomb", "postcode": "BN2 4GP", "code": "MCB"}, {"name": "Mount Florida", "postcode": "G42 9DN", "code": "MFL"}, {"name": "Mount Vernon", "postcode": "G32 9RD", "code": "MTV"}, {"name": "Mountain Ash", "postcode": "CF45 3HD", "code": "MTA"}, {"name": "Muir of Ord", "postcode": "IV6 7TJ", "code": "MOO"}, {"name": "Muirend", "postcode": "G44 3ES", "code": "MUI"}, {"name": "Musselburgh", "postcode": "EH21 6TR", "code": "MUB"}, {"name": "Mytholmroyd", "postcode": "HX7 5DU", "code": "MYT"}, {"name": "Macclesfield", "postcode": "SK10 1JD", "code": "MAC"}, {"name": "Machynlleth", "postcode": "SY20 8TG", "code": "MCN"}, {"name": "Maesteg", "postcode": "CF34 9BN", "code": "MST"}, {"name": "Maesteg (Ewenny Road)", "postcode": "CF34 9TS", "code": "MEW"}, {"name": "Maghull", "postcode": "L31 3DE", "code": "MAG"}, {"name": "Maiden Newton", "postcode": "DT2 0BP", "code": "MDN"}, {"name": "Maidenhead", "postcode": "SL6 1EW", "code": "MAI"}, {"name": "Maidstone Barracks", "postcode": "ME16 0SQ", "code": "MDB"}, {"name": "Maidstone East", "postcode": "ME14 1QL", "code": "MDE"}, {"name": "Maidstone West", "postcode": "ME16 8RJ", "code": "MDW"}, {"name": "Malden Manor", "postcode": "KT3 5PN", "code": "MAL"}, {"name": "Mallaig", "postcode": "PH41 4QA", "code": "MLG"}, {"name": "Malton", "postcode": "YO17 9RD", "code": "MLT"}, {"name": "Malvern Link", "postcode": "WR14 1JE", "code": "MVL"}, {"name": "Manchester Airport", "postcode": "M90 3RR", "code": "MIA"}, {"name": "Manchester Oxford Road", "postcode": "M1 6FU", "code": "MCO"}, {"name": "Manchester Piccadilly", "postcode": "M1 2PZ", "code": "MAN"}, {"name": "Manchester United Football Ground", "postcode": "M16 OQG", "code": "MUF"}, {"name": "Manchester Victoria", "postcode": "M3 1AR", "code": "MCV"}, {"name": "Manea", "postcode": "PE15 0HQ", "code": "MNE"}, {"name": "Manningtree", "postcode": "CO11 2LH", "code": "MNG"}, {"name": "Manor Park", "postcode": "E12 5DA", "code": "MNP"}, {"name": "Manor Road", "postcode": "CH47 3DS", "code": "MNR"}, {"name": "Manorbier", "postcode": "SA70 7SN", "code": "MRB"}, {"name": "Manors", "postcode": "NE1 2HQ", "code": "MAS"}, {"name": "Mansfield", "postcode": "NG18 1LP", "code": "MFT"}, {"name": "Mansfield Woodhouse", "postcode": "NG19 9NW", "code": "MSW"}, {"name": "March", "postcode": "PE15 8SL", "code": "MCH"}, {"name": "Marden (Kent)", "postcode": "TN12 9HS", "code": "MRN"}, {"name": "Margate", "postcode": "CT9 5AD", "code": "MAR"}, {"name": "Market Harborough", "postcode": "LE16 7QE", "code": "MHR"}, {"name": "Market Rasen", "postcode": "LN8 3AW", "code": "MKR"}, {"name": "Markinch", "postcode": "KY7 6AQ", "code": "MNC"}, {"name": "Marks Tey", "postcode": "CO6 1ED", "code": "MKT"}, {"name": "Marlow", "postcode": "SL7 1NT", "code": "MLW"}, {"name": "Marple", "postcode": "SK6 7DA", "code": "MPL"}, {"name": "Marsden (Yorkshire)", "postcode": "HD7 6AX", "code": "MSN"}, {"name": "Marske", "postcode": "TS11 6JH", "code": "MSK"}, {"name": "Marston Green", "postcode": "B37 7AF", "code": "MGN"}, {"name": "Martin Mill", "postcode": "CT15 5LD", "code": "MTM"}, {"name": "Martins Heron", "postcode": "RG12 9YY", "code": "MAO"}, {"name": "Marton", "postcode": "TS3 0SR", "code": "MTO"}, {"name": "Maryhill", "postcode": "G20 0BT", "code": "MYH"}, {"name": "Maryland", "postcode": "E15 1EY", "code": "MYL"}, {"name": "Marylebone (London)", "postcode": "NW1 6JR", "code": "MYB"}, {"name": "Maryport", "postcode": "CA15 6NQ", "code": "MRY"}, {"name": "Matlock", "postcode": "DE4 3NA", "code": "MAT"}, {"name": "Matlock Bath", "postcode": "DE4 3NT", "code": "MTB"}, {"name": "Mauldeth Road", "postcode": "M14 6SE", "code": "MAU"}, {"name": "Maxwell Park", "postcode": "G41 4LG", "code": "MAX"}, {"name": "Maybole", "postcode": "KA19 8AF", "code": "MAY"}, {"name": "Maze Hill", "postcode": "SE10 9XR", "code": "MZH"}, {"name": "Meadowhall", "postcode": "S4 7YU", "code": "MHS"}, {"name": "Meldreth", "postcode": "SG8 6JU", "code": "MEL"}, {"name": "Melksham", "postcode": "SN12 8DB", "code": "MKM"}, {"name": "Melton (Suffolk)", "postcode": "IP12 1LT", "code": "MES"}, {"name": "Melton Mowbray", "postcode": "LE13 1AW", "code": "MMO"}, {"name": "Menheniot", "postcode": "PL14 3UF", "code": "MEN"}, {"name": "Menston", "postcode": "LS29 6QG", "code": "MNN"}, {"name": "Meols", "postcode": "CH47 8XZ", "code": "MEO"}, {"name": "Meols Cop", "postcode": "PR9 7DD", "code": "MEC"}, {"name": "Meopham", "postcode": "DA13 0LX", "code": "MEP"}, {"name": "Merstham", "postcode": "RH1 3AP", "code": "MHM"}, {"name": "Merthyr Tydfil", "postcode": "CF47 8DH", "code": "MER"}, {"name": "Merthyr Vale", "postcode": "CF48 4TE", "code": "MEV"}, {"name": "Metheringham", "postcode": "LN4 3HD", "code": "MGM"}, {"name": "Metro Centre (Gateshead)", "postcode": "NE11 9XG", "code": "MCE"}, {"name": "Mexborough", "postcode": "S64 9AQ", "code": "MEX"}, {"name": "Micheldever", "postcode": "SO21 3AW", "code": "MIC"}, {"name": "Micklefield", "postcode": "LS25 4DQ", "code": "MIK"}, {"name": "Middlesbrough", "postcode": "TS1 1DR", "code": "MBR"}, {"name": "Middlewood", "postcode": "SK12 1UA", "code": "MDL"}, {"name": "Midgham", "postcode": "RG7 5SJ", "code": "MDG"}, {"name": "Milford (Surrey)", "postcode": "GU8 5AD", "code": "MLF"}, {"name": "Milford Haven", "postcode": "SA73 3AU", "code": "MFH"}, {"name": "Mill Hill (Lancashire)", "postcode": "BB2 4BY", "code": "MLH"}, {"name": "Mill Hill Broadway", "postcode": "NW7 2JU", "code": "MIL"}, {"name": "Millbrook (Bedfordshire)", "postcode": "MK45 2JH", "code": "MLB"}, {"name": "Millbrook (Hampshire)", "postcode": "SO15 3SE", "code": "MBK"}, {"name": "Milliken Park", "postcode": "PA10 2DA", "code": "MIN"}, {"name": "Millom", "postcode": "LA18 5AA", "code": "MLM"}, {"name": "Mills Hill (Manchester)", "postcode": "M24 2EH", "code": "MIH"}, {"name": "Milngavie", "postcode": "G62 6NB", "code": "MLN"}, {"name": "Milnrow", "postcode": "OL16 4HD", "code": "MLR"}, {"name": "Milton Keynes Central", "postcode": "MK9 1DB", "code": "MKC"}, {"name": "Minffordd", "postcode": "LL48 6HF", "code": "MFF"}, {"name": "Minster", "postcode": "CT12 4BW", "code": "MSR"}, {"name": "Mirfield", "postcode": "WF14 8PT", "code": "MIR"}, {"name": "Mistley", "postcode": "CO11 1HG", "code": "MIS"}, {"name": "Mitcham Eastfields", "postcode": "", "code": "MTC"}, {"name": "Mitcham Junction", "postcode": "CR4 4HN", "code": "MIJ"}, {"name": "Mobberley", "postcode": "WA16 7QJ", "code": "MOB"}, {"name": "Monifieth", "postcode": "DD5 4NG", "code": "MON"}, {"name": "Monks Risborough", "postcode": "HP27 9JQ", "code": "MRS"}, {"name": "Montpelier", "postcode": "BS6 5HA", "code": "MTP"}, {"name": "Montrose", "postcode": "DD10 8DE", "code": "MTS"}, {"name": "Moorfields", "postcode": "L2 2BL", "code": "MRF"}, {"name": "Moorgate", "postcode": "Map", "code": "MOG"}, {"name": "Moorside", "postcode": "M27 9RJ", "code": "MSD"}, {"name": "Moorthorpe", "postcode": "WF9 3AT", "code": "MRP"}, {"name": "Morar", "postcode": "PH40 4PB", "code": "MRR"}, {"name": "Morchard Road", "postcode": "EX17 5LR", "code": "MRD"}, {"name": "Morden South", "postcode": "SM4 5HA", "code": "MDS"}, {"name": "Morecambe", "postcode": "LA4 4DW", "code": "MCM"}, {"name": "Moreton (Dorset)", "postcode": "DT2 8BD", "code": "MTN"}, {"name": "Moreton (Merseyside)", "postcode": "CH46 6AA", "code": "MRT"}, {"name": "Moreton-in-Marsh", "postcode": "GL56 0JR", "code": "MIM"}, {"name": "Morfa Mawddach", "postcode": "LL39 1BQ", "code": "MFA"}, {"name": "Morley", "postcode": "LS27 8LJ", "code": "MLY"}, {"name": "Morpeth", "postcode": "NE61 2SW", "code": "MPT"}, {"name": "Mortimer", "postcode": "RG7 3NY", "code": "MOR"}, {"name": "Mortlake", "postcode": "SW14 8LL", "code": "MTL"}, {"name": "Moses Gate", "postcode": "BL3 2QH", "code": "MSS"}, {"name": "Moss Side", "postcode": "FY8 4NB", "code": "MOS"}, {"name": "Mossley (Manchester)", "postcode": "OL5 0AB", "code": "MSL"}, {"name": "Mossley Hill", "postcode": "L18 8EE", "code": "MSH"}, {"name": "Mosspark", "postcode": "G52 3EX", "code": "MPK"}, {"name": "Moston", "postcode": "M40 5AA", "code": "MSO"}, {"name": "Motherwell", "postcode": "ML1 3JA", "code": "MTH"}, {"name": "Motspur Park", "postcode": "KT3 6QS", "code": "MOT"}, {"name": "Mottingham", "postcode": "SE9 4EN", "code": "MTG"}, {"name": "Mottisfont & Dunbridge", "postcode": "SO51 0RA", "code": "DBG"}, {"name": "Mouldsworth", "postcode": "CH3 8AJ", "code": "MLD"}, {"name": "Moulsecoomb", "postcode": "BN2 4GP", "code": "MCB"}, {"name": "Mount Florida", "postcode": "G42 9DN", "code": "MFL"}, {"name": "Mount Vernon", "postcode": "G32 9RD", "code": "MTV"}, {"name": "Mountain Ash", "postcode": "CF45 3HD", "code": "MTA"}, {"name": "Muir of Ord", "postcode": "IV6 7TJ", "code": "MOO"}, {"name": "Muirend", "postcode": "G44 3ES", "code": "MUI"}, {"name": "Musselburgh", "postcode": "EH21 6TR", "code": "MUB"}, {"name": "Mytholmroyd", "postcode": "HX7 5DU", "code": "MYT"}, {"name": "Nafferton", "postcode": "YO25 4LU", "code": "NFN"}, {"name": "Nailsea and Backwell", "postcode": "BS48 3LE", "code": "NLS"}, {"name": "Nairn", "postcode": "IV12 4QP", "code": "NRN"}, {"name": "Nantwich", "postcode": "CW5 7BG", "code": "NAN"}, {"name": "Narberth", "postcode": "SA67 8TY", "code": "NAR"}, {"name": "Narborough", "postcode": "LE9 5HR", "code": "NBR"}, {"name": "Navigation Road", "postcode": "WA15 6RJ", "code": "NVR"}, {"name": "Neath", "postcode": "SA11 1BY", "code": "NTH"}, {"name": "Needham Market", "postcode": "IP6 8AS", "code": "NMT"}, {"name": "Neilston", "postcode": "G78 3DY", "code": "NEI"}, {"name": "Nelson", "postcode": "BB9 9AW", "code": "NEL"}, {"name": "Neston", "postcode": "CH64 3RG", "code": "NES"}, {"name": "Netherfield", "postcode": "NG4 2FP", "code": "NET"}, {"name": "Nethertown", "postcode": "CA22 2UQ", "code": "NRT"}, {"name": "Netley", "postcode": "SO31 5AX", "code": "NTL"}, {"name": "New Barnet", "postcode": "EN5 1LW", "code": "NBA"}, {"name": "New Beckenham", "postcode": "BR3 1QJ", "code": "NBC"}, {"name": "New Brighton", "postcode": "CH45 2NY", "code": "NBN"}, {"name": "New Clee", "postcode": "DN31 3AE", "code": "NCE"}, {"name": "New Cross", "postcode": "SE14 6LL", "code": "NWX"}, {"name": "New Cross Gate", "postcode": "SE14 6BL", "code": "NXG"}, {"name": "New Cumnock", "postcode": "KA18 4DF", "code": "NCK"}, {"name": "New Eltham", "postcode": "SE9 2AA", "code": "NEH"}, {"name": "New Holland", "postcode": "DN19 7RU", "code": "NHL"}, {"name": "New Hythe", "postcode": "ME20 6XS", "code": "NHE"}, {"name": "New Lane", "postcode": "L40 0RP", "code": "NLN"}, {"name": "New Malden", "postcode": "KT3 4JQ", "code": "NEM"}, {"name": "New Mills Central", "postcode": "SK22 3FB", "code": "NMC"}, {"name": "New Mills Newtown", "postcode": "SK22 3JW", "code": "NMN"}, {"name": "New Milton", "postcode": "BH25 6JS", "code": "NWM"}, {"name": "New Pudsey", "postcode": "LS28 6QG", "code": "NQC"}, {"name": "New Southgate", "postcode": "N11 1QH", "code": "NSG"}, {"name": "Newark Castle", "postcode": "NG24 1BW", "code": "NCT"}, {"name": "Newark North Gate", "postcode": "NG24 1LP", "code": "NNG"}, {"name": "Newbridge", "postcode": "NP11 5FH", "code": "NBE"}, {"name": "Newbury", "postcode": "RG14 7LP", "code": "NBY"}, {"name": "Newbury Racecourse", "postcode": "RG14 5UT", "code": "NRC"}, {"name": "Newcastle", "postcode": "NE1 5DL", "code": "NCL"}, {"name": "Newcourt", "postcode": "", "code": "NCO"}, {"name": "Newcraighall", "postcode": "EH21 8SG", "code": "NEW"}, {"name": "Newhaven Harbour", "postcode": "BN9 0BB", "code": "NVH"}, {"name": "Newhaven Town", "postcode": "BN9 0AS", "code": "NVN"}, {"name": "Newhey", "postcode": "OL16 3RW", "code": "NHY"}, {"name": "Newington", "postcode": "ME9 7LQ", "code": "NGT"}, {"name": "Newmarket", "postcode": "CB8 9WT", "code": "NMK"}, {"name": "Newport (Essex)", "postcode": "CB11 3RN", "code": "NWE"}, {"name": "Newport (South Wales)", "postcode": "NP20 4AA", "code": "NWP"}, {"name": "Newquay", "postcode": "TR7 1SE", "code": "NQY"}, {"name": "Newstead", "postcode": "NG17 9AQ", "code": "NSD"}, {"name": "Newton (Lanark)", "postcode": "ML12 6HT", "code": "NTN"}, {"name": "Newton Abbot", "postcode": "TQ12 2BT", "code": "NTA"}, {"name": "Newton Aycliffe", "postcode": "DL5 7BD", "code": "NAY"}, {"name": "Newton for Hyde", "postcode": "SK14 4AE", "code": "NWN"}, {"name": "Newton-on-Ayr", "postcode": "KA8 8LL", "code": "NOA"}, {"name": "Newton St Cyres", "postcode": "EX5 5AS", "code": "NTC"}, {"name": "Newton-le-Willows", "postcode": "WA12 9SF", "code": "NLW"}, {"name": "Newtonmore", "postcode": "PH20 1AL", "code": "NWR"}, {"name": "Newtown (Powys)", "postcode": "SY16 1BE", "code": "NWT"}, {"name": "Ninian Park", "postcode": "CF11 8AH", "code": "NNP"}, {"name": "Nitshill", "postcode": "G53 7NX", "code": "NIT"}, {"name": "Norbiton", "postcode": "KT1 3QT", "code": "NBT"}, {"name": "Norbury", "postcode": "SW16 4BU", "code": "NRB"}, {"name": "Normans Bay", "postcode": "BN24 6PR", "code": "NSB"}, {"name": "Normanton", "postcode": "WF6 2BP", "code": "NOR"}, {"name": "North Berwick", "postcode": "EH39 4DA", "code": "NBW"}, {"name": "North Camp", "postcode": "GU12 5QA", "code": "NCM"}, {"name": "North Dulwich", "postcode": "SE22 8TB", "code": "NDL"}, {"name": "North Fambridge", "postcode": "CM3 6NE", "code": "NFA"}, {"name": "North Llanrwst", "postcode": "LL26 0EG", "code": "NLR"}, {"name": "North Queensferry", "postcode": "KY11 1JH", "code": "NQU"}, {"name": "North Road", "postcode": "DL3 6ST", "code": "NRD"}, {"name": "North Sheen", "postcode": "TW9 4QQ", "code": "NSH"}, {"name": "North Walsham", "postcode": "NR28 0DT", "code": "NWA"}, {"name": "North Wembley", "postcode": "HA9 7NT", "code": "NWB"}, {"name": "North Woolwich", "postcode": "E16 2JD", "code": "NWW"}, {"name": "Northallerton", "postcode": "DL7 8DE", "code": "NTR"}, {"name": "Northampton", "postcode": "NN1 1SP", "code": "NMP"}, {"name": "Northfield", "postcode": "B31 3UB", "code": "NFD"}, {"name": "Northfleet", "postcode": "DA11 9DY", "code": "NFL"}, {"name": "Northolt Park", "postcode": "UB5 4PB", "code": "NLT"}, {"name": "Northumberland Park", "postcode": "N17 0UQ", "code": "NUM"}, {"name": "Northwich", "postcode": "CW9 7FF", "code": "NWI"}, {"name": "Norton Bridge", "postcode": "ST15 0NY", "code": "NTB"}, {"name": "Norwich", "postcode": "NR1 1EF", "code": "NRW"}, {"name": "Norwood Junction", "postcode": "SE25 5AQ", "code": "NWD"}, {"name": "Nottingham", "postcode": "NG2 3AQ", "code": "NOT"}, {"name": "Nuneaton", "postcode": "CV11 4BU", "code": "NUN"}, {"name": "Nunhead", "postcode": "SE15 3XD", "code": "NHD"}, {"name": "Nunthorpe", "postcode": "TS7 0BL", "code": "NNT"}, {"name": "Nutbourne", "postcode": "PO18 8SJ", "code": "NUT"}, {"name": "Nutfield", "postcode": "RH1 5RR", "code": "NUF"}, {"name": "Oakengates", "postcode": "TF2 6DT", "code": "OKN"}, {"name": "Oakham", "postcode": "LE15 6RE", "code": "OKM"}, {"name": "Oakleigh Park", "postcode": "EN4 8DR", "code": "OKL"}, {"name": "Oban", "postcode": "PA34 4NU", "code": "OBN"}, {"name": "Ockendon", "postcode": "RM15 6PD", "code": "OCK"}, {"name": "Ockley", "postcode": "RH5 5HT", "code": "OLY"}, {"name": "Okehampton", "postcode": "EX20 1EJ", "code": "OKE"}, {"name": "Old Hill", "postcode": "B64 6PL", "code": "OHL"}, {"name": "Old Roan", "postcode": "L10 3JG", "code": "ORN"}, {"name": "Old Street", "postcode": "EC1V 9NR", "code": "OLD"}, {"name": "Oldfield Park", "postcode": "BA2 3RN", "code": "OLF"}, {"name": "Olton", "postcode": "B92 8BS", "code": "OLT"}, {"name": "Ore", "postcode": "TN34 3SN", "code": "ORE"}, {"name": "Ormskirk", "postcode": "L39 2YN", "code": "OMS"}, {"name": "Orpington", "postcode": "BR6 0SX", "code": "ORP"}, {"name": "Orrell", "postcode": "WN5 8TH", "code": "ORR"}, {"name": "Orrell Park", "postcode": "L9 8BU", "code": "OPK"}, {"name": "Otford", "postcode": "TN14 5QY", "code": "OTF"}, {"name": "Oulton Broad North", "postcode": "NR32 3LJ", "code": "OUN"}, {"name": "Oulton Broad South", "postcode": "NR33 8QX", "code": "OUS"}, {"name": "Outwood", "postcode": "WF3 3HR", "code": "OUT"}, {"name": "Overpool", "postcode": "CH66 3NP", "code": "OVE"}, {"name": "Overton", "postcode": "RG25 3JJ", "code": "OVR"}, {"name": "Oxenholme Lake District", "postcode": "LA9 7HF", "code": "OXN"}, {"name": "Oxford", "postcode": "OX1 1HS", "code": "OXF"}, {"name": "Oxford Road (Manchester)", "postcode": "M1 6FU", "code": "MCO"}, {"name": "Oxshott", "postcode": "KT22 0TA", "code": "OXS"}, {"name": "Paddington (London)", "postcode": "W2 6HT", "code": "PAD"}, {"name": "Paddock Wood", "postcode": "TN12 6ER", "code": "PDW"}, {"name": "Padgate", "postcode": "WA2 0QT", "code": "PDG"}, {"name": "Paignton", "postcode": "TQ4 5EF", "code": "PGN"}, {"name": "Paisley Canal", "postcode": "PA1 1YU", "code": "PCN"}, {"name": "Paisley Gilmour Street", "postcode": "PA1 1BS", "code": "PYG"}, {"name": "Paisley St James", "postcode": "PA3 1RQ", "code": "PYJ"}, {"name": "Palmers Green", "postcode": "N13 4QU", "code": "PAL"}, {"name": "Pangbourne", "postcode": "RG8 7DY", "code": "PAN"}, {"name": "Pannal", "postcode": "HG3 1JL", "code": "PNL"}, {"name": "Pantyffynnon", "postcode": "SA18 3HN", "code": "PTF"}, {"name": "Par", "postcode": "PL24 2LT", "code": "PAR"}, {"name": "Parbold", "postcode": "WN8 7DD", "code": "PBL"}, {"name": "Park Street", "postcode": "AL2 2NZ", "code": "PKT"}, {"name": "Parkstone", "postcode": "BH14 8TE", "code": "PKS"}, {"name": "Parson Street", "postcode": "BS3 5NG", "code": "PSN"}, {"name": "Partick", "postcode": "G11 6DB", "code": "PTK"}, {"name": "Parton", "postcode": "CA28 6NZ", "code": "PRN"}, {"name": "Patchway", "postcode": "BS34 6HW", "code": "PWY"}, {"name": "Patricroft", "postcode": "M30 0UR", "code": "PAT"}, {"name": "Patterton", "postcode": "G77 6NR", "code": "PTT"}, {"name": "Peartree", "postcode": "DE23 8WP", "code": "PEA"}, {"name": "Peckham Rye", "postcode": "SE15 4QL", "code": "PMR"}, {"name": "Pegswood", "postcode": "NE61 6SJ", "code": "PEG"}, {"name": "Pemberton", "postcode": "WN5 8DE", "code": "PEM"}, {"name": "Pembrey and Burry Port", "postcode": "SA16 0LP", "code": "PBY"}, {"name": "Pembroke", "postcode": "SA71 4AD", "code": "PMB"}, {"name": "Pembroke Dock", "postcode": "SA72 6HJ", "code": "PMD"}, {"name": "Pen-y-Bont", "postcode": "LD1 6RE", "code": "PNY"}, {"name": "Penally", "postcode": "SA70 7PS", "code": "PNA"}, {"name": "Penarth", "postcode": "CF64 3EB", "code": "PEN"}, {"name": "Pencoed", "postcode": "CF35 5NN", "code": "PCD"}, {"name": "Pengam", "postcode": "NP12 3XX", "code": "PGM"}, {"name": "Penge East", "postcode": "SE26 5HT", "code": "PNE"}, {"name": "Penge West", "postcode": "SE20 8RZ", "code": "PNW"}, {"name": "Penhelig", "postcode": "LL35 0PS", "code": "PHG"}, {"name": "Penistone", "postcode": "S36 6HN", "code": "PNS"}, {"name": "Penkridge", "postcode": "ST19 5AJ", "code": "PKG"}, {"name": "Penmaenmawr", "postcode": "LL34 6AT", "code": "PMW"}, {"name": "Penmere", "postcode": "TR11 4AE", "code": "PNM"}, {"name": "Penrhiwceiber", "postcode": "CF45 3SS", "code": "PER"}, {"name": "Penrhyndeudraeth", "postcode": "LL48 6LL", "code": "PRH"}, {"name": "Penrith", "postcode": "CA11 7JQ", "code": "PNR"}, {"name": "Penryn Cornwall", "postcode": "TR10 8QW", "code": "PYN"}, {"name": "Pensarn", "postcode": "LL45 2HU", "code": "PES"}, {"name": "Penshurst", "postcode": "TN11 8JJ", "code": "PHR"}, {"name": "Pentre-bach", "postcode": "CF48 4BD", "code": "PTB"}, {"name": "Penychain", "postcode": "LL53 6HJ", "code": "PNC"}, {"name": "Penyffordd", "postcode": "CH4 0JT", "code": "PNF"}, {"name": "Penzance", "postcode": "TR18 2DB", "code": "PNZ"}, {"name": "Perranwell", "postcode": "TR3 7LF", "code": "PRW"}, {"name": "Perry Barr", "postcode": "B20 3JE", "code": "PRY"}, {"name": "Pershore", "postcode": "WR10 2DJ", "code": "PSH"}, {"name": "Perth", "postcode": "PH2 0DR", "code": "PTH"}, {"name": "Peterborough", "postcode": "PE1 1QL", "code": "PBO"}, {"name": "Petersfield", "postcode": "GU32 3EE", "code": "PTR"}, {"name": "Petts Wood", "postcode": "BR5 1DH", "code": "PET"}, {"name": "Pevensey and Westham", "postcode": "BN24 5NB", "code": "PEV"}, {"name": "Pevensey Bay", "postcode": "BN24 6AA", "code": "PEB"}, {"name": "Pewsey", "postcode": "SN9 5EL", "code": "PEW"}, {"name": "Piccadilly (Manchester)", "postcode": "M1 2PZ", "code": "MAN"}, {"name": "Pilning", "postcode": "BS35 4JH", "code": "PIL"}, {"name": "Pinhoe", "postcode": "EX1 3SY", "code": "PIN"}, {"name": "Pitlochry", "postcode": "PH16 5BN", "code": "PIT"}, {"name": "Pitsea", "postcode": "SS13 3JX", "code": "PSE"}, {"name": "Pleasington", "postcode": "BB2 5JQ", "code": "PLS"}, {"name": "Plockton", "postcode": "IV52 8TF", "code": "PLK"}, {"name": "Pluckley", "postcode": "TN27 0RT", "code": "PLC"}, {"name": "Plumley", "postcode": "WA16 9RX", "code": "PLM"}, {"name": "Plumpton", "postcode": "BN7 3BW", "code": "PMP"}, {"name": "Plumstead", "postcode": "SE18 7EA", "code": "PLU"}, {"name": "Plymouth", "postcode": "PL4 6AB", "code": "PLY"}, {"name": "Pokesdown", "postcode": "BH7 6JU", "code": "POK"}, {"name": "Polegate", "postcode": "BN26 5AG", "code": "PLG"}, {"name": "Polesworth", "postcode": "B78 1BJ", "code": "PSW"}, {"name": "Pollokshaws East", "postcode": "G43 1UB", "code": "PWE"}, {"name": "Pollokshaws West", "postcode": "G43 1NZ", "code": "PWW"}, {"name": "Pollokshields East", "postcode": "G41 2SX", "code": "PLE"}, {"name": "Pollokshields West", "postcode": "G41 4LW", "code": "PLW"}, {"name": "Polmont", "postcode": "FK2 0UF", "code": "PMT"}, {"name": "Polsloe Bridge", "postcode": "EX1 2RY", "code": "POL"}, {"name": "Ponders End", "postcode": "EN3 4QE", "code": "PON"}, {"name": "Pont-y-Pant", "postcode": "LL25 0PJ", "code": "PYP"}, {"name": "Pontarddulais", "postcode": "SA4 1TL", "code": "PTD"}, {"name": "Pontefract Baghill", "postcode": "WF8 1RB", "code": "PFR"}, {"name": "Pontefract Monkhill", "postcode": "WF8 1JA", "code": "PFM"}, {"name": "Pontefract Tanshelf", "postcode": "WF8 4PJ", "code": "POT"}, {"name": "Pontlottyn", "postcode": "CF81 9QX", "code": "PLT"}, {"name": "Pontyclun", "postcode": "CF72 9ES", "code": "PYC"}, {"name": "Pontypool and New Inn", "postcode": "NP4 0RE", "code": "PPL"}, {"name": "Pontypridd", "postcode": "CF37 1LJ", "code": "PPD"}, {"name": "Poole", "postcode": "BH15 1YL", "code": "POO"}, {"name": "Poppleton", "postcode": "YO26 6QA", "code": "POP"}, {"name": "Port Glasgow", "postcode": "PA14 5JN", "code": "PTG"}, {"name": "Port Sunlight", "postcode": "CH62 4XB", "code": "PSL"}, {"name": "Port Talbot Parkway", "postcode": "SA13 1SA", "code": "PTA"}, {"name": "Portchester", "postcode": "PO16 8PE", "code": "PTC"}, {"name": "Porth", "postcode": "CF39 9NY", "code": "POR"}, {"name": "Porthmadog", "postcode": "LL49 9ND", "code": "PTM"}, {"name": "Portlethen", "postcode": "AB12 4PT", "code": "PLN"}, {"name": "Portslade", "postcode": "BN3 7HD", "code": "PLD"}, {"name": "Portsmouth & Southsea", "postcode": "PO1 1EQ", "code": "PMS"}, {"name": "Portsmouth Arms", "postcode": "EX37 9ND", "code": "PMA"}, {"name": "Portsmouth Harbour", "postcode": "PO1 3EU", "code": "PMH"}, {"name": "Possilpark and Parkhouse", "postcode": "G22 6LW", "code": "PPK"}, {"name": "Potters Bar", "postcode": "EN6 1AU", "code": "PBR"}, {"name": "Poulton-le-Fylde", "postcode": "FY6 7BD", "code": "PFY"}, {"name": "Poynton", "postcode": "SK12 1GA", "code": "PYT"}, {"name": "Prees", "postcode": "SY13 2DW", "code": "PRS"}, {"name": "Prescot", "postcode": "L34 5SY", "code": "PSC"}, {"name": "Prestatyn", "postcode": "LL19 9AF", "code": "PRT"}, {"name": "Prestbury", "postcode": "SK10 4HT", "code": "PRB"}, {"name": "Preston (Lancs)", "postcode": "PR1 8AP", "code": "PRE"}, {"name": "Preston Park", "postcode": "BN1 6SF", "code": "PRP"}, {"name": "Prestonpans", "postcode": "EH32 9ES", "code": "PST"}, {"name": "Prestwick Town", "postcode": "KA9 1HQ", "code": "PTW"}, {"name": "Priesthill & Darnley", "postcode": "G53 6UL", "code": "PTL"}, {"name": "Princes Risborough", "postcode": "HP27 9DD", "code": "PRR"}, {"name": "Prittlewell", "postcode": "SS2 6LG", "code": "PRL"}, {"name": "Prudhoe", "postcode": "NE42 6NR", "code": "PRU"}, {"name": "Pulborough", "postcode": "RH20 1AX", "code": "PUL"}, {"name": "Purfleet", "postcode": "RM19 1QS", "code": "PFL"}, {"name": "Purley", "postcode": "CR8 2AP", "code": "PUR"}, {"name": "Purley Oaks", "postcode": "CR2 0QA", "code": "PUO"}, {"name": "Putney", "postcode": "SW15 1TE", "code": "PUT"}, {"name": "Pwllheli", "postcode": "LL53 5HL", "code": "PWL"}, {"name": "Pyle", "postcode": "CF33 4NL", "code": "PYL"}, {"name": "Quakers Yard", "postcode": "CF46 5NJ", "code": "QYD"}, {"name": "Queenborough", "postcode": "ME11 5AZ", "code": "QBR"}, {"name": "Queen's Park (Glasgow)", "postcode": "G42 8PH", "code": "QPK"}, {"name": "Queen's Park (London)", "postcode": "NW6 6NL", "code": "QPW"}, {"name": "Queens Road (Peckham)", "postcode": "SE15 2JN", "code": "QRP"}, {"name": "Queenstown Road (Battersea)", "postcode": "SW11 5EZ", "code": "QRB"}, {"name": "Quintrell Downs", "postcode": "TR8 4QG", "code": "QUI"}, {"name": "Radcliffe on Trent", "postcode": "NG12 1BG", "code": "RDF"}, {"name": "Radlett", "postcode": "WD7 7AJ", "code": "RDT"}, {"name": "Radley", "postcode": "OX14 3BJ", "code": "RAD"}, {"name": "Radyr", "postcode": "CF14 2TJ", "code": "RDR"}, {"name": "Rainford", "postcode": "WA11 7JX", "code": "RNF"}, {"name": "Rainham (London)", "postcode": "RM13 9YN", "code": "RNM"}, {"name": "Rainham (Kent)", "postcode": "ME8 7SG", "code": "RAI"}, {"name": "Rainhill", "postcode": "L35 3TY", "code": "RNH"}, {"name": "Ramsgate", "postcode": "CT11 7RE", "code": "RAM"}, {"name": "Ramsgreave and Wilpshire", "postcode": "BB1 9BQ", "code": "RGW"}, {"name": "Rannoch", "postcode": "PH17 2QA", "code": "RAN"}, {"name": "Rauceby", "postcode": "NG34 8PT", "code": "RAU"}, {"name": "Ravenglass for Eskdale", "postcode": "CA18 1SJ", "code": "RAV"}, {"name": "Ravensbourne", "postcode": "BR2 0BX", "code": "RVB"}, {"name": "Ravensthorpe", "postcode": "WF12 9ED", "code": "RVN"}, {"name": "Rawcliffe", "postcode": "DN14 8NQ", "code": "RWC"}, {"name": "Rayleigh", "postcode": "SS6 7HJ", "code": "RLG"}, {"name": "Raynes Park", "postcode": "SW20 8NE", "code": "RAY"}, {"name": "Reading", "postcode": "RG1 1LY", "code": "RDG"}, {"name": "Reading West", "postcode": "RG30 1AS", "code": "RDW"}, {"name": "Rectory Road", "postcode": "N16 7SQ", "code": "REC"}, {"name": "Redbridge", "postcode": "SO15 0LR", "code": "RDB"}, {"name": "Redcar British Steel", "postcode": "TS10 5RE", "code": "RBS"}, {"name": "Redcar Central", "postcode": "TS10 1ER", "code": "RCC"}, {"name": "Redcar East", "postcode": "TS10 3PF", "code": "RCE"}, {"name": "Reddish North", "postcode": "SK5 6PZ", "code": "RDN"}, {"name": "Reddish South", "postcode": "SK5 6TH", "code": "RDS"}, {"name": "Redditch", "postcode": "B97 4RB", "code": "RDC"}, {"name": "Redhill", "postcode": "RH1 1RB", "code": "RDH"}, {"name": "Redland", "postcode": "BS6 6QP", "code": "RDA"}, {"name": "Redruth", "postcode": "TR15 2AB", "code": "RED"}, {"name": "Reedham (Norfolk)", "postcode": "NR13 3EZ", "code": "REE"}, {"name": "Reedham (Surrey)", "postcode": "CR8 4DG", "code": "RHM"}, {"name": "Reigate", "postcode": "RH2 0BD", "code": "REI"}, {"name": "Renton", "postcode": "G82 4ND", "code": "RTN"}, {"name": "Retford", "postcode": "DN22 7TB", "code": "RET"}, {"name": "Rhiwbina", "postcode": "CF14 6EP", "code": "RHI"}, {"name": "Rhoose Cardiff International Airport", "postcode": "CF62 3DB", "code": "RIA"}, {"name": "Rhosneigr", "postcode": "LL64 5QZ", "code": "RHO"}, {"name": "Rhyl", "postcode": "LL18 1AT", "code": "RHL"}, {"name": "Rhymney", "postcode": "NP22 5LW", "code": "RHY"}, {"name": "Ribblehead", "postcode": "LA6 3JF", "code": "RHD"}, {"name": "Rice Lane", "postcode": "L9 3DD", "code": "RIL"}, {"name": "Richmond", "postcode": "TW9 1DL", "code": "RMD"}, {"name": "Rickmansworth", "postcode": "HA1 1BB", "code": "RIC"}, {"name": "Riddlesdown", "postcode": "CR8 1HN", "code": "RDD"}, {"name": "Ridgmont", "postcode": "MK43 0XR", "code": "RID"}, {"name": "Riding Mill", "postcode": "NE44 6EP", "code": "RDM"}, {"name": "Risca and Pontymister", "postcode": "NP11 6BB", "code": "RCA"}, {"name": "Rishton", "postcode": "BB1 4PH", "code": "RIS"}, {"name": "Robertsbridge", "postcode": "TN32 5DJ", "code": "RBR"}, {"name": "Roby", "postcode": "L36 4HU", "code": "ROB"}, {"name": "Rochdale", "postcode": "OL12 8LN", "code": "RCD"}, {"name": "Roche", "postcode": "PL26 8LG", "code": "ROC"}, {"name": "Rochester", "postcode": "ME1 1PA", "code": "RTR"}, {"name": "Rochford", "postcode": "SS4 1AU", "code": "RFD"}, {"name": "Rock Ferry", "postcode": "CH42 3YB", "code": "RFY"}, {"name": "Rogart", "postcode": "IV28 3XA", "code": "ROG"}, {"name": "Rogerstone", "postcode": "NP10 9LG", "code": "ROR"}, {"name": "Rolleston", "postcode": "NG25 0SG", "code": "ROL"}, {"name": "Roman Bridge", "postcode": "LL25 0JG", "code": "RMB"}, {"name": "Romford", "postcode": "RM1 1TU", "code": "RMF"}, {"name": "Romiley", "postcode": "SK6 4BP", "code": "RML"}, {"name": "Romsey", "postcode": "SO51 8DU", "code": "ROM"}, {"name": "Roose", "postcode": "LA13 0ER", "code": "ROO"}, {"name": "Rose Grove", "postcode": "BB12 6EU", "code": "RSG"}, {"name": "Rose Hill", "postcode": "SK6 6EE", "code": "RSH"}, {"name": "Rosyth", "postcode": "KY11 2XW", "code": "ROS"}, {"name": "Rotherham Central", "postcode": "S60 1QH", "code": "RMC"}, {"name": "Rotherhithe", "postcode": "SE16 4LF", "code": "ROE"}, {"name": "Roughton Road", "postcode": "NR27 9LN", "code": "RNR"}, {"name": "Rowlands Castle", "postcode": "PO9 6BP", "code": "RLN"}, {"name": "Rowley Regis", "postcode": "B65 0LJ", "code": "ROW"}, {"name": "Roy Bridge", "postcode": "PH31 4AG", "code": "RYB"}, {"name": "Roydon", "postcode": "CM19 5EH", "code": "RYN"}, {"name": "Royston", "postcode": "SG8 5AG", "code": "RYS"}, {"name": "Ruabon", "postcode": "LL14 6EA", "code": "RUA"}, {"name": "Rufford", "postcode": "L40 1TB", "code": "RUF"}, {"name": "Rugby", "postcode": "CV21 3LA", "code": "RUG"}, {"name": "Rugeley Town", "postcode": "WS15 1BL", "code": "RGT"}, {"name": "Rugeley Trent Valley", "postcode": "WS15 2HQ", "code": "RGL"}, {"name": "Runcorn", "postcode": "WA7 5UB", "code": "RUN"}, {"name": "Runcorn East", "postcode": "WA7 6JU", "code": "RUE"}, {"name": "Ruskington", "postcode": "NG34 9ED", "code": "RKT"}, {"name": "Ruswarp", "postcode": "YO21 1YL", "code": "RUS"}, {"name": "Rutherglen", "postcode": "G73 1DT", "code": "RUT"}, {"name": "Ryde Esplanade", "postcode": "PO33 2HE", "code": "RYD"}, {"name": "Ryde Pier Head", "postcode": "PO33 2HF", "code": "RYP"}, {"name": "Ryde St John's Road", "postcode": "PO33 2BA", "code": "RYR"}, {"name": "Ryder Brow", "postcode": "M18 7PT", "code": "RRB"}, {"name": "Rye (East Sussex)", "postcode": "TN31 7AB", "code": "RYE"}, {"name": "Rye House", "postcode": "EN11 0EW", "code": "RYH"}, {"name": "St Albans", "postcode": "AL1 3TF", "code": "SAC"}, {"name": "St Albans Abbey", "postcode": "AL1 2PS", "code": "SAA"}, {"name": "St Andrews Road", "postcode": "BS11 9HP", "code": "SAR"}, {"name": "St Annes-on-the-Sea", "postcode": "FY8 2AS", "code": "SAS"}, {"name": "St Austell", "postcode": "PL25 4LA", "code": "SAU"}, {"name": "St Bees", "postcode": "CA27 0DN", "code": "SBS"}, {"name": "St Budeaux Ferry Road", "postcode": "PL5 1YA", "code": "SBF"}, {"name": "St Budeaux Victoria Road", "postcode": "PL5 1NB", "code": "SBV"}, {"name": "St Columb Road", "postcode": "TR9 6QP", "code": "SCR"}, {"name": "St Denys", "postcode": "SO17 2HW", "code": "SDN"}, {"name": "St Erth", "postcode": "TR27 6JL", "code": "SER"}, {"name": "St Germans", "postcode": "PL12 5LU", "code": "SGM"}, {"name": "St Helens Central", "postcode": "WA10 1DG", "code": "SNH"}, {"name": "St Helens Junction", "postcode": "WA9 3LA", "code": "SHJ"}, {"name": "St. Helier (Surrey)", "postcode": "SM4 5NR", "code": "SIH"}, {"name": "St Ives", "postcode": "TR26 2EQ", "code": "SIV"}, {"name": "St James' Park (Exeter)", "postcode": "EX4 6QG", "code": "SJP"}, {"name": "St James Street", "postcode": "E17 7PB", "code": "SJS"}, {"name": "St Johns", "postcode": "SE8 4EW", "code": "SAJ"}, {"name": "St Keyne Wishing Well Halt", "postcode": "PL14 4SH", "code": "SKN"}, {"name": "St Leonards Warrior Square", "postcode": "TN38 0AZ", "code": "SLQ"}, {"name": "St Margarets (Herts)", "postcode": "SG12 8DS", "code": "SMT"}, {"name": "St Margarets (London)", "postcode": "TW1 1RH", "code": "SMG"}, {"name": "St Mary Cray", "postcode": "BR5 2NB", "code": "SMY"}, {"name": "St Michaels", "postcode": "L17 7DR", "code": "STM"}, {"name": "St Neots", "postcode": "PE19 1QF", "code": "SNO"}, {"name": "St Pancras (London)", "postcode": "NW1 2QL", "code": "STP"}, {"name": "Salford Central", "postcode": "M3 5ET", "code": "SFD"}, {"name": "Salford Crescent", "postcode": "M5 4BR", "code": "SLD"}, {"name": "Salfords (Surrey)", "postcode": "RH1 5JL", "code": "SAF"}, {"name": "Salhouse", "postcode": "NR13 6NZ", "code": "SAH"}, {"name": "Salisbury", "postcode": "SP2 7RS", "code": "SAL"}, {"name": "Saltaire", "postcode": "BD18 4PS", "code": "SAE"}, {"name": "Saltash", "postcode": "PL12 4DR", "code": "STS"}, {"name": "Saltburn", "postcode": "TS12 1AQ", "code": "SLB"}, {"name": "Saltcoats", "postcode": "KA21 5JT", "code": "SLT"}, {"name": "Saltmarshe", "postcode": "DN14 7TW", "code": "SAM"}, {"name": "Salwick", "postcode": "PR4 0YH", "code": "SLW"}, {"name": "Sampford Courtenay", "postcode": "", "code": "SMC"}, {"name": "Sandal and Agbrigg", "postcode": "WF1 5AF", "code": "SNA"}, {"name": "Sandbach", "postcode": "CW11 3GD", "code": "SDB"}, {"name": "Sanderstead", "postcode": "CR2 0YY", "code": "SNR"}, {"name": "Sandhills", "postcode": "L5 9XJ", "code": "SDL"}, {"name": "Sandhurst (Berks)", "postcode": "GU47 9DX", "code": "SND"}, {"name": "Sandling", "postcode": "CT21 4HH", "code": "SDG"}, {"name": "Sandown", "postcode": "PO36 9EU", "code": "SAN"}, {"name": "Sandplace", "postcode": "PL13 1PJ", "code": "SDP"}, {"name": "Sandwell and Dudley", "postcode": "B70 7JD", "code": "SAD"}, {"name": "Sandwich", "postcode": "CT13 9RA", "code": "SDW"}, {"name": "Sandy", "postcode": "SG19 1AW", "code": "SDY"}, {"name": "Sankey for Penketh", "postcode": "WA5 3DA", "code": "SNK"}, {"name": "Sanquhar", "postcode": "DG4 6BS", "code": "SQH"}, {"name": "Sarn", "postcode": "CF32 9NB", "code": "SRR"}, {"name": "Saundersfoot", "postcode": "SA69 9BG", "code": "SDF"}, {"name": "Saunderton", "postcode": "HP14 4HT", "code": "SDR"}, {"name": "Sawbridgeworth", "postcode": "CM21 9JZ", "code": "SAW"}, {"name": "Saxilby", "postcode": "LN1 2PX", "code": "SXY"}, {"name": "Saxmundham", "postcode": "IP17 1BW", "code": "SAX"}, {"name": "Scarborough", "postcode": "YO11 1TN", "code": "SCA"}, {"name": "Scotscalder", "postcode": "KW12 6XJ", "code": "SCT"}, {"name": "Scotstounhill", "postcode": "G13 1UY", "code": "SCH"}, {"name": "Scunthorpe", "postcode": "DN16 1TL", "code": "SCU"}, {"name": "Sea Mills", "postcode": "BS9 1EA", "code": "SML"}, {"name": "Seaford", "postcode": "BN25 2AR", "code": "SEF"}, {"name": "Seaforth and Litherland", "postcode": "L21 3TE", "code": "SFL"}, {"name": "Seaham", "postcode": "SR7 0AD", "code": "SEA"}, {"name": "Seamer", "postcode": "YO12 4UB", "code": "SEM"}, {"name": "Seascale", "postcode": "CA20 1QU", "code": "SSC"}, {"name": "Seaton Carew", "postcode": "TS25 2AG", "code": "SEC"}, {"name": "Seer Green", "postcode": "HP9 2UR", "code": "SRG"}, {"name": "Selby", "postcode": "YO8 4NP", "code": "SBY"}, {"name": "Selhurst", "postcode": "SE25 5EG", "code": "SRS"}, {"name": "Sellafield", "postcode": "CA20 1RG", "code": "SEL"}, {"name": "Selling", "postcode": "ME13 9PW", "code": "SEG"}, {"name": "Selly Oak", "postcode": "B29 6DP", "code": "SLY"}, {"name": "Settle", "postcode": "BD24 9BL", "code": "SET"}, {"name": "Seven Kings", "postcode": "IG3 8BG", "code": "SVK"}, {"name": "Seven Sisters", "postcode": "N15 5DR", "code": "SVS"}, {"name": "Sevenoaks", "postcode": "TN13 2JA", "code": "SEV"}, {"name": "Severn Beach", "postcode": "BS35 4QD", "code": "SVB"}, {"name": "Severn Tunnel Junction", "postcode": "NP26 3UN", "code": "STJ"}, {"name": "Shadwell", "postcode": "", "code": "SDE"}, {"name": "Shalford", "postcode": "GU4 8BZ", "code": "SFR"}, {"name": "Shanklin", "postcode": "PO37 7AR", "code": "SHN"}, {"name": "Shaw and Crompton", "postcode": "OL2 8PF", "code": "SHA"}, {"name": "Shawfair", "postcode": "EH22 1SB", "code": "SFI"}, {"name": "Shawford", "postcode": "SO21 2BN", "code": "SHW"}, {"name": "Shawlands", "postcode": "G41 3SW", "code": "SHL"}, {"name": "Sheerness On Sea", "postcode": "ME12 1RJ", "code": "SSS"}, {"name": "Sheffield", "postcode": "S1 2BP", "code": "SHF"}, {"name": "Shelford", "postcode": "CB2 5NE", "code": "SED"}, {"name": "Shenfield", "postcode": "CM15 8JE", "code": "SNF"}, {"name": "Shenstone", "postcode": "WS14 0NW", "code": "SEN"}, {"name": "Shepherds Well", "postcode": "CT15 7PE", "code": "SPH"}, {"name": "Shepherd's Bush", "postcode": "W12 7JD", "code": "SPB"}, {"name": "Shepley", "postcode": "HD8 8DX", "code": "SPY"}, {"name": "Shepperton", "postcode": "TW17 8DN", "code": "SHP"}, {"name": "Shepreth", "postcode": "SG8 6PZ", "code": "STH"}, {"name": "Sherborne", "postcode": "DT9 3NB", "code": "SHE"}, {"name": "Sherburn In Elmet", "postcode": "LS25 6EP", "code": "SIE"}, {"name": "Sheringham", "postcode": "NR26 8RG", "code": "SHM"}, {"name": "Shettleston", "postcode": "G32 0PF", "code": "SLS"}, {"name": "Shieldmuir", "postcode": "ML2 7TQ", "code": "SDM"}, {"name": "Shifnal", "postcode": "TF11 9AX", "code": "SFN"}, {"name": "Shildon", "postcode": "DL4 2DQ", "code": "SHD"}, {"name": "Shiplake", "postcode": "RG9 3NU", "code": "SHI"}, {"name": "Shipley (Yorks)", "postcode": "BD18 2JL", "code": "SHY"}, {"name": "Shippea Hill", "postcode": "CB7 4SP", "code": "SPP"}, {"name": "Shipton", "postcode": "OX7 6BH", "code": "SIP"}, {"name": "Shirebrook", "postcode": "NG20 8SU", "code": "SHB"}, {"name": "Shirehampton", "postcode": "BS11 9XB", "code": "SHH"}, {"name": "Shireoaks", "postcode": "S81 8LW", "code": "SRO"}, {"name": "Shirley (West Midlands)", "postcode": "B90 1AB", "code": "SRL"}, {"name": "Shoreditch High Street", "postcode": "", "code": "SDC"}, {"name": "Shoeburyness", "postcode": "SS3 9AW", "code": "SRY"}, {"name": "Sholing", "postcode": "SO19 9RD", "code": "SHO"}, {"name": "Shoreham, Kent", "postcode": "TN14 7RT", "code": "SEH"}, {"name": "Shoreham-by-Sea", "postcode": "BN43 5WX", "code": "SSE"}, {"name": "Shortlands", "postcode": "BR2 0JA", "code": "SRT"}, {"name": "Shotton", "postcode": "CH5 1DL", "code": "SHT"}, {"name": "Shotts", "postcode": "ML7 4BH", "code": "SHS"}, {"name": "Shrewsbury", "postcode": "SY1 2HR", "code": "SHR"}, {"name": "Sidcup", "postcode": "DA15 7AG", "code": "SID"}, {"name": "Sileby", "postcode": "LE12 7NA", "code": "SIL"}, {"name": "Silecroft", "postcode": "LA18 4NS", "code": "SIC"}, {"name": "Silkstone Common", "postcode": "S75 3JJ", "code": "SLK"}, {"name": "Silver Street", "postcode": "N18 2UA", "code": "SLV"}, {"name": "Silverdale", "postcode": "LA5 0SP", "code": "SVR"}, {"name": "Singer", "postcode": "G81 2JQ", "code": "SIN"}, {"name": "Sittingbourne", "postcode": "ME10 3ED", "code": "SIT"}, {"name": "Skegness", "postcode": "PE25 3QN", "code": "SKG"}, {"name": "Skewen", "postcode": "SA10 6HB", "code": "SKE"}, {"name": "Skipton", "postcode": "BD23 2DG", "code": "SKI"}, {"name": "Slade Green", "postcode": "DA8 2NX", "code": "SGR"}, {"name": "Slaithwaite", "postcode": "HD7 5EF", "code": "SWT"}, {"name": "Slateford", "postcode": "EH14 1PZ", "code": "SLA"}, {"name": "Sleaford", "postcode": "NG34 7RG", "code": "SLR"}, {"name": "Sleights", "postcode": "YO21 1RU", "code": "SLH"}, {"name": "Slough", "postcode": "SL2 5BY", "code": "SLO"}, {"name": "Small Heath", "postcode": "B10 0EW", "code": "SMA"}, {"name": "Smallbrook Junction", "postcode": "PO33 4BE", "code": "SAB"}, {"name": "Smethwick Galton Bridge", "postcode": "B66 1HU", "code": "SGB"}, {"name": "Smethwick Rolfe Street", "postcode": "B66 2AA", "code": "SMR"}, {"name": "Smithy Bridge", "postcode": "OL15 8QQ", "code": "SMB"}, {"name": "Snaith", "postcode": "DN14 9HY", "code": "SNI"}, {"name": "Snodland", "postcode": "ME6 5AR", "code": "SDA"}, {"name": "Snowdown", "postcode": "CT15 4JL", "code": "SWO"}, {"name": "Sole Street", "postcode": "DA13 0XY", "code": "SOR"}, {"name": "Solihull", "postcode": "B91 1LG", "code": "SOL"}, {"name": "Somerleyton", "postcode": "NR32 5QN", "code": "SYT"}, {"name": "South Acton", "postcode": "W3 8TR", "code": "SAT"}, {"name": "South Bank", "postcode": "TS6 6AN", "code": "SBK"}, {"name": "South Bermondsey", "postcode": "SE16 3JZ", "code": "SBM"}, {"name": "South Croydon", "postcode": "CR2 7DW", "code": "SCY"}, {"name": "South Elmsall", "postcode": "WF9 2HU", "code": "SES"}, {"name": "South Greenford", "postcode": "UB6 8EL", "code": "SGN"}, {"name": "South Gyle", "postcode": "EH12 7XH", "code": "SGL"}, {"name": "South Hampstead", "postcode": "NW8 0DR", "code": "SOH"}, {"name": "South Kenton", "postcode": "HA9 8QS", "code": "SOK"}, {"name": "South Merton", "postcode": "SW20 9JT", "code": "SMO"}, {"name": "South Milford", "postcode": "LS25 6AA", "code": "SOM"}, {"name": "South Ruislip", "postcode": "HA4 6TP", "code": "SRU"}, {"name": "South Tottenham", "postcode": "N15 6UL", "code": "STO"}, {"name": "South Wigston", "postcode": "LE18 4XZ", "code": "SWS"}, {"name": "South Woodham Ferrers", "postcode": "CM3 5NQ", "code": "WDF"}, {"name": "Southall", "postcode": "UB1 3AD", "code": "STL"}, {"name": "Southampton Airport Parkway", "postcode": "SO18 2HW", "code": "SOA"}, {"name": "Southampton Central", "postcode": "SO15 1GP", "code": "SOU"}, {"name": "Southbourne", "postcode": "PO10 8LW", "code": "SOB"}, {"name": "Southbury", "postcode": "EN3 4HW", "code": "SBU"}, {"name": "Southease", "postcode": "BN8 6JS", "code": "SEE"}, {"name": "Southend Airport", "postcode": "SS2 6YF", "code": "SIA"}, {"name": "Southend Central", "postcode": "SS1 1AH", "code": "SOC"}, {"name": "Southend East", "postcode": "SS1 2QY", "code": "SOE"}, {"name": "Southend Victoria", "postcode": "SS2 6AE", "code": "SOV"}, {"name": "Southminster", "postcode": "CM0 7EN", "code": "SMN"}, {"name": "Southport", "postcode": "PR8 1BE", "code": "SOP"}, {"name": "Southwick", "postcode": "BN42 4DD", "code": "SWK"}, {"name": "Sowerby Bridge", "postcode": "HX6 3LA", "code": "SOW"}, {"name": "Spalding", "postcode": "PE11 1EY", "code": "SPA"}, {"name": "Spean Bridge", "postcode": "PH34 4ER", "code": "SBR"}, {"name": "Spital", "postcode": "CH63 9NE", "code": "SPI"}, {"name": "Spondon", "postcode": "DE21 7NE", "code": "SPO"}, {"name": "Spooner Row", "postcode": "NR18 9JR", "code": "SPN"}, {"name": "Spring Road", "postcode": "B11 3DP", "code": "SRI"}, {"name": "Springburn", "postcode": "G21 4TP", "code": "SPR"}, {"name": "Springfield", "postcode": "KY15 5RT", "code": "SPF"}, {"name": "Squires Gate", "postcode": "FY8 2SN", "code": "SQU"}, {"name": "Stafford", "postcode": "ST16 2AA", "code": "STA"}, {"name": "Staines", "postcode": "TW18 2BZ", "code": "SNS"}, {"name": "Stallingborough", "postcode": "DN41 8AS", "code": "SLL"}, {"name": "Stalybridge", "postcode": "SK15 1RH", "code": "SYB"}, {"name": "Stamford (Lincs)", "postcode": "PE9 2JN", "code": "SMD"}, {"name": "Stamford Hill", "postcode": "N15 6PP", "code": "SMH"}, {"name": "Stanford-le-Hope", "postcode": "SS17 0JX", "code": "SFO"}, {"name": "Stanlow and Thornton", "postcode": "CH2 4NW", "code": "SNT"}, {"name": "Stansted Airport", "postcode": "CM24 1RG", "code": "SSD"}, {"name": "Stansted Mountfitchet", "postcode": "CM24 8BH", "code": "SST"}, {"name": "Staplehurst", "postcode": "TN12 0QR", "code": "SPU"}, {"name": "Stapleton Road", "postcode": "BS5 0LJ", "code": "SRD"}, {"name": "Starbeck", "postcode": "HG1 4PY", "code": "SBE"}, {"name": "Starcross", "postcode": "EX6 8NY", "code": "SCS"}, {"name": "Staveley", "postcode": "LA8 9NB", "code": "SVL"}, {"name": "Stechford", "postcode": "B33 8AJ", "code": "SCF"}, {"name": "Steeton and Silsden", "postcode": "BD20 6RZ", "code": "SON"}, {"name": "Stepps", "postcode": "G33 6HG", "code": "SPS"}, {"name": "Stevenage", "postcode": "SG1 1XT", "code": "SVG"}, {"name": "Stevenston", "postcode": "KA20 3LB", "code": "STV"}, {"name": "Stewartby", "postcode": "MK43 9LY", "code": "SWR"}, {"name": "Stewarton", "postcode": "KA3 5BE", "code": "STT"}, {"name": "Stirling", "postcode": "FK8 2BY", "code": "STG"}, {"name": "Stockport", "postcode": "SK3 9HZ", "code": "SPT"}, {"name": "Stocksfield", "postcode": "NE43 7NH", "code": "SKS"}, {"name": "Stocksmoor", "postcode": "HD4 6XN", "code": "SSM"}, {"name": "Stockton", "postcode": "TS18 2AZ", "code": "STK"}, {"name": "Stoke Mandeville", "postcode": "HP22 5UH", "code": "SKM"}, {"name": "Stoke Newington", "postcode": "N16 6YB", "code": "SKW"}, {"name": "Stoke-on-Trent", "postcode": "ST4 2AB", "code": "SOT"}, {"name": "Stone (Staffs)", "postcode": "ST15 8LH", "code": "SNE"}, {"name": "Stone Crossing", "postcode": "DA9 9AR", "code": "SCG"}, {"name": "Stonebridge Park", "postcode": "NW10 0RL", "code": "SBP"}, {"name": "Stonegate", "postcode": "TN5 7ER", "code": "SOG"}, {"name": "Stonehaven", "postcode": "AB39 2NE", "code": "STN"}, {"name": "Stonehouse", "postcode": "GL10 2QF", "code": "SHU"}, {"name": "Stoneleigh", "postcode": "KT19 0QZ", "code": "SNL"}, {"name": "Stourbridge Junction", "postcode": "DY9 0YQ", "code": "SBJ"}, {"name": "Stourbridge Town", "postcode": "DY8 1EX", "code": "SBT"}, {"name": "Stow", "postcode": "TD1 2SQ", "code": "SOI"}, {"name": "Stowmarket", "postcode": "IP14 5AS", "code": "SMK"}, {"name": "Stranraer Harbour", "postcode": "DG9 8EJ", "code": "STR"}, {"name": "Stratford (London)", "postcode": "E15 1AZ", "code": "SRA"}, {"name": "Stratford-upon-Avon", "postcode": "CV37 6PL", "code": "SAV"}, {"name": "Stratford-upon-Avon Parkway", "postcode": "CV37 9QY", "code": "STY"}, {"name": "Strathcarron", "postcode": "IV54 8YR", "code": "STC"}, {"name": "Strawberry Hill", "postcode": "TW2 5TF", "code": "STW"}, {"name": "Streatham", "postcode": "SW16 6JJ", "code": "STE"}, {"name": "Streatham Common", "postcode": "SW16 5TF", "code": "SRC"}, {"name": "Streatham Hill", "postcode": "SW2 4PA", "code": "SRH"}, {"name": "Streethouse", "postcode": "WF7 6BY", "code": "SHC"}, {"name": "Strines", "postcode": "SK22 3AL", "code": "SRN"}, {"name": "Stromeferry", "postcode": "IV53 8UJ", "code": "STF"}, {"name": "Strood (Kent)", "postcode": "ME2 4BG", "code": "SOO"}, {"name": "Stroud (Gloucestershire)", "postcode": "GL5 3AG", "code": "STD"}, {"name": "Sturry", "postcode": "CT2 0BH", "code": "STU"}, {"name": "Styal", "postcode": "SK9 4JW", "code": "SYA"}, {"name": "Sudbury", "postcode": "CO10 2SU", "code": "SUY"}, {"name": "Sudbury & Harrow Road", "postcode": "HA0 2NB", "code": "SUD"}, {"name": "Sudbury Hill Harrow", "postcode": "HA1 3PJ", "code": "SDH"}, {"name": "Sugar Loaf", "postcode": "LD5 4RP", "code": "SUG"}, {"name": "Summerston", "postcode": "G20 0HY", "code": "SUM"}, {"name": "Sunbury", "postcode": "TW16 6SA", "code": "SUU"}, {"name": "Sunderland", "postcode": "SR1 3HR", "code": "SUN"}, {"name": "Sundridge Park", "postcode": "BR1 3TR", "code": "SUP"}, {"name": "Sunningdale", "postcode": "SL5 0EL", "code": "SNG"}, {"name": "Sunnymeads", "postcode": "TW19 5HD", "code": "SNY"}, {"name": "Surbiton", "postcode": "KT6 4PE", "code": "SUR"}, {"name": "Surrey Quays", "postcode": "SE16 2UF", "code": "SQE"}, {"name": "Sutton Coldfield", "postcode": "B73 6AY", "code": "SUT"}, {"name": "Sutton Common", "postcode": "SM1 3HZ", "code": "SUC"}, {"name": "Sutton (London)", "postcode": "SM1 1JA", "code": "SUO"}, {"name": "Sutton Parkway", "postcode": "NG17 5LG", "code": "SPK"}, {"name": "Swale", "postcode": "ME9 8SS", "code": "SWL"}, {"name": "Swanley", "postcode": "BR8 8HP", "code": "SAY"}, {"name": "Swanscombe", "postcode": "DA10 0LG", "code": "SWM"}, {"name": "Swansea", "postcode": "SA1 1NU", "code": "SWA"}, {"name": "Swanwick", "postcode": "SO31 1FQ", "code": "SNW"}, {"name": "Sway", "postcode": "SO41 6AZ", "code": "SWY"}, {"name": "Swaythling", "postcode": "SO18 2LB", "code": "SWG"}, {"name": "Swinderby", "postcode": "LN6 9HY", "code": "SWD"}, {"name": "Swindon (Wilts)", "postcode": "SN1 1DQ", "code": "SWI"}, {"name": "Swineshead", "postcode": "PE20 3PT", "code": "SWE"}, {"name": "Swinton (Manchester)", "postcode": "M27 6HD", "code": "SNN"}, {"name": "Swinton (South Yorkshire)", "postcode": "S64 8AS", "code": "SWN"}, {"name": "Sydenham Hill", "postcode": "SE21 7ND", "code": "SYH"}, {"name": "Sydenham (London)", "postcode": "SE26 4LE", "code": "SYD"}, {"name": "Syon Lane", "postcode": "TW7 5JG", "code": "SYL"}, {"name": "Syston", "postcode": "LE7 1NZ", "code": "SYS"}, {"name": "Tackley", "postcode": "OX5 3AT", "code": "TAC"}, {"name": "Tadworth", "postcode": "KT20 5SP", "code": "TAD"}, {"name": "Taffs Well", "postcode": "CF15 7PE", "code": "TAF"}, {"name": "Tain", "postcode": "IV19 1JA", "code": "TAI"}, {"name": "Tal-y-Cafn", "postcode": "LL28 5RR", "code": "TLC"}, {"name": "Talsarnau", "postcode": "LL47 6UA", "code": "TAL"}, {"name": "Talybont", "postcode": "LL43 2AR", "code": "TLB"}, {"name": "Tame Bridge Parkway", "postcode": "B71 3NP", "code": "TAB"}, {"name": "Tamworth", "postcode": "B79 7JT", "code": "TAM"}, {"name": "Taplow", "postcode": "SL6 0NT", "code": "TAP"}, {"name": "Tattenham Corner", "postcode": "KT18 5QD", "code": "TAT"}, {"name": "Taunton", "postcode": "TA1 1QP", "code": "TAU"}, {"name": "Taynuilt", "postcode": "PA35 1JN", "code": "TAY"}, {"name": "Teddington", "postcode": "TW11 0AZ", "code": "TED"}, {"name": "Teesside Airport", "postcode": "DL2 1NX", "code": "TEA"}, {"name": "Teignmouth", "postcode": "TQ14 8PG", "code": "TGM"}, {"name": "Telford Central", "postcode": "TF3 4LZ", "code": "TFC"}, {"name": "Templecombe", "postcode": "BA8 0JR", "code": "TMC"}, {"name": "Tenby", "postcode": "SA70 7LZ", "code": "TEN"}, {"name": "Teynham", "postcode": "ME9 9EA", "code": "TEY"}, {"name": "Thames Ditton", "postcode": "KT7 0PD", "code": "THD"}, {"name": "Thatcham", "postcode": "RG19 4NU", "code": "THA"}, {"name": "Thatto Heath", "postcode": "WA9 5NY", "code": "THH"}, {"name": "The Hawthorns", "postcode": "B71 4LW", "code": "THW"}, {"name": "The Lakes", "postcode": "B94 5SE", "code": "TLK"}, {"name": "Theale", "postcode": "RG7 4AG", "code": "THE"}, {"name": "Theobalds Grove", "postcode": "EN8 7BG", "code": "TEO"}, {"name": "Thetford", "postcode": "IP24 1AS", "code": "TTF"}, {"name": "Thirsk", "postcode": "YO7 4LT", "code": "THI"}, {"name": "Thornaby", "postcode": "TS17 6AN", "code": "TBY"}, {"name": "Thorne North", "postcode": "DN8 4HZ", "code": "TNN"}, {"name": "Thorne South", "postcode": "DN8 5PA", "code": "TNS"}, {"name": "Thornford", "postcode": "DT9 6HE", "code": "THO"}, {"name": "Thornliebank", "postcode": "G46 7RJ", "code": "THB"}, {"name": "Thornton Abbey", "postcode": "DN39 6UX", "code": "TNA"}, {"name": "Thornton Heath", "postcode": "CR7 8RX", "code": "TTH"}, {"name": "Thorntonhall", "postcode": "G74 5QA", "code": "THT"}, {"name": "Thorpe Bay", "postcode": "SS1 3QH", "code": "TPB"}, {"name": "Thorpe Culvert", "postcode": "PE24 4NL", "code": "TPC"}, {"name": "Thorpe-le-Soken", "postcode": "CO16 0HJ", "code": "TLS"}, {"name": "Three Bridges", "postcode": "RH10 7AZ", "code": "TBD"}, {"name": "Three Oaks", "postcode": "TN35 4PN", "code": "TOK"}, {"name": "Thurgarton", "postcode": "NG14 7HD", "code": "THU"}, {"name": "Thurnscoe", "postcode": "S63 0JR", "code": "THC"}, {"name": "Thurso", "postcode": "KW14 7DL", "code": "THS"}, {"name": "Thurston", "postcode": "IP31 3NZ", "code": "TRS"}, {"name": "Tilbury Town", "postcode": "RM18 7JT", "code": "TIL"}, {"name": "Tile Hill", "postcode": "CV4 8AR", "code": "THL"}, {"name": "Tilehurst", "postcode": "RG31 6TQ", "code": "TLH"}, {"name": "Tipton", "postcode": "DY4 9BP", "code": "TIP"}, {"name": "Tir-Phil", "postcode": "NP24 6EL", "code": "TIR"}, {"name": "Tisbury", "postcode": "SP3 6JT", "code": "TIS"}, {"name": "Tiverton Parkway", "postcode": "EX16 7HD", "code": "TVP"}, {"name": "Todmorden", "postcode": "OL14 7AP", "code": "TOD"}, {"name": "Tolworth", "postcode": "KT5 9NX", "code": "TOL"}, {"name": "Ton Pentre", "postcode": "CF41 7PN", "code": "TPN"}, {"name": "Tonbridge", "postcode": "TN9 1TX", "code": "TON"}, {"name": "Tondu", "postcode": "CF34 9HS", "code": "TDU"}, {"name": "Tonfanau", "postcode": "LL36 9LP", "code": "TNF"}, {"name": "Tonypandy", "postcode": "CF40 2NP", "code": "TNP"}, {"name": "Tooting", "postcode": "CR4 2BX", "code": "TOO"}, {"name": "Topsham", "postcode": "EX3 0DS", "code": "TOP"}, {"name": "Torquay", "postcode": "TQ2 6NU", "code": "TQY"}, {"name": "Torre", "postcode": "TQ2 5DD", "code": "TRR"}, {"name": "Totnes", "postcode": "TQ9 6LS", "code": "TOT"}, {"name": "Tottenham Hale", "postcode": "N17 9LJ", "code": "TOM"}, {"name": "Totton", "postcode": "SO40 3AD", "code": "TTN"}, {"name": "Town Green", "postcode": "L39 6RH", "code": "TWN"}, {"name": "Trafford Park", "postcode": "M32 0NX", "code": "TRA"}, {"name": "Treforest", "postcode": "CF37 1SY", "code": "TRF"}, {"name": "Treforest Estate", "postcode": "CF38 1SG", "code": "TRE"}, {"name": "Trehafod", "postcode": "CF37 2LL", "code": "TRH"}, {"name": "Treherbert", "postcode": "CF42 5JJ", "code": "TRB"}, {"name": "Treorchy", "postcode": "CF42 6UE", "code": "TRY"}, {"name": "Trimley", "postcode": "IP11 0UB", "code": "TRM"}, {"name": "Tring", "postcode": "HP23 5QP", "code": "TRI"}, {"name": "Troed-y-rhiw", "postcode": "CF48 4DY", "code": "TRD"}, {"name": "Troon", "postcode": "KA10 6JY", "code": "TRN"}, {"name": "Trowbridge", "postcode": "BA14 8HW", "code": "TRO"}, {"name": "Truro", "postcode": "TR1 3HH", "code": "TRU"}, {"name": "Tulloch", "postcode": "PH31 4AR", "code": "TUL"}, {"name": "Tulse Hill", "postcode": "SE27 9BW", "code": "TUH"}, {"name": "Tunbridge Wells", "postcode": "TN1 1GE", "code": "TBW"}, {"name": "Turkey Street", "postcode": "EN1 4QG", "code": "TUR"}, {"name": "Tutbury and Hatton", "postcode": "DE65 5DY", "code": "TUT"}, {"name": "Tweedbank", "postcode": "TD1 3SP", "code": "TWB"}, {"name": "Twickenham", "postcode": "TW1 3JB", "code": "TWI"}, {"name": "Twyford", "postcode": "RG10 9NA", "code": "TWY"}, {"name": "Ty Croes", "postcode": "LL63 5HX", "code": "TYC"}, {"name": "Ty Glas", "postcode": "CF14 5DL", "code": "TGS"}, {"name": "Tygwyn", "postcode": "LL47 6TF", "code": "TYG"}, {"name": "Tyndrum Lower", "postcode": "FK20 8RZ", "code": "TYL"}, {"name": "Tyndrum Upper", "postcode": "FK20 8RQ", "code": "UTY"}, {"name": "Tyseley", "postcode": "B11 2HH", "code": "TYS"}, {"name": "Tywyn", "postcode": "LL36 9EY", "code": "TYW"}, {"name": "Uckfield", "postcode": "TN22 5AA", "code": "UCK"}, {"name": "Uddingston", "postcode": "G71 7LR", "code": "UDD"}, {"name": "Ulceby", "postcode": "DN39 6TY", "code": "ULC"}, {"name": "Ulleskelf", "postcode": "LS24 9UH", "code": "ULL"}, {"name": "Ulverston", "postcode": "LA12 0DP", "code": "ULV"}, {"name": "Umberleigh", "postcode": "EX37 9AA", "code": "UMB"}, {"name": "University (Birmingham)", "postcode": "B15 2SG", "code": "UNI"}, {"name": "Uphall", "postcode": "EH54 5QE", "code": "UHA"}, {"name": "Upholland", "postcode": "WN8 9QB", "code": "UPL"}, {"name": "Upminster", "postcode": "RM14 2TH", "code": "UPM"}, {"name": "Upper Halliford", "postcode": "TW17 8RL", "code": "UPH"}, {"name": "Upper Holloway", "postcode": "N19 4DL", "code": "UHL"}, {"name": "Upper Tyndrum", "postcode": "FK20 8RQ", "code": "UTY"}, {"name": "Upper Warlingham", "postcode": "CR3 0EP", "code": "UWL"}, {"name": "Upton", "postcode": "CH43 9RY", "code": "UPT"}, {"name": "Upwey", "postcode": "DT3 5RB", "code": "UPW"}, {"name": "Urmston", "postcode": "M41 9SG", "code": "URM"}, {"name": "Uttoxeter", "postcode": "ST14 8AX", "code": "UTT"}, {"name": "Valley", "postcode": "LL65 2BT", "code": "VAL"}, {"name": "Vauxhall", "postcode": "SW8 1SS", "code": "VXH"}, {"name": "Victoria (London)", "postcode": "SW1E 5ND", "code": "VIC"}, {"name": "Victoria (Manchester)", "postcode": "M3 1AR", "code": "MCV"}, {"name": "Virginia Water", "postcode": "GU25 4BE", "code": "VIR"}, {"name": "Waddon", "postcode": "CR0 4UP", "code": "WDO"}, {"name": "Wadhurst", "postcode": "TN5 6RZ", "code": "WAD"}, {"name": "Wainfleet", "postcode": "PE24 4LJ", "code": "WFL"}, {"name": "Wakefield Kirkgate", "postcode": "WF1 4EL", "code": "WKK"}, {"name": "Wakefield Westgate", "postcode": "WF1 2TD", "code": "WKF"}, {"name": "Walkden", "postcode": "M28 3DY", "code": "WKD"}, {"name": "Wallasey Grove Road", "postcode": "CH45 8JY", "code": "WLG"}, {"name": "Wallasey Village", "postcode": "CH45 8PZ", "code": "WLV"}, {"name": "Wallington", "postcode": "SM6 0DY", "code": "WLT"}, {"name": "Wallyford", "postcode": "EH21 8AA", "code": "WAF"}, {"name": "Walmer", "postcode": "CT14 7RN", "code": "WAM"}, {"name": "Walsall", "postcode": "WS1 1NH", "code": "WSL"}, {"name": "Walsden", "postcode": "OL14 6RR", "code": "WDN"}, {"name": "Waltham Cross", "postcode": "EN8 7LU", "code": "WLC"}, {"name": "Walthamstow Central", "postcode": "E17 7LS", "code": "WHC"}, {"name": "Walthamstow Queens Road", "postcode": "E17 7QJ", "code": "WMW"}, {"name": "Walton (Merseyside)", "postcode": "L9 1EX", "code": "WAO"}, {"name": "Walton-on-the-Naze", "postcode": "CO14 8DH", "code": "WON"}, {"name": "Walton-on-Thames", "postcode": "KT12 1NR", "code": "WAL"}, {"name": "Wanborough", "postcode": "GU3 2EX", "code": "WAN"}, {"name": "Wandsworth Common", "postcode": "SW12 8PB", "code": "WSW"}, {"name": "Wandsworth Road", "postcode": "SW8 4PA", "code": "WWR"}, {"name": "Wandsworth Town", "postcode": "SW18 1SU", "code": "WNT"}, {"name": "Wanstead Park", "postcode": "E7 0HX", "code": "WNP"}, {"name": "Wapping", "postcode": "", "code": "WPE"}, {"name": "Warblington", "postcode": "PO9 2QH", "code": "WBL"}, {"name": "Ware (Herts)", "postcode": "SG12 9UT", "code": "WAR"}, {"name": "Wareham", "postcode": "BH20 4BG", "code": "WRM"}, {"name": "Wargrave", "postcode": "RG10 8EX", "code": "WGV"}, {"name": "Warminster", "postcode": "BA12 9BP", "code": "WMN"}, {"name": "Warnham", "postcode": "RH12 3SR", "code": "WNH"}, {"name": "Warrington Bank Quay", "postcode": "WA1 1LS", "code": "WBQ"}, {"name": "Warrington Central", "postcode": "WA1 2AE", "code": "WAC"}, {"name": "Warwick", "postcode": "CV34 4LA", "code": "WRW"}, {"name": "Warwick Parkway", "postcode": "CV35 8QN", "code": "WRP"}, {"name": "Water Orton", "postcode": "B46 1NG", "code": "WTO"}, {"name": "Waterbeach", "postcode": "CB5 9PP", "code": "WBC"}, {"name": "Wateringbury", "postcode": "ME18 5EA", "code": "WTR"}, {"name": "Waterloo East (London)", "postcode": "SE1 8TD", "code": "WAE"}, {"name": "Waterloo International (London)", "postcode": "SE1 7NS", "code": "WIT"}, {"name": "Waterloo (London)", "postcode": "SE1 7NS", "code": "WAT"}, {"name": "Waterloo (Merseyside)", "postcode": "L22 0NA", "code": "WLO"}, {"name": "Watford High Street", "postcode": "WD17 2NU", "code": "WFH"}, {"name": "Watford Junction", "postcode": "WD17 1EU", "code": "WFJ"}, {"name": "Watford North", "postcode": "WD2 4QN", "code": "WFN"}, {"name": "Watford Stadium", "postcode": "WD1 8DD", "code": "WFS"}, {"name": "Watford West", "postcode": "WD1 8NA", "code": "WFW"}, {"name": "Watlington", "postcode": "PE33 0TQ", "code": "WTG"}, {"name": "Watton-at-Stone", "postcode": "SG14 3HF", "code": "WAS"}, {"name": "Waun-gron Park", "postcode": "CF5 2BN", "code": "WNG"}, {"name": "Waverley (Edinburgh)", "postcode": "EH1 1BG", "code": "EDB"}, {"name": "Wavertree Technology Park", "postcode": "L15 4PW", "code": "WAV"}, {"name": "Wedgwood", "postcode": "ST12 9ER", "code": "WED"}, {"name": "Weeley", "postcode": "CO16 9HY", "code": "WEE"}, {"name": "Weeton", "postcode": "LS17 0EQ", "code": "WET"}, {"name": "Welham Green", "postcode": "AL9 7HF", "code": "WMG"}, {"name": "Welling", "postcode": "DA16 3JA", "code": "WLI"}, {"name": "Wellingborough", "postcode": "NN8 1NQ", "code": "WEL"}, {"name": "Wellington Shropshire", "postcode": "TF1 1BY", "code": "WLN"}, {"name": "Welshpool", "postcode": "SY21 7AY", "code": "WLP"}, {"name": "Welwyn Garden City", "postcode": "AL8 6BE", "code": "WGC"}, {"name": "Welwyn North", "postcode": "AL6 0EA", "code": "WLW"}, {"name": "Wem", "postcode": "SY4 5AZ", "code": "WEM"}, {"name": "Wembley Central", "postcode": "HA9 7AJ", "code": "WMB"}, {"name": "Wembley Stadium", "postcode": "HA9 6NY", "code": "WCX"}, {"name": "Wemyss Bay", "postcode": "PA18 6AR", "code": "WMS"}, {"name": "Wendover", "postcode": "HP22 6BT", "code": "WND"}, {"name": "Wennington", "postcode": "LA2 8PB", "code": "WNN"}, {"name": "West Allerton", "postcode": "L19 7NL", "code": "WSA"}, {"name": "West Brompton", "postcode": "SW6 1RT", "code": "WBP"}, {"name": "West Byfleet", "postcode": "KT14 6PA", "code": "WBY"}, {"name": "West Calder", "postcode": "EH55 8BQ", "code": "WCL"}, {"name": "West Croydon", "postcode": "CR0 2RD", "code": "WCY"}, {"name": "West Drayton", "postcode": "UB7 9DZ", "code": "WDT"}, {"name": "West Dulwich", "postcode": "SE21 8HN", "code": "WDU"}, {"name": "West Ealing", "postcode": "W13 0LJ", "code": "WEA"}, {"name": "West Ham", "postcode": "E15 3BW", "code": "WEH"}, {"name": "West Hampstead", "postcode": "NW6 2LJ", "code": "WHD"}, {"name": "West Hampstead Thameslink", "postcode": "NW6 1PF", "code": "WHP"}, {"name": "West Horndon", "postcode": "CM13 3TL", "code": "WHR"}, {"name": "West Kilbride", "postcode": "KA23 9DD", "code": "WKB"}, {"name": "West Kirby", "postcode": "CH48 4DZ", "code": "WKI"}, {"name": "West Malling", "postcode": "ME19 6HJ", "code": "WMA"}, {"name": "West Norwood", "postcode": "SE27 0DW", "code": "WNW"}, {"name": "West Ruislip", "postcode": "", "code": "WRU"}, {"name": "West Runton", "postcode": "NR27 9QJ", "code": "WRN"}, {"name": "West St Leonards", "postcode": "TN38 0AB", "code": "WLD"}, {"name": "West Sutton", "postcode": "SM1 2HJ", "code": "WSU"}, {"name": "West Wickham", "postcode": "BR4 0EH", "code": "WWI"}, {"name": "West Worthing", "postcode": "BN11 4SR", "code": "WWO"}, {"name": "Westbury", "postcode": "BA13 4HP", "code": "WSB"}, {"name": "Westcliff-on-Sea", "postcode": "SS0 7SB", "code": "WCF"}, {"name": "Westcombe Park", "postcode": "SE3 7EQ", "code": "WCB"}, {"name": "Westenhanger", "postcode": "TN25 6DE", "code": "WHA"}, {"name": "Wester Hailes", "postcode": "EH14 3HR", "code": "WTA"}, {"name": "Westerfield", "postcode": "IP6 9AE", "code": "WFI"}, {"name": "Westerton", "postcode": "G61 1PB", "code": "WES"}, {"name": "Westgate-on-Sea", "postcode": "CT8 8RA", "code": "WGA"}, {"name": "Westhoughton", "postcode": "BL5 3QT", "code": "WHG"}, {"name": "Weston Milton", "postcode": "BS22 8PF", "code": "WNM"}, {"name": "Weston-super-Mare", "postcode": "BS23 1YB", "code": "WSM"}, {"name": "Wetheral", "postcode": "CA4 8JP", "code": "WRL"}, {"name": "Weybridge", "postcode": "KT13 8UF", "code": "WYB"}, {"name": "Weymouth", "postcode": "DT4 7BN", "code": "WEY"}, {"name": "Weymouth Quay", "postcode": "DT4 7BN", "code": "WYQ"}, {"name": "Whaley Bridge", "postcode": "SK23 7AF", "code": "WBR"}, {"name": "Whalley Lancs", "postcode": "BB7 9RT", "code": "WHE"}, {"name": "Whatstandwell", "postcode": "DE4 5EE", "code": "WTS"}, {"name": "Whifflet", "postcode": "ML5 4EE", "code": "WFF"}, {"name": "Whimple", "postcode": "EX5 2QJ", "code": "WHM"}, {"name": "Whinhill", "postcode": "PA15 3LA", "code": "WNL"}, {"name": "Whiston", "postcode": "L35 3TY", "code": "WHN"}, {"name": "Whitby", "postcode": "YO21 1YN", "code": "WTB"}, {"name": "Whitchurch (Cardiff)", "postcode": "CF14 1BP", "code": "WHT"}, {"name": "Whitchurch (Hants)", "postcode": "RG28 7BZ", "code": "WCH"}, {"name": "Whitchurch (Shropshire)", "postcode": "SY13 1RL", "code": "WTC"}, {"name": "White Hart Lane", "postcode": "N17 8HH", "code": "WHL"}, {"name": "White Notley", "postcode": "CM8 1RP", "code": "WNY"}, {"name": "Whitechapel", "postcode": "", "code": "ZWL"}, {"name": "Whitecraigs", "postcode": "G46 6SA", "code": "WCR"}, {"name": "Whitehaven", "postcode": "CA28 6AX", "code": "WTH"}, {"name": "Whitland", "postcode": "SA34 0AP", "code": "WTL"}, {"name": "Whitley Bridge", "postcode": "DN14 0HH", "code": "WBD"}, {"name": "Whitlocks End", "postcode": "B90 1EA", "code": "WTE"}, {"name": "Whitstable", "postcode": "CT5 1QS", "code": "WHI"}, {"name": "Whittlesea", "postcode": "PE7 2EU", "code": "WLE"}, {"name": "Whittlesford Parkway", "postcode": "CB2 4PL", "code": "WLF"}, {"name": "Whitton (London)", "postcode": "TW2 7JX", "code": "WTN"}, {"name": "Whitwell", "postcode": "S80 4TA", "code": "WWL"}, {"name": "Whyteleafe", "postcode": "CR3 0AD", "code": "WHY"}, {"name": "Whyteleafe South", "postcode": "CR3 0BF", "code": "WHS"}, {"name": "Wick", "postcode": "KW1 5LB", "code": "WCK"}, {"name": "Wickford", "postcode": "SS11 7AT", "code": "WIC"}, {"name": "Wickham Market", "postcode": "IP13 0PR", "code": "WCM"}, {"name": "Widdrington", "postcode": "NE61 5QH", "code": "WDD"}, {"name": "Widnes", "postcode": "WA8 7TL", "code": "WID"}, {"name": "Widney Manor", "postcode": "B91 3JW", "code": "WMR"}, {"name": "Wigan North Western", "postcode": "WN3 4HU", "code": "WGN"}, {"name": "Wigan Wallgate", "postcode": "WN1 1LP", "code": "WGW"}, {"name": "Wigton", "postcode": "CA7 9BA", "code": "WGT"}, {"name": "Wildmill", "postcode": "CF31 1YY", "code": "WMI"}, {"name": "Willesden Junction", "postcode": "NW10 4RA", "code": "WIJ"}, {"name": "Williamwood", "postcode": "G76 7NP", "code": "WLM"}, {"name": "Willington", "postcode": "DE65 6BP", "code": "WIL"}, {"name": "Wilmcote", "postcode": "CV37 9UQ", "code": "WMC"}, {"name": "Wilmslow", "postcode": "SK9 1BB", "code": "WML"}, {"name": "Wilnecote (Staffordshire)", "postcode": "B77 5AY", "code": "WNE"}, {"name": "Wimbledon", "postcode": "SW19 7NL", "code": "WIM"}, {"name": "Wimbledon Chase", "postcode": "SW20 8JT", "code": "WBO"}, {"name": "Winchelsea", "postcode": "TN36 4JX", "code": "WSE"}, {"name": "Winchester", "postcode": "SO22 6RF", "code": "WIN"}, {"name": "Winchfield", "postcode": "RG27 8BX", "code": "WNF"}, {"name": "Winchmore Hill", "postcode": "N21 1BS", "code": "WIH"}, {"name": "Windermere", "postcode": "LA23 1QA", "code": "WDM"}, {"name": "Windsor and Eton Central", "postcode": "SL4 1PJ", "code": "WNC"}, {"name": "Windsor and Eton Riverside", "postcode": "SL4 1NA", "code": "WNR"}, {"name": "Winnersh", "postcode": "RG41 5NA", "code": "WNS"}, {"name": "Winnersh Triangle", "postcode": "RG41 5TQ", "code": "WTI"}, {"name": "Winsford", "postcode": "CW7 3PB", "code": "WSF"}, {"name": "Wishaw", "postcode": "ML2 0EX", "code": "WSH"}, {"name": "Witham", "postcode": "CM8 2DW", "code": "WTM"}, {"name": "Witley", "postcode": "GU8 5TD", "code": "WTY"}, {"name": "Witton", "postcode": "B6 6QU", "code": "WTT"}, {"name": "Wivelsfield", "postcode": "RH15 0PX", "code": "WVF"}, {"name": "Wivenhoe", "postcode": "CO7 9DJ", "code": "WIV"}, {"name": "Woburn Sands", "postcode": "MK17 8SG", "code": "WOB"}, {"name": "Woking", "postcode": "GU22 7AE", "code": "WOK"}, {"name": "Wokingham", "postcode": "RG40 2AP", "code": "WKM"}, {"name": "Woldingham", "postcode": "CR3 7LQ", "code": "WOH"}, {"name": "Wolverhampton", "postcode": "WV1 1LE", "code": "WVH"}, {"name": "Wolverton", "postcode": "MK12 5TR", "code": "WOL"}, {"name": "Wombwell", "postcode": "S73 0LU", "code": "WOM"}, {"name": "Wood End", "postcode": "B94 5ED", "code": "WDE"}, {"name": "Wood Street", "postcode": "E17 3LX", "code": "WST"}, {"name": "Woodbridge", "postcode": "IP12 4AJ", "code": "WDB"}, {"name": "Woodgrange Park", "postcode": "E12 6UL", "code": "WGR"}, {"name": "Woodhall", "postcode": "PA14 6QX", "code": "WDL"}, {"name": "Woodhouse", "postcode": "S13 9WQ", "code": "WDH"}, {"name": "Woodlesford", "postcode": "LS26 8RA", "code": "WDS"}, {"name": "Woodley", "postcode": "SK6 1NT", "code": "WLY"}, {"name": "Woodmansterne", "postcode": "CR5 3HS", "code": "WME"}, {"name": "Woodsmoor", "postcode": "SK2 7DN", "code": "WSR"}, {"name": "Wool", "postcode": "BH20 6BL", "code": "WOO"}, {"name": "Woolston", "postcode": "SO19 7DD", "code": "WLS"}, {"name": "Woolwich Arsenal", "postcode": "SE18 6AR", "code": "WWA"}, {"name": "Woolwich Dockyard", "postcode": "SE18 5JY", "code": "WWD"}, {"name": "Wootton Wawen", "postcode": "B95 6BG", "code": "WWW"}, {"name": "Worcester Foregate Street", "postcode": "WR1 1XX", "code": "WOF"}, {"name": "Worcester Park", "postcode": "KT4 7NB", "code": "WCP"}, {"name": "Worcester Shrub Hill", "postcode": "WR4 9EJ", "code": "WOS"}, {"name": "Workington", "postcode": "CA14 2XF", "code": "WKG"}, {"name": "Worksop", "postcode": "S81 7AG", "code": "WRK"}, {"name": "Worle", "postcode": "BS22 6BW", "code": "WOR"}, {"name": "Worplesdon", "postcode": "GU22 0SP", "code": "WPL"}, {"name": "Worstead", "postcode": "NR28 9RY", "code": "WRT"}, {"name": "Worthing", "postcode": "BN11 1UR", "code": "WRH"}, {"name": "Wrabness", "postcode": "CO11 2TJ", "code": "WRB"}, {"name": "Wraysbury", "postcode": "TW19 5NJ", "code": "WRY"}, {"name": "Wrenbury", "postcode": "CW5 8EX", "code": "WRE"}, {"name": "Wressle", "postcode": "YO8 6ER", "code": "WRS"}, {"name": "Wrexham Central", "postcode": "LL11 1SP", "code": "WXC"}, {"name": "Wrexham General", "postcode": "LL11 2AA", "code": "WRX"}, {"name": "Wye", "postcode": "TN25 5HB", "code": "WYE"}, {"name": "Wylam", "postcode": "NE41 8HR", "code": "WYM"}, {"name": "Wylde Green", "postcode": "B73 5NX", "code": "WYL"}, {"name": "Wymondham", "postcode": "NR18 0JZ", "code": "WMD"}, {"name": "Wythall", "postcode": "B47 6HE", "code": "WYT"}, {"name": "Yalding", "postcode": "ME18 6HN", "code": "YAL"}, {"name": "Yardley Wood", "postcode": "B28 0RX", "code": "YRD"}, {"name": "Yarm", "postcode": "TS15 9EQ", "code": "YRM"}, {"name": "Yate", "postcode": "BS37 5HZ", "code": "YAE"}, {"name": "Yatton", "postcode": "BS49 4BD", "code": "YAT"}, {"name": "Yeoford", "postcode": "EX17 5JB", "code": "YEO"}, {"name": "Yeovil Junction", "postcode": "BA22 9UU", "code": "YVJ"}, {"name": "Yeovil Pen Mill", "postcode": "BA21 5DD", "code": "YVP"}, {"name": "Yetminster", "postcode": "DT9 6NE", "code": "YET"}, {"name": "Ynyswen", "postcode": "CF42 6EF", "code": "YNW"}, {"name": "Yoker", "postcode": "G81 1JQ", "code": "YOK"}, {"name": "York", "postcode": "YO24 1AB", "code": "YRK"}, {"name": "Yorton", "postcode": "SY4 3EP", "code": "YRT"}, {"name": "Ystrad Mynach", "postcode": "CF82 7BQ", "code": "YSM"}, {"name": "Ystrad Rhondda", "postcode": "CF41 7RE", "code": "YSR"}]